station,valid,tmpf,dwpf,relh,drct,sknt,p01i,alti,mslp,vsby,gust,skyc1,skyc2,skyc3,skyc4,skyl1,skyl2,skyl3,skyl4,wxcodes,ice_accretion_1hr,ice_accretion_3hr,ice_accretion_6hr,peak_wind_gust,peak_wind_drct,peak_wind_time,feel,metar,snowdepth
ALO,2022-01-01 00:54,26.10,19.90,77.06,350.00,14.00,0.00,29.80,1010.30,9.00,M,BKN,OVC,M,M,1600.00,2300.00,M,M,M,M,M,M,26.00,340.00,2021-12-31 23:59,13.56,KALO 010054Z 35014KT 9SM BKN016 OVC023 M03/M07 A2980 RMK AO2 PK WND 34026/2359 SLP103 T10331067 $,M
ALO,2022-01-01 01:54,23.00,17.10,77.77,350.00,15.00,0.00,29.82,1010.90,8.00,M,SCT,M,M,M,2100.00,M,M,M,M,M,M,M,M,M,M,9.11,KALO 010154Z 35015KT 8SM SCT021 M05/M08 A2982 RMK AO2 SLP109 T10501083 $,M
ALO,2022-01-01 02:54,19.90,14.00,77.48,340.00,14.00,0.00,29.84,1011.80,10.00,M,CLR,M,M,M,M,M,M,M,M,M,M,M,M,M,M,5.57,KALO 010254Z AUTO 34014KT 10SM CLR M07/M10 A2984 RMK AO2 PRESRR SLP118 T10671100 51031 $,M
ALO,2022-01-01 03:54,16.00,10.00,76.77,350.00,12.00,0.00,29.86,1012.30,10.00,M,CLR,M,M,M,M,M,M,M,M,M,M,M,M,M,M,1.64,KALO 010354Z AUTO 35012KT 10SM CLR M09/M12 A2986 RMK AO2 SLP123 T10891122 $,M
ALO,2022-01-01 04:54,14.00,8.10,76.92,340.00,14.00,0.00,29.89,1013.40,10.00,M,CLR,M,M,M,M,M,M,M,M,M,M,M,M,M,M,-2.04,KALO 010454Z AUTO 34014KT 10SM CLR M10/M13 A2989 RMK AO2 SLP134 T11001133 $,M
ALO,2022-01-01 05:54,12.90,6.10,73.74,320.00,10.00,0.00,29.94,1015.10,10.00,23.00,CLR,M,M,M,M,M,M,M,M,M,M,M,M,M,M,-0.98,KALO 010554Z AUTO 32010G23KT 10SM CLR M11/M14 A2994 RMK AO2 SLP151 T11061144 11022 21106 410111106 53031 $,M
ALO,2022-01-01 06:54,10.90,5.00,76.62,340.00,14.00,0.00,29.92,1014.70,10.00,M,CLR,M,M,M,M,M,M,M,M,M,M,M,M,M,M,-6.04,KALO 010654Z AUTO 34014KT 10SM CLR M12/M15 A2992 RMK AO2 SLP147 T11171150 $,M
ALO,2022-01-01 07:54,10.00,3.00,72.75,340.00,14.00,0.00,29.96,1016.00,10.00,23.00,CLR,M,M,M,M,M,M,M,M,M,M,M,26.00,340.00,2022-01-01 07:03,-7.20,KALO 010754Z AUTO 34014G23KT 10SM CLR M12/M16 A2996 RMK AO2 PK WND 34026/0703 SLP160 T11221161 $,M
ALO,2022-01-01 08:54,8.10,1.00,72.20,350.00,17.00,0.00,29.95,1015.60,10.00,M,CLR,M,M,M,M,M,M,M,M,M,M,M,M,M,M,-11.24,KALO 010854Z AUTO 35017KT 10SM CLR M13/M17 A2995 RMK AO2 PRESFR SLP156 T11331172 50004 $,M
ALO,2022-01-01 09:54,8.10,0.00,68.90,360.00,10.00,0.00,29.98,1016.60,10.00,M,CLR,M,M,M,M,M,M,M,M,M,M,M,M,M,M,-7.00,KALO 010954Z AUTO 36010KT 10SM CLR M13/M18 A2998 RMK AO2 SLP166 T11331178 $,M
ALO,2022-01-01 10:54,8.10,0.00,68.90,350.00,16.00,0.00,30.00,1017.40,10.00,M,CLR,M,M,M,M,M,M,M,M,M,M,M,M,M,M,-10.73,KALO 011054Z AUTO 35016KT 10SM CLR M13/M18 A3000 RMK AO2 PRESRR SLP174 T11331178 $,M
ALO,2022-01-01 11:54,6.10,-2.00,68.64,360.00,9.00,0.00,29.98,1016.90,10.00,24.00,SCT,M,M,M,11000.00,M,M,M,M,M,M,M,28.00,360.00,2022-01-01 11:23,-8.69,KALO 011154Z 36009G24KT 10SM SCT110 M14/M19 A2998 RMK AO2 PK WND 36028/1123 SLP169 T11441189 11106 21144 50012 $,M
ALO,2022-01-01 12:54,5.00,-2.90,69.16,350.00,7.00,0.00,30.01,1017.80,10.00,M,FEW,BKN,M,M,9000.00,12000.00,M,M,M,M,M,M,M,M,M,-8.13,KALO 011254Z 35007KT 10SM FEW090 BKN120 M15/M19 A3001 RMK AO2 SLP178 T11501194 $,M
ALO,2022-01-01 13:54,6.10,-0.90,72.31,360.00,14.00,0.00,30.02,1018.40,10.00,M,OVC,M,M,M,11000.00,M,M,M,M,M,M,M,M,M,M,-12.22,KALO 011354Z 36014KT 10SM OVC110 M14/M18 A3002 RMK AO2 SLP184 T11441183 $,M
ALO,2022-01-01 14:54,7.00,0.00,72.41,360.00,17.00,0.00,30.01,1017.90,10.00,22.00,BKN,M,M,M,11000.00,M,M,M,M,M,M,M,26.00,360.00,2022-01-01 14:35,-12.68,KALO 011454Z 36017G22KT 10SM BKN110 M14/M18 A3001 RMK AO2 PK WND 36026/1435 PRESRR SLP179 T11391178 50009 $,M
ALO,2022-01-01 15:54,8.10,0.00,68.90,360.00,16.00,0.00,30.05,1019.40,10.00,M,SCT,M,M,M,10000.00,M,M,M,M,M,M,M,M,M,M,-10.73,KALO 011554Z 36016KT 10SM SCT100 M13/M18 A3005 RMK AO2 SLP194 T11331178 $,M
ALO,2022-01-01 16:54,8.10,0.00,68.90,360.00,17.00,0.00,30.03,1018.80,10.00,23.00,OVC,M,M,M,9000.00,M,M,M,M,M,M,M,M,M,M,-11.24,KALO 011654Z 36017G23KT 10SM OVC090 M13/M18 A3003 RMK AO2 SLP188 T11331178 $,M
ALO,2022-01-01 17:54,8.10,0.00,68.90,350.00,17.00,0.00,30.02,1018.40,10.00,M,OVC,M,M,M,8500.00,M,M,M,M,M,M,M,27.00,350.00,2022-01-01 17:24,-11.24,KALO 011754Z 35017KT 10SM OVC085 M13/M18 A3002 RMK AO2 PK WND 35027/1724 SLP184 T11331178 11133 21150 50003 $,M
ALO,2022-01-01 18:54,7.00,-0.90,69.41,350.00,20.00,0.00,29.99,1017.40,10.00,M,OVC,M,M,M,6500.00,M,M,M,M,M,M,M,28.00,350.00,2022-01-01 18:32,-14.07,KALO 011854Z 35020KT 10SM OVC065 M14/M18 A2999 RMK AO2 PK WND 35028/1832 SLP174 T11391183 $,M
ALO,2022-01-01 19:54,7.00,-0.90,69.41,350.00,16.00,0.00,30.02,1018.60,10.00,M,OVC,M,M,M,5500.00,M,M,M,M,M,M,M,M,M,M,-12.17,KALO 011954Z 35016KT 10SM OVC055 M14/M18 A3002 RMK AO2 SLP186 T11391183 $,M
ALO,2022-01-01 20:54,7.00,-0.90,69.41,360.00,14.00,0.00,30.03,1018.90,10.00,M,BKN,OVC,M,M,4400.00,5000.00,M,M,M,M,M,M,M,M,M,-11.06,KALO 012054Z 36014KT 10SM BKN044 OVC050 M14/M18 A3003 RMK AO2 SLP189 T11391183 53003 $,M
ALO,2022-01-01 21:54,7.00,-0.90,69.41,350.00,14.00,T,30.05,1019.50,4.00,M,BKN,OVC,M,M,3900.00,4800.00,M,M,-SN,M,M,M,M,M,M,-11.06,KALO 012154Z 35014KT 4SM -SN BKN039 OVC048 M14/M18 A3005 RMK AO2 SNB50 SLP195 P0000 T11391183 $,M
ALO,2022-01-01 22:54,6.10,-2.00,68.64,350.00,15.00,T,30.06,1019.90,10.00,24.00,OVC,M,M,M,4900.00,M,M,M,M,M,M,M,M,M,M,-12.80,KALO 012254Z 35015G24KT 10SM OVC049 M14/M19 A3006 RMK AO2 SNE24 SLP199 P0000 T11441189 $,M
ALO,2022-01-01 23:54,5.00,-2.90,69.16,340.00,15.00,0.00,30.06,1020.10,10.00,M,OVC,M,M,M,5000.00,M,M,M,M,M,M,M,M,M,M,-14.22,KALO 012354Z 34015KT 10SM OVC050 M15/M19 A3006 RMK AO2 SLP201 60000 T11501194 11133 21150 51011 $,M
ALO,2022-01-02 00:54,5.00,-2.90,69.16,350.00,13.00,0.00,30.07,1020.40,10.00,M,OVC,M,M,M,6500.00,M,M,M,M,M,M,M,M,M,M,-13.02,KALO 020054Z 35013KT 10SM OVC065 M15/M19 A3007 RMK AO2 SLP204 T11501194 $,M
ALO,2022-01-02 01:54,3.90,-5.10,65.47,330.00,14.00,0.00,30.11,1021.60,10.00,M,OVC,M,M,M,6500.00,M,M,M,M,M,M,M,M,M,M,-15.06,KALO 020154Z AUTO 33014KT 10SM OVC065 M16/M21 A3011 RMK AO2 SLP216 T11561206 $,M
ALO,2022-01-02 02:54,3.90,-5.10,65.47,330.00,11.00,0.00,30.11,1021.70,10.00,M,FEW,BKN,OVC,M,6000.00,8000.00,12000.00,M,M,M,M,M,M,M,M,-13.04,KALO 020254Z AUTO 33011KT 10SM FEW060 BKN080 OVC120 M16/M21 A3011 RMK AO2 SLP217 T11561206 51015 $,M
ALO,2022-01-02 03:54,3.00,-6.00,65.35,340.00,15.00,0.00,30.12,1022.10,10.00,M,OVC,M,M,M,8000.00,M,M,M,M,M,M,M,M,M,M,-16.82,KALO 020354Z AUTO 34015KT 10SM OVC080 M16/M21 A3012 RMK AO2 SLP221 T11611211 $,M
ALO,2022-01-02 04:54,0.00,-8.00,68.19,340.00,9.00,0.00,30.15,1023.10,10.00,M,BKN,M,M,M,9500.00,M,M,M,M,M,M,M,M,M,M,-16.28,KALO 020454Z AUTO 34009KT 10SM BKN095 M18/M22 A3015 RMK AO2 SLP231 T11781222 $,M
ALO,2022-01-02 05:54,-2.00,-9.90,68.27,320.00,10.00,0.00,30.17,1023.90,10.00,M,OVC,M,M,M,7500.00,M,M,M,M,M,M,M,M,M,M,-19.67,KALO 020554Z AUTO 32010KT 10SM OVC075 M19/M23 A3017 RMK AO2 SLP239 T11891233 11150 21189 411111189 53020 $,M
ALO,2022-01-02 06:54,-2.00,-11.00,64.65,330.00,10.00,0.00,30.16,1023.60,10.00,M,CLR,M,M,M,M,M,M,M,M,M,M,M,M,M,M,-19.67,KALO 020654Z AUTO 33010KT 10SM CLR M19/M24 A3016 RMK AO2 SLP236 T11891239 $,M
ALO,2022-01-02 07:54,-5.10,-13.00,67.86,330.00,11.00,0.00,30.19,1024.70,10.00,M,CLR,M,M,M,M,M,M,M,M,M,M,M,M,M,M,-24.42,KALO 020754Z AUTO 33011KT 10SM CLR M21/M25 A3019 RMK AO2 SLP247 T12061250 $,M
ALO,2022-01-02 08:54,-6.00,-15.00,64.08,320.00,10.00,0.00,30.21,1025.40,10.00,M,CLR,M,M,M,M,M,M,M,M,M,M,M,M,M,M,-24.68,KALO 020854Z AUTO 32010KT 10SM CLR M21/M26 A3021 RMK AO2 SLP254 T12111261 53014 $,M
ALO,2022-01-02 09:54,-8.00,-16.10,66.79,320.00,7.00,0.00,30.20,1024.90,10.00,M,CLR,M,M,M,M,M,M,M,M,M,M,M,M,M,M,-23.98,KALO 020954Z AUTO 32007KT 10SM CLR M22/M27 A3020 RMK AO2 SLP249 T12221267 $,M
ALO,2022-01-02 10:54,-8.00,-16.10,66.79,320.00,11.00,0.00,30.21,1025.30,10.00,M,CLR,M,M,M,M,M,M,M,M,M,M,M,M,M,M,-28.08,KALO 021054Z AUTO 32011KT 10SM CLR M22/M27 A3021 RMK AO2 SLP253 T12221267 $,M
ALO,2022-01-02 11:54,-9.00,-17.00,66.99,310.00,9.00,0.00,30.22,1025.80,10.00,M,CLR,M,M,M,M,M,M,M,M,M,M,M,M,M,M,-27.47,KALO 021154Z 31009KT 10SM CLR M23/M27 A3022 RMK AO2 SLP258 T12281272 11189 21228 53002 $,M
ALO,2022-01-02 12:54,-9.00,-17.00,66.99,320.00,10.00,0.00,30.24,1026.60,10.00,M,CLR,M,M,M,M,M,M,M,M,M,M,M,M,M,M,-28.45,KALO 021254Z 32010KT 10SM CLR M23/M27 A3024 RMK AO2 SLP266 T12281272 $,M
ALO,2022-01-02 13:54,-9.00,-17.00,66.99,320.00,8.00,0.00,30.28,1027.90,10.00,M,CLR,M,M,M,M,M,M,M,M,M,M,M,M,M,M,-26.39,KALO 021354Z 32008KT 10SM CLR M23/M27 A3028 RMK AO2 SLP279 T12281272 $,M
ALO,2022-01-02 14:54,-7.10,-16.10,63.92,310.00,7.00,0.00,30.30,1028.40,10.00,M,CLR,M,M,M,M,M,M,M,M,M,M,M,M,M,M,-22.88,KALO 021454Z 31007KT 10SM CLR M22/M27 A3030 RMK AO2 SLP284 T12171267 51026 $,M
ALO,2022-01-02 15:54,-4.00,-14.10,60.91,340.00,8.00,0.00,30.31,1029.00,10.00,M,CLR,M,M,M,M,M,M,M,M,M,M,M,M,M,M,-20.23,KALO 021554Z 34008KT 10SM CLR M20/M26 A3031 RMK AO2 SLP290 T12001256 $,M
ALO,2022-01-02 16:54,-0.90,-13.00,55.56,330.00,7.00,0.00,30.30,1028.40,10.00,M,CLR,M,M,M,M,M,M,M,M,M,M,M,M,M,M,-15.32,KALO 021654Z 33007KT 10SM CLR M18/M25 A3030 RMK AO2 SLP284 T11831250,M
ALO,2022-01-02 17:54,1.90,-11.00,53.84,340.00,5.00,0.00,30.29,1028.00,10.00,M,CLR,M,M,M,M,M,M,M,M,M,M,M,M,M,M,-9.35,KALO 021754Z 34005KT 10SM CLR M17/M24 A3029 RMK AO2 SLP280 T11671239 11167 21228 58004,M
ALO,2022-01-02 18:54,5.00,-8.00,54.09,340.00,5.00,0.00,30.28,1027.60,10.00,M,CLR,M,M,M,M,M,M,M,M,M,M,M,M,M,M,-5.67,KALO 021854Z 34005KT 10SM CLR M15/M22 A3028 RMK AO2 SLP276 T11501222,M
ALO,2022-01-02 19:54,8.10,-6.00,51.77,290.00,4.00,0.00,30.26,1027.10,10.00,M,CLR,M,M,M,M,M,M,M,M,M,M,M,M,M,M,-0.49,KALO 021954Z 29004KT 10SM CLR M13/M21 A3026 RMK AO2 SLP271 T11331211,M
ALO,2022-01-02 20:54,8.10,-7.10,49.09,310.00,6.00,0.00,30.27,1027.50,10.00,M,CLR,M,M,M,M,M,M,M,M,M,M,M,M,M,M,-3.25,KALO 022054Z 31006KT 10SM CLR M13/M22 A3027 RMK AO2 SLP275 T11331217 55004,M
ALO,2022-01-02 21:54,7.00,-11.00,42.60,320.00,6.00,0.00,30.28,1027.90,10.00,M,CLR,M,M,M,M,M,M,M,M,M,M,M,M,M,M,-4.58,KALO 022154Z 32006KT 10SM CLR M14/M24 A3028 RMK AO2 SLP279 T11391239,M
ALO,2022-01-02 22:54,5.00,-11.00,46.67,310.00,3.00,0.00,30.30,1028.40,10.00,M,CLR,M,M,M,M,M,M,M,M,M,M,M,M,M,M,-2.18,KALO 022254Z 31003KT 10SM CLR M15/M24 A3030 RMK AO2 SLP284 T11501239,M
ALO,2022-01-02 23:54,3.00,-8.00,59.30,260.00,3.00,0.00,30.33,1029.60,10.00,M,CLR,M,M,M,M,M,M,M,M,M,M,M,M,M,M,-4.46,KALO 022354Z 26003KT 10SM CLR M16/M22 A3033 RMK AO2 SLP296 T11611222 11128 21167 53018,M
ALO,2022-01-03 00:54,1.00,-8.00,65.07,0.00,0.00,0.00,30.32,1029.50,10.00,M,CLR,M,M,M,M,M,M,M,M,M,M,M,M,M,M,1.00,KALO 030054Z 00000KT 10SM CLR M17/M22 A3032 RMK AO2 SLP295 T11721222,M
ALO,2022-01-03 01:54,1.00,-8.00,65.07,150.00,4.00,0.00,30.31,1029.00,10.00,M,CLR,M,M,M,M,M,M,M,M,M,M,M,M,M,M,-8.78,KALO 030154Z AUTO 15004KT 10SM CLR M17/M22 A3031 RMK AO2 SLP290 T11721222,M
ALO,2022-01-03 02:54,1.00,-7.10,67.99,170.00,4.00,0.00,30.31,1028.90,10.00,M,CLR,M,M,M,M,M,M,M,M,M,M,M,M,M,M,-8.78,KALO 030254Z AUTO 17004KT 10SM CLR M17/M22 A3031 RMK AO2 SLP289 T11721217 55006,M
ALO,2022-01-03 03:54,1.90,-6.00,68.77,200.00,3.00,0.00,30.30,1028.60,10.00,M,CLR,M,M,M,M,M,M,M,M,M,M,M,M,M,M,-5.72,KALO 030354Z AUTO 20003KT 10SM CLR M17/M21 A3030 RMK AO2 SLP286 T11671211,M
ALO,2022-01-03 04:54,3.00,-5.10,68.25,200.00,6.00,0.00,30.31,1028.80,10.00,M,CLR,M,M,M,M,M,M,M,M,M,M,M,M,M,M,-9.40,KALO 030454Z AUTO 20006KT 10SM CLR M16/M21 A3031 RMK AO2 SLP288 T11611206,M
ALO,2022-01-03 05:54,1.90,-6.00,68.77,180.00,5.00,0.00,30.30,1028.40,10.00,M,CLR,M,M,M,M,M,M,M,M,M,M,M,M,M,M,-9.35,KALO 030554Z AUTO 18005KT 10SM CLR M17/M21 A3030 RMK AO2 SLP284 T11671211 11156 21183 411281228 58003,M
ALO,2022-01-03 06:54,1.90,-6.00,68.77,190.00,4.00,0.00,30.27,1027.40,10.00,M,CLR,M,M,M,M,M,M,M,M,M,M,M,M,M,M,-7.73,KALO 030654Z AUTO 19004KT 10SM CLR M17/M21 A3027 RMK AO2 SLP274 T11671211,M
ALO,2022-01-03 07:54,3.00,-5.10,68.25,190.00,5.00,0.00,30.28,1027.70,10.00,M,CLR,M,M,M,M,M,M,M,M,M,M,M,M,M,M,-8.05,KALO 030754Z AUTO 19005KT 10SM CLR M16/M21 A3028 RMK AO2 SLP277 T11611206,M
ALO,2022-01-03 08:54,1.90,-5.10,71.82,150.00,4.00,0.00,30.27,1027.20,10.00,M,CLR,M,M,M,M,M,M,M,M,M,M,M,M,M,M,-7.73,KALO 030854Z AUTO 15004KT 10SM CLR M17/M21 A3027 RMK AO2 SLP272 T11671206 56009,M
ALO,2022-01-03 09:54,1.90,-5.10,71.82,160.00,5.00,0.00,30.26,1026.80,10.00,M,CLR,M,M,M,M,M,M,M,M,M,M,M,M,M,M,-9.35,KALO 030954Z AUTO 16005KT 10SM CLR M17/M21 A3026 RMK AO2 SLP268 T11671206,M
ALO,2022-01-03 10:54,3.00,-5.10,68.25,170.00,6.00,0.00,30.25,1026.60,10.00,M,CLR,M,M,M,M,M,M,M,M,M,M,M,M,M,M,-9.40,KALO 031054Z AUTO 17006KT 10SM CLR M16/M21 A3025 RMK AO2 SLP266 T11611206,M
ALO,2022-01-03 11:54,3.00,-5.10,68.25,160.00,6.00,0.00,30.23,1026.00,10.00,M,CLR,M,M,M,M,M,M,M,M,M,M,M,M,M,M,-9.40,KALO 031154Z 16006KT 10SM CLR M16/M21 A3023 RMK AO2 SLP260 T11611206 11161 21172 58013,M
ALO,2022-01-03 12:54,3.00,-5.10,68.25,160.00,7.00,0.00,30.24,1026.30,10.00,M,CLR,M,M,M,M,M,M,M,M,M,M,M,M,M,M,-10.57,KALO 031254Z 16007KT 10SM CLR M16/M21 A3024 RMK AO2 SLP263 T11611206,M
ALO,2022-01-03 13:54,3.90,-4.00,69.02,160.00,7.00,0.00,30.23,1026.00,10.00,M,CLR,M,M,M,M,M,M,M,M,M,M,M,M,M,M,-9.47,KALO 031354Z 16007KT 10SM CLR M16/M20 A3023 RMK AO2 SLP260 T11561200,M
ALO,2022-01-03 14:54,7.00,-0.90,69.41,160.00,6.00,0.00,30.24,1026.40,10.00,M,CLR,M,M,M,M,M,M,M,M,M,M,M,M,M,M,-4.58,KALO 031454Z 16006KT 10SM CLR M14/M18 A3024 RMK AO2 SLP264 T11391183 53004,M
ALO,2022-01-03 15:54,10.90,1.90,66.41,170.00,7.00,0.00,30.25,1026.30,10.00,M,CLR,M,M,M,M,M,M,M,M,M,M,M,M,M,M,-0.94,KALO 031554Z 17007KT 10SM CLR M12/M17 A3025 RMK AO2 SLP263 T11171167,M
ALO,2022-01-03 16:54,15.10,3.90,60.54,180.00,7.00,0.00,30.24,1026.10,10.00,M,CLR,M,M,M,M,M,M,M,M,M,M,M,M,M,M,4.18,KALO 031654Z 18007KT 10SM CLR M09/M16 A3024 RMK AO2 SLP261 T10941156,M
ALO,2022-01-03 17:54,18.00,7.00,61.52,160.00,7.00,0.00,30.20,1024.70,10.00,M,CLR,M,M,M,M,M,M,M,M,M,M,M,M,M,M,7.71,KALO 031754Z 16007KT 10SM CLR M08/M14 A3020 RMK AO2 SLP247 T10781139 11078 21161 58014,M
ALO,2022-01-03 18:54,19.90,10.00,64.91,190.00,9.00,0.00,30.19,1024.10,10.00,M,CLR,M,M,M,M,M,M,M,M,M,M,M,M,M,M,8.47,KALO 031854Z 19009KT 10SM CLR M07/M12 A3019 RMK AO2 SLP241 T10671122,M
ALO,2022-01-03 19:54,23.00,12.90,64.75,190.00,9.00,0.00,30.17,1023.40,10.00,M,CLR,M,M,M,M,M,M,M,M,M,M,M,M,M,M,12.32,KALO 031954Z 19009KT 10SM CLR M05/M11 A3017 RMK AO2 SLP234 T10501106,M
ALO,2022-01-03 20:54,24.10,12.90,61.83,170.00,10.00,0.00,30.15,1022.90,10.00,M,CLR,M,M,M,M,M,M,M,M,M,M,M,M,M,M,13.06,KALO 032054Z 17010KT 10SM CLR M04/M11 A3015 RMK AO2 SLP229 T10441106 57016,M
ALO,2022-01-03 21:54,23.00,12.90,64.75,170.00,9.00,0.00,30.16,1023.00,10.00,M,CLR,M,M,M,M,M,M,M,M,M,M,M,M,M,M,12.32,KALO 032154Z 17009KT 10SM CLR M05/M11 A3016 RMK AO2 SLP230 T10501106,M
ALO,2022-01-03 22:54,21.90,12.00,65.18,160.00,7.00,0.00,30.15,1022.90,10.00,M,CLR,M,M,M,M,M,M,M,M,M,M,M,M,M,M,12.47,KALO 032254Z 16007KT 10SM CLR M06/M11 A3015 RMK AO2 SLP229 T10561111,M
ALO,2022-01-03 23:54,21.00,12.00,67.71,160.00,10.00,0.00,30.14,1022.30,10.00,M,CLR,M,M,M,M,M,M,M,M,M,M,M,M,M,M,9.17,KALO 032354Z 16010KT 10SM CLR M06/M11 A3014 RMK AO2 SLP223 T10611111 11044 21078 58006,M
ALO,2022-01-04 00:54,21.00,12.00,67.71,160.00,11.00,0.00,30.11,1021.50,10.00,M,CLR,M,M,M,M,M,M,M,M,M,M,M,M,M,M,8.57,KALO 040054Z 16011KT 10SM CLR M06/M11 A3011 RMK AO2 SLP215 T10611111,M
ALO,2022-01-04 01:54,21.00,12.90,70.45,160.00,8.00,0.00,30.10,1021.10,10.00,M,CLR,M,M,M,M,M,M,M,M,M,M,M,M,M,M,10.56,KALO 040154Z AUTO 16008KT 10SM CLR M06/M11 A3010 RMK AO2 SLP211 T10611106,M
ALO,2022-01-04 02:54,21.90,12.90,67.82,160.00,8.00,0.00,30.09,1020.50,10.00,M,CLR,M,M,M,M,M,M,M,M,M,M,M,M,M,M,11.67,KALO 040254Z AUTO 16008KT 10SM CLR M06/M11 A3009 RMK AO2 SLP205 T10561106 56016,M
ALO,2022-01-04 03:54,23.00,14.00,67.96,170.00,8.00,0.00,30.07,1019.80,10.00,M,CLR,M,M,M,M,M,M,M,M,M,M,M,M,M,M,13.03,KALO 040354Z AUTO 17008KT 10SM CLR M05/M10 A3007 RMK AO2 SLP198 T10501100,M
ALO,2022-01-04 04:54,23.00,15.10,71.30,160.00,5.00,0.00,30.06,1019.50,10.00,M,CLR,M,M,M,M,M,M,M,M,M,M,M,M,M,M,15.71,KALO 040454Z AUTO 16005KT 10SM CLR M05/M09 A3006 RMK AO2 SLP195 T10501094,M
ALO,2022-01-04 05:54,21.90,15.10,74.69,160.00,6.00,0.00,30.05,1019.00,10.00,M,CLR,M,M,M,M,M,M,M,M,M,M,M,M,M,M,13.37,KALO 040554Z AUTO 16006KT 10SM CLR M06/M09 A3005 RMK AO2 SLP190 T10561094 11044 21061 410441172 56013,M
ALO,2022-01-04 06:54,23.00,17.10,77.77,160.00,9.00,0.00,30.03,1018.30,10.00,M,CLR,M,M,M,M,M,M,M,M,M,M,M,M,M,M,12.32,KALO 040654Z AUTO 16009KT 10SM CLR M05/M08 A3003 RMK AO2 SLP183 T10501083,M
ALO,2022-01-04 07:54,24.10,18.00,77.21,150.00,10.00,0.00,30.00,1017.30,10.00,M,CLR,M,M,M,M,M,M,M,M,M,M,M,M,M,M,13.06,KALO 040754Z AUTO 15010KT 10SM CLR M04/M08 A3000 RMK AO2 SLP173 T10441078,M
ALO,2022-01-04 08:54,24.10,18.00,77.21,150.00,7.00,0.00,29.98,1016.50,10.00,M,CLR,M,M,M,M,M,M,M,M,M,M,M,M,M,M,15.15,KALO 040854Z AUTO 15007KT 10SM CLR M04/M08 A2998 RMK AO2 SLP165 T10441078 58022,M
ALO,2022-01-04 09:54,24.10,18.00,77.21,170.00,10.00,0.00,29.95,1015.30,10.00,M,CLR,M,M,M,M,M,M,M,M,M,M,M,M,M,M,13.06,KALO 040954Z AUTO 17010KT 10SM CLR M04/M08 A2995 RMK AO2 SLP153 T10441078,M
ALO,2022-01-04 10:54,25.00,18.00,74.36,160.00,11.00,0.00,29.91,1014.20,10.00,M,CLR,M,M,M,M,M,M,M,M,M,M,M,M,M,M,13.62,KALO 041054Z AUTO 16011KT 10SM CLR M04/M08 A2991 RMK AO2 SLP142 T10391078,M
ALO,2022-01-04 11:54,24.10,17.10,74.27,160.00,10.00,0.00,29.88,1013.00,10.00,M,CLR,M,M,M,M,M,M,M,M,M,M,M,M,M,M,13.06,KALO 041154Z 16010KT 10SM CLR M04/M08 A2988 RMK AO2 SLP130 T10441083 11039 21056 56034,M
ALO,2022-01-04 12:54,24.10,18.00,77.21,160.00,11.00,0.00,29.85,1012.20,10.00,M,CLR,M,M,M,M,M,M,M,M,M,M,M,M,M,M,12.48,KALO 041254Z 16011KT 10SM CLR M04/M08 A2985 RMK AO2 SLP122 T10441078,M
ALO,2022-01-04 13:54,25.00,18.00,74.36,160.00,10.00,0.00,29.82,1010.90,10.00,20.00,CLR,M,M,M,M,M,M,M,M,M,M,M,M,M,M,14.19,KALO 041354Z 16010G20KT 10SM CLR M04/M08 A2982 RMK AO2 SLP109 T10391078,M
ALO,2022-01-04 14:54,26.10,19.00,74.16,160.00,11.00,0.00,29.78,1009.50,10.00,M,CLR,M,M,M,M,M,M,M,M,M,M,M,M,M,M,15.01,KALO 041454Z 16011KT 10SM CLR M03/M07 A2978 RMK AO2 SLP095 T10331072 58034,M
ALO,2022-01-04 15:54,28.90,21.00,71.96,160.00,12.00,0.00,29.75,1008.60,10.00,20.00,CLR,M,M,M,M,M,M,M,M,M,M,M,M,M,M,18.06,KALO 041554Z 16012G20KT 10SM CLR M02/M06 A2975 RMK AO2 SLP086 T10171061,M
ALO,2022-01-04 16:54,30.00,21.90,71.48,160.00,12.00,0.00,29.73,1007.70,10.00,M,CLR,M,M,M,M,M,M,M,M,M,M,M,M,M,M,19.46,KALO 041654Z 16012KT 10SM CLR M01/M06 A2973 RMK AO2 SLP077 T10111056,M
ALO,2022-01-04 17:54,32.00,21.90,65.92,160.00,13.00,0.00,29.66,1005.60,10.00,21.00,CLR,M,M,M,M,M,M,M,M,M,M,M,M,M,M,21.57,KALO 041754Z 16013G21KT 10SM CLR 00/M06 A2966 RMK AO2 SLP056 T00001056 10000 21044 58038,M
ALO,2022-01-04 18:54,33.10,23.00,66.06,160.00,11.00,0.00,29.61,1003.60,10.00,M,CLR,M,M,M,M,M,M,M,M,M,M,M,M,M,M,23.86,KALO 041854Z 16011KT 10SM CLR 01/M05 A2961 RMK AO2 SLP036 T00061050,M
ALO,2022-01-04 19:54,33.10,23.00,66.06,160.00,13.00,0.00,29.55,1001.60,10.00,M,CLR,M,M,M,M,M,M,M,M,M,M,M,M,M,M,22.98,KALO 041954Z 16013KT 10SM CLR 01/M05 A2955 RMK AO2 SLP016 T00061050,M
ALO,2022-01-04 20:54,33.10,23.00,66.06,160.00,18.00,0.00,29.51,1000.10,10.00,27.00,CLR,M,M,M,M,M,M,M,M,M,M,M,27.00,150.00,2022-01-04 20:37,21.20,KALO 042054Z 16018G27KT 10SM CLR 01/M05 A2951 RMK AO2 PK WND 15027/2037 SLP001 T00061050 56051,M
ALO,2022-01-04 21:54,33.10,24.10,69.17,160.00,14.00,0.00,29.49,999.70,10.00,M,CLR,M,M,M,M,M,M,M,M,M,M,M,26.00,160.00,2022-01-04 21:28,22.58,KALO 042154Z 16014KT 10SM CLR 01/M04 A2949 RMK AO2 PK WND 16026/2128 SLP997 T00061044,M
ALO,2022-01-04 22:54,33.10,24.10,69.17,170.00,12.00,0.00,29.50,999.80,10.00,M,CLR,M,M,M,M,M,M,M,M,M,M,M,M,M,M,23.40,KALO 042254Z 17012KT 10SM CLR 01/M04 A2950 RMK AO2 SLP998 T00061044,M
ALO,2022-01-04 23:54,32.00,24.10,72.30,160.00,9.00,0.00,29.50,999.80,10.00,M,CLR,M,M,M,M,M,M,M,M,M,M,M,M,M,M,23.51,KALO 042354Z 16009KT 10SM CLR 00/M04 A2950 RMK AO2 SLP998 T00001044 10006 20000 55003,M
ALO,2022-01-05 00:54,32.00,24.10,72.30,160.00,7.00,0.00,29.47,998.90,10.00,M,SCT,M,M,M,12000.00,M,M,M,M,M,M,M,M,M,M,24.78,KALO 050054Z 16007KT 10SM SCT120 00/M04 A2947 RMK AO2 SLP989 T00001044,M
ALO,2022-01-05 01:54,30.00,23.00,74.87,190.00,5.00,0.00,29.46,998.50,10.00,M,FEW,M,M,M,12000.00,M,M,M,M,M,M,M,M,M,M,24.02,KALO 050154Z 19005KT 10SM FEW120 M01/M05 A2946 RMK AO2 SLP985 T10111050,M
ALO,2022-01-05 02:54,27.00,21.00,77.80,230.00,6.00,0.00,29.46,998.60,10.00,M,CLR,M,M,M,M,M,M,M,M,M,M,M,M,M,M,19.51,KALO 050254Z AUTO 23006KT 10SM CLR M03/M06 A2946 RMK AO2 SLP986 T10281061 56013,M
ALO,2022-01-05 03:54,28.00,21.90,77.57,290.00,26.00,0.00,29.49,999.70,6.00,39.00,BKN,M,M,M,1200.00,M,M,M,HZ,M,M,M,39.00,290.00,2022-01-05 03:51,12.14,KALO 050354Z AUTO 29026G39KT 6SM HZ BKN012 M02/M06 A2949 RMK AO2 PK WND 29039/0351 PRESRR SLP997 T10221056,M
ALO,2022-01-05 04:36,24.10,19.00,80.59,290.00,21.00,0.00,29.55,M,4.00,30.00,OVC,M,M,M,1500.00,M,M,M,HZ,M,M,M,39.00,290.00,2022-01-05 04:14,8.32,KALO 050436Z AUTO 29021G30KT 4SM HZ OVC015 M04/M07 A2955 RMK AO2 PK WND 29039/0414 PRESRR T10441072,M
ALO,2022-01-05 04:54,23.00,17.10,77.77,290.00,21.00,0.00,29.56,1002.10,5.00,35.00,OVC,M,M,M,1600.00,M,M,M,HZ,M,M,M,39.00,290.00,2022-01-05 04:14,6.85,KALO 050454Z AUTO 29021G35KT 5SM HZ OVC016 M05/M08 A2956 RMK AO2 PK WND 29039/0414 SLP021 T10501083,M
ALO,2022-01-05 05:54,19.90,14.00,77.48,300.00,22.00,T,29.59,1003.20,3.00,34.00,OVC,M,M,M,1900.00,M,M,M,-SN,M,M,M,40.00,300.00,2022-01-05 05:38,2.38,KALO 050554Z AUTO 30022G34KT 3SM -SN OVC019 M07/M10 A2959 RMK AO2 PK WND 30040/0538 SNB51 SLP032 P0000 60000 T10671100 10000 21067 400061067 51045,M
ALO,2022-01-05 06:54,17.10,9.00,69.99,300.00,20.00,T,29.63,1004.50,6.00,39.00,SCT,OVC,M,M,1600.00,2200.00,M,M,-SN,M,M,M,39.00,300.00,2022-01-05 06:50,-0.65,KALO 050654Z AUTO 30020G39KT 6SM -SN SCT016 OVC022 M08/M13 A2963 RMK AO2 PK WND 30039/0650 SLP045 P0000 T10831128,M
ALO,2022-01-05 07:06,16.00,10.00,76.77,290.00,20.00,T,29.64,M,1.75,31.00,BKN,OVC,M,M,1500.00,2300.00,M,M,-SN,M,M,M,31.00,280.00,2022-01-05 07:04,-2.11,KALO 050706Z AUTO 29020G31KT 1 3/4SM -SN BKN015 OVC023 M09/M12 A2964 RMK AO2 PK WND 28031/0704 P0000 T10891122,M
ALO,2022-01-05 07:15,16.00,9.00,73.41,300.00,22.00,T,29.64,M,3.00,36.00,BKN,OVC,M,M,1500.00,2200.00,M,M,-SN,M,M,M,36.00,300.00,2022-01-05 07:09,-2.85,KALO 050715Z AUTO 30022G36KT 3SM -SN BKN015 OVC022 M09/M13 A2964 RMK AO2 PK WND 30036/0709 P0000 T10891128,M
ALO,2022-01-05 07:30,16.00,9.00,73.41,300.00,20.00,T,29.64,M,2.50,40.00,BKN,OVC,M,M,1500.00,2200.00,M,M,-SN,M,M,M,40.00,300.00,2022-01-05 07:30,-2.11,KALO 050730Z AUTO 30020G40KT 2 1/2SM -SN BKN015 OVC022 M09/M13 A2964 RMK AO2 PK WND 30040/0730 P0000 T10891128,M
ALO,2022-01-05 07:34,16.00,8.10,70.50,290.00,24.00,T,29.64,M,3.00,40.00,BKN,OVC,M,M,1400.00,2200.00,M,M,-SN,M,M,M,40.00,280.00,2022-01-05 07:31,-3.53,KALO 050734Z AUTO 29024G40KT 3SM -SN BKN014 OVC022 M09/M13 A2964 RMK AO2 PK WND 28040/0731 P0000 T10891133,M
ALO,2022-01-05 07:44,15.10,8.10,73.31,290.00,25.00,T,29.65,M,3.00,37.00,BKN,OVC,M,M,1600.00,2300.00,M,M,-SN,M,M,M,40.00,280.00,2022-01-05 07:31,-5.07,KALO 050744Z AUTO 29025G37KT 3SM -SN BKN016 OVC023 M09/M13 A2965 RMK AO2 PK WND 28040/0731 P0000 T10941133,M
ALO,2022-01-05 07:54,15.10,8.10,73.31,290.00,24.00,T,29.66,1005.60,3.00,35.00,BKN,OVC,M,M,1600.00,2400.00,M,M,-SN,M,M,M,40.00,280.00,2022-01-05 07:31,-4.74,KALO 050754Z AUTO 29024G35KT 3SM -SN BKN016 OVC024 M09/M13 A2966 RMK AO2 PK WND 28040/0731 SLP056 P0000 T10941133,M
ALO,2022-01-05 08:05,15.10,8.10,73.31,290.00,19.00,T,29.67,M,2.50,28.00,BKN,OVC,M,M,1600.00,2400.00,M,M,-SN,M,M,M,30.00,300.00,2022-01-05 07:55,-2.91,KALO 050805Z AUTO 29019G28KT 2 1/2SM -SN BKN016 OVC024 M09/M13 A2967 RMK AO2 PK WND 30030/0755 P0000 T10941133,M
ALO,2022-01-05 08:14,15.10,8.10,73.31,280.00,20.00,T,29.67,M,1.75,30.00,BKN,OVC,M,M,1400.00,2500.00,M,M,-SN,M,M,M,30.00,300.00,2022-01-05 07:55,-3.31,KALO 050814Z AUTO 28020G30KT 1 3/4SM -SN BKN014 OVC025 M09/M13 A2967 RMK AO2 PK WND 30030/0755 P0000 T10941133,M
ALO,2022-01-05 08:25,15.10,8.10,73.31,300.00,23.00,T,29.68,M,3.00,34.00,OVC,M,M,M,1400.00,M,M,M,-SN,M,M,M,34.00,280.00,2022-01-05 08:16,-4.40,KALO 050825Z AUTO 30023G34KT 3SM -SN OVC014 M09/M13 A2968 RMK AO2 PK WND 28034/0816 P0000 T10941133,M
ALO,2022-01-05 08:38,14.00,7.00,73.19,290.00,19.00,T,29.69,M,4.00,29.00,BKN,OVC,M,M,1500.00,2600.00,M,M,-SN,M,M,M,34.00,280.00,2022-01-05 08:16,-4.37,KALO 050838Z AUTO 29019G29KT 4SM -SN BKN015 OVC026 M10/M14 A2969 RMK AO2 PK WND 28034/0816 P0000 T11001139,M
ALO,2022-01-05 08:54,15.10,6.10,66.96,290.00,17.00,T,29.69,1006.70,9.00,30.00,SCT,OVC,M,M,1900.00,2600.00,M,M,M,M,M,M,34.00,280.00,2022-01-05 08:16,-2.06,KALO 050854Z AUTO 29017G30KT 9SM SCT019 OVC026 M09/M14 A2969 RMK AO2 PK WND 28034/0816 SNE49 SLP067 P0000 60000 T10941144 51034,M
ALO,2022-01-05 09:54,12.00,3.00,66.56,280.00,20.00,0.00,29.73,1007.80,10.00,33.00,OVC,M,M,M,2200.00,M,M,M,M,M,M,M,38.00,280.00,2022-01-05 09:10,-7.42,KALO 050954Z AUTO 28020G33KT 10SM OVC022 M11/M16 A2973 RMK AO2 PK WND 28038/0910 SLP078 T11111161,M
ALO,2022-01-05 10:54,10.90,1.90,66.41,280.00,18.00,0.00,29.73,1007.90,10.00,29.00,OVC,M,M,M,2100.00,M,M,M,M,M,M,M,35.00,280.00,2022-01-05 10:03,-8.03,KALO 051054Z AUTO 28018G29KT 10SM OVC021 M12/M17 A2973 RMK AO2 PK WND 28035/1003 SLP079 T11171167,M
ALO,2022-01-05 11:54,10.00,0.00,63.26,280.00,17.00,0.00,29.74,1008.50,10.00,33.00,OVC,M,M,M,2300.00,M,M,M,M,M,M,M,34.00,290.00,2022-01-05 11:09,-8.75,KALO 051154Z 28017G33KT 10SM OVC023 M12/M18 A2974 RMK AO2 PK WND 29034/1109 SLP085 60000 T11221178 11067 21122 51016,M
ALO,2022-01-05 12:54,8.10,-2.00,62.70,280.00,20.00,0.00,29.76,1009.30,10.00,33.00,OVC,M,M,M,2100.00,M,M,M,M,M,M,M,37.00,280.00,2022-01-05 12:32,-12.60,KALO 051254Z 28020G33KT 10SM OVC021 M13/M19 A2976 RMK AO2 PK WND 28037/1232 SLP093 T11331189,M
ALO,2022-01-05 13:54,7.00,-2.90,63.14,280.00,17.00,0.00,29.78,1009.90,10.00,30.00,OVC,M,M,M,2300.00,M,M,M,M,M,M,M,35.00,300.00,2022-01-05 13:17,-12.68,KALO 051354Z 28017G30KT 10SM OVC023 M14/M19 A2978 RMK AO2 PK WND 30035/1317 SLP099 T11391194,M
ALO,2022-01-05 14:54,7.00,-2.90,63.14,280.00,25.00,0.00,29.79,1010.40,10.00,38.00,OVC,M,M,M,2300.00,M,M,M,M,M,M,M,38.00,260.00,2022-01-05 14:54,-16.03,KALO 051454Z 28025G38KT 10SM OVC023 M14/M19 A2979 RMK AO2 PK WND 26038/1454 SLP104 T11391194 51017,M
ALO,2022-01-05 15:54,8.10,-2.00,62.70,280.00,25.00,0.00,29.82,1011.20,10.00,38.00,OVC,M,M,M,2400.00,M,M,M,M,M,M,M,38.00,280.00,2022-01-05 15:48,-14.54,KALO 051554Z 28025G38KT 10SM OVC024 M13/M19 A2982 RMK AO2 PK WND 28038/1548 SLP112 T11331189,M
ALO,2022-01-05 16:54,9.00,1.00,69.33,280.00,20.00,0.00,29.83,1011.70,3.00,34.00,OVC,M,M,M,1900.00,M,M,M,HZ,M,M,M,38.00,270.00,2022-01-05 16:33,-11.41,KALO 051654Z 28020G34KT 3SM HZ OVC019 M13/M17 A2983 RMK AO2 PK WND 27038/1633 SLP117 T11281172,M
ALO,2022-01-05 17:54,10.90,1.90,66.41,290.00,18.00,0.00,29.84,1011.90,6.00,29.00,OVC,M,M,M,2000.00,M,M,M,HZ,M,M,M,36.00,290.00,2022-01-05 17:27,-8.03,KALO 051754Z 29018G29KT 6SM HZ OVC020 M12/M17 A2984 RMK AO2 PK WND 29036/1727 SLP119 T11171167 11117 21139 51015,M
ALO,2022-01-05 18:54,12.00,1.90,63.25,290.00,19.00,0.00,29.83,1011.90,10.00,33.00,OVC,M,M,M,2200.00,M,M,M,M,M,M,M,35.00,310.00,2022-01-05 18:42,-7.01,KALO 051854Z 29019G33KT 10SM OVC022 M11/M17 A2983 RMK AO2 PK WND 31035/1842 SLP119 T11111167,M
ALO,2022-01-05 19:54,12.00,1.90,63.25,290.00,18.00,0.00,29.86,1012.90,8.00,32.00,BKN,M,M,M,2200.00,M,M,M,M,M,M,M,34.00,280.00,2022-01-05 19:11,-6.58,KALO 051954Z 29018G32KT 8SM BKN022 M11/M17 A2986 RMK AO2 PK WND 28034/1911 PRESRR SLP129 T11111167,M
ALO,2022-01-05 20:54,12.00,3.00,66.56,290.00,17.00,0.00,29.91,1014.50,4.00,26.00,BKN,OVC,M,M,1800.00,2500.00,M,M,HZ,M,M,M,32.00,300.00,2022-01-05 20:14,-6.13,KALO 052054Z 29017G26KT 4SM HZ BKN018 OVC025 M11/M16 A2991 RMK AO2 PK WND 30032/2014 SLP145 T11111161 53024,M
ALO,2022-01-05 21:54,12.00,1.90,63.25,300.00,15.00,0.00,29.95,1016.10,10.00,24.00,BKN,M,M,M,2400.00,M,M,M,M,M,M,M,29.00,300.00,2022-01-05 21:08,-5.15,KALO 052154Z 30015G24KT 10SM BKN024 M11/M17 A2995 RMK AO2 PK WND 30029/2108 SLP161 T11111167,M
ALO,2022-01-05 22:51,10.40,3.20,72.12,310.00,18.00,T,29.97,M,2.50,27.00,FEW,BKN,M,M,1000.00,1600.00,M,M,-SN,M,M,M,30.00,300.00,2022-01-05 22:16,-8.69,KALO 052251Z 31018G27KT 2 1/2SM R12/5500VP6000FT -SN FEW010 BKN016 M12/M16 A2997 RMK AO2 PK WND 30030/2216 SNB46 P0000,M
ALO,2022-01-05 22:54,10.00,1.90,69.13,310.00,17.00,T,29.97,1016.70,3.00,26.00,FEW,BKN,M,M,1000.00,1600.00,M,M,-SN,M,M,M,30.00,300.00,2022-01-05 22:16,-8.75,KALO 052254Z 31017G26KT 3SM R12/6000VP6000FT -SN FEW010 BKN016 M12/M17 A2997 RMK AO2 PK WND 30030/2216 SNB46 SLP167 P0000 T11221167,M
ALO,2022-01-05 23:05,9.00,0.00,66.16,310.00,16.00,T,29.97,M,10.00,25.00,SCT,M,M,M,1600.00,M,M,M,M,M,M,M,M,M,M,-9.56,KALO 052305Z 31016G25KT 10SM SCT016 M13/M18 A2997 RMK AO2 SNE2256 P0000 T11281178,M
ALO,2022-01-05 23:54,8.10,-0.90,66.04,320.00,17.00,T,29.96,1016.70,10.00,25.00,CLR,M,M,M,M,M,M,M,M,M,M,M,27.00,320.00,2022-01-05 23:28,-11.24,KALO 052354Z 32017G25KT 10SM CLR M13/M18 A2996 RMK AO2 PK WND 32027/2328 SNE2256 SLP167 P0000 60000 T11331183 11106 21133 50004,M
ALO,2022-01-06 00:54,7.00,-2.00,65.89,290.00,13.00,0.00,30.04,1019.20,10.00,M,SCT,M,M,M,1700.00,M,M,M,M,M,M,M,M,M,M,-10.46,KALO 060054Z 29013KT 10SM SCT017 M14/M19 A3004 RMK AO2 PRESRR SLP192 T11391189,M
ALO,2022-01-06 01:05,7.00,-2.00,65.89,280.00,13.00,0.00,30.06,M,10.00,M,BKN,M,M,M,1700.00,M,M,M,M,M,M,M,M,M,M,-10.46,KALO 060105Z 28013KT 10SM BKN017 M14/M19 A3006 RMK AO2 PRESRR T11391189,M
ALO,2022-01-06 01:54,6.10,-2.00,68.64,290.00,17.00,0.00,30.08,1020.60,9.00,25.00,SCT,OVC,M,M,1500.00,3800.00,M,M,M,M,M,M,26.00,280.00,2022-01-06 01:16,-13.86,KALO 060154Z 29017G25KT 9SM SCT015 OVC038 M14/M19 A3008 RMK AO2 PK WND 28026/0116 SLP206 T11441189,M
ALO,2022-01-06 02:54,3.90,-4.00,69.02,300.00,17.00,0.00,30.10,1021.50,10.00,29.00,FEW,SCT,M,M,1600.00,3800.00,M,M,M,M,M,M,30.00,310.00,2022-01-06 02:37,-16.74,KALO 060254Z AUTO 30017G29KT 10SM FEW016 SCT038 M16/M20 A3010 RMK AO2 PK WND 31030/0237 PRESRR SLP215 T11561200 51021,M
ALO,2022-01-06 03:54,1.90,-5.10,71.82,300.00,16.00,0.00,30.11,1021.70,10.00,27.00,BKN,OVC,M,M,2500.00,4000.00,M,M,M,M,M,M,27.00,290.00,2022-01-06 03:48,-18.81,KALO 060354Z AUTO 30016G27KT 10SM BKN025 OVC040 M17/M21 A3011 RMK AO2 PK WND 29027/0348 SLP217 T11671206,M
ALO,2022-01-06 04:04,1.90,-6.00,68.77,300.00,15.00,0.00,30.11,M,10.00,M,SCT,BKN,M,M,2500.00,4000.00,M,M,M,M,M,M,M,M,M,-18.24,KALO 060404Z AUTO 30015KT 10SM SCT025 BKN040 M17/M21 A3011 RMK AO2 T11671211,M
ALO,2022-01-06 04:54,1.00,-6.00,71.71,290.00,13.00,0.00,30.13,1022.30,10.00,M,FEW,M,M,M,1000.00,M,M,M,M,M,M,M,M,M,M,-18.15,KALO 060454Z AUTO 29013KT 10SM FEW010 M17/M21 A3013 RMK AO2 SLP223 T11721211,M
ALO,2022-01-06 05:54,0.00,-8.00,68.19,310.00,13.00,0.00,30.14,1022.80,10.00,M,CLR,M,M,M,M,M,M,M,M,M,M,M,M,M,M,-19.43,KALO 060554Z AUTO 31013KT 10SM CLR M18/M22 A3014 RMK AO2 SLP228 T11781222 11133 21178 410671178 53012,M
ALO,2022-01-06 06:54,-0.90,-9.00,67.74,300.00,12.00,0.00,30.15,1023.00,10.00,M,CLR,M,M,M,M,M,M,M,M,M,M,M,M,M,M,-19.87,KALO 060654Z AUTO 30012KT 10SM CLR M18/M23 A3015 RMK AO2 SLP230 T11831228,M
ALO,2022-01-06 07:54,-0.90,-9.00,67.74,300.00,13.00,0.00,30.15,1023.20,10.00,20.00,CLR,M,M,M,M,M,M,M,M,M,M,M,M,M,M,-20.58,KALO 060754Z AUTO 30013G20KT 10SM CLR M18/M23 A3015 RMK AO2 SLP232 T11831228,M
ALO,2022-01-06 08:54,-2.00,-9.90,68.27,300.00,9.00,0.00,30.18,1023.90,10.00,17.00,CLR,M,M,M,M,M,M,M,M,M,M,M,M,M,M,-18.76,KALO 060854Z AUTO 30009G17KT 10SM CLR M19/M23 A3018 RMK AO2 SLP239 T11891233 53011,M
ALO,2022-01-06 09:54,-2.00,-9.90,68.27,290.00,11.00,0.00,30.18,1024.20,10.00,M,CLR,M,M,M,M,M,M,M,M,M,M,M,M,M,M,-20.50,KALO 060954Z AUTO 29011KT 10SM CLR M19/M23 A3018 RMK AO2 SLP242 T11891233,M
ALO,2022-01-06 10:54,-2.90,-11.00,67.48,290.00,14.00,0.00,30.19,1024.40,10.00,M,CLR,M,M,M,M,M,M,M,M,M,M,M,M,M,M,-23.82,KALO 061054Z AUTO 29014KT 10SM CLR M19/M24 A3019 RMK AO2 SLP244 T11941239,M
ALO,2022-01-06 11:54,-4.00,-11.90,68.00,310.00,14.00,0.00,30.20,1025.10,10.00,M,CLR,M,M,M,M,M,M,M,M,M,M,M,M,M,M,-25.24,KALO 061154Z 31014KT 10SM CLR M20/M24 A3020 RMK AO2 SLP251 T12001244 11178 21200 53009,M
ALO,2022-01-06 12:54,-5.10,-13.00,67.86,300.00,15.00,0.00,30.21,1025.40,10.00,M,CLR,M,M,M,M,M,M,M,M,M,M,M,M,M,M,-27.32,KALO 061254Z 30015KT 10SM CLR M21/M25 A3021 RMK AO2 SLP254 T12061250,M
ALO,2022-01-06 13:54,-5.10,-14.10,64.21,310.00,14.00,0.00,30.22,1025.70,10.00,M,CLR,M,M,M,M,M,M,M,M,M,M,M,M,M,M,-26.66,KALO 061354Z 31014KT 10SM CLR M21/M26 A3022 RMK AO2 SLP257 T12061256,M
ALO,2022-01-06 14:54,-5.10,-14.10,64.21,320.00,17.00,0.00,30.24,1026.40,10.00,M,CLR,M,M,M,M,M,M,M,M,M,M,M,M,M,M,-28.53,KALO 061454Z 32017KT 10SM CLR M21/M26 A3024 RMK AO2 SLP264 T12061256 53012,M
ALO,2022-01-06 15:54,-5.10,-14.10,64.21,310.00,13.00,0.00,30.26,1027.10,10.00,23.00,CLR,M,M,M,M,M,M,M,M,M,M,M,27.00,300.00,2022-01-06 15:37,-25.96,KALO 061554Z 31013G23KT 10SM CLR M21/M26 A3026 RMK AO2 PK WND 30027/1537 SLP271 T12061256,M
ALO,2022-01-06 16:54,-4.00,-13.00,64.37,300.00,16.00,0.00,30.26,1027.20,10.00,M,CLR,M,M,M,M,M,M,M,M,M,M,M,M,M,M,-26.50,KALO 061654Z 30016KT 10SM CLR M20/M25 A3026 RMK AO2 SLP272 T12001250,M
ALO,2022-01-06 17:54,-2.90,-11.90,64.53,300.00,14.00,0.00,30.25,1026.60,8.00,M,SCT,M,M,M,1400.00,M,M,M,M,M,M,M,M,M,M,-23.82,KALO 061754Z 30014KT 8SM SCT014 M19/M24 A3025 RMK AO2 SLP266 T11941244 11194 21211 50002,M
ALO,2022-01-06 18:03,-2.00,-11.00,64.65,290.00,13.00,0.00,30.24,M,7.00,M,BKN,M,M,M,1400.00,M,M,M,M,M,M,M,M,M,M,-21.99,KALO 061803Z 29013KT 7SM BKN014 M19/M24 A3024 RMK AO2 T11891239,M
ALO,2022-01-06 18:54,-2.00,-11.00,64.65,290.00,16.00,0.00,30.23,1026.20,5.00,M,OVC,M,M,M,1500.00,M,M,M,HZ,M,M,M,M,M,M,-23.90,KALO 061854Z 29016KT 5SM HZ OVC015 M19/M24 A3023 RMK AO2 SLP262 T11891239,M
ALO,2022-01-06 19:29,-2.00,-11.00,64.65,290.00,16.00,0.00,30.22,M,5.00,M,OVC,M,M,M,1300.00,M,M,M,HZ,M,M,M,M,M,M,-23.90,KALO 061929Z 29016KT 5SM HZ OVC013 M19/M24 A3022 RMK AO2 T11891239,M
ALO,2022-01-06 19:54,-2.00,-11.00,64.65,290.00,16.00,0.00,30.22,1025.90,9.00,22.00,BKN,M,M,M,1400.00,M,M,M,M,M,M,M,M,M,M,-23.90,KALO 061954Z 29016G22KT 9SM BKN014 M19/M24 A3022 RMK AO2 SLP259 T11891239,M
ALO,2022-01-06 20:06,-2.00,-11.90,61.83,290.00,18.00,0.00,30.22,M,10.00,24.00,SCT,M,M,M,1500.00,M,M,M,M,M,M,M,M,M,M,-25.01,KALO 062006Z 29018G24KT 10SM SCT015 M19/M24 A3022 RMK AO2 T11891244,M
ALO,2022-01-06 20:22,-2.00,-11.90,61.83,310.00,17.00,0.00,30.22,M,9.00,25.00,BKN,M,M,M,1500.00,M,M,M,M,M,M,M,26.00,290.00,2022-01-06 20:12,-24.47,KALO 062022Z 31017G25KT 9SM BKN015 M19/M24 A3022 RMK AO2 PK WND 29026/2012 T11891244,M
ALO,2022-01-06 20:35,-2.00,-11.90,61.83,300.00,15.00,0.00,30.23,M,10.00,M,SCT,M,M,M,1500.00,M,M,M,M,M,M,M,26.00,290.00,2022-01-06 20:12,-23.30,KALO 062035Z 30015KT 10SM SCT015 M19/M24 A3023 RMK AO2 PK WND 29026/2012 T11891244,M
ALO,2022-01-06 20:54,-2.00,-11.00,64.65,300.00,18.00,0.00,30.23,1026.10,8.00,25.00,BKN,M,M,M,1700.00,M,M,M,M,M,M,M,26.00,290.00,2022-01-06 20:12,-25.01,KALO 062054Z 30018G25KT 8SM BKN017 M19/M24 A3023 RMK AO2 PK WND 29026/2012 SLP261 T11891239 55006,M
ALO,2022-01-06 21:20,-2.00,-11.90,61.83,310.00,17.00,0.00,30.22,M,10.00,M,SCT,M,M,M,1700.00,M,M,M,M,M,M,M,M,M,M,-24.47,KALO 062120Z 31017KT 10SM SCT017 M19/M24 A3022 RMK AO2 T11891244,M
ALO,2022-01-06 21:54,-2.00,-11.90,61.83,310.00,17.00,0.00,30.23,1026.30,10.00,M,FEW,M,M,M,1400.00,M,M,M,M,M,M,M,M,M,M,-24.47,KALO 062154Z 31017KT 10SM FEW014 M19/M24 A3023 RMK AO2 SLP263 T11891244,M
ALO,2022-01-06 22:54,-4.00,-13.00,64.37,310.00,12.00,0.00,30.24,1026.70,10.00,M,CLR,M,M,M,M,M,M,M,M,M,M,M,M,M,M,-23.82,KALO 062254Z 31012KT 10SM CLR M20/M25 A3024 RMK AO2 SLP267 T12001250,M
ALO,2022-01-06 23:54,-5.10,-13.00,67.86,320.00,8.00,0.00,30.25,1026.90,10.00,M,CLR,M,M,M,M,M,M,M,M,M,M,M,M,M,M,-21.59,KALO 062354Z 32008KT 10SM CLR M21/M25 A3025 RMK AO2 SLP269 T12061250 11183 21206 51006,M
ALO,2022-01-07 00:39,-6.00,-13.00,70.87,310.00,7.00,0.00,30.26,M,10.00,M,BKN,M,M,M,1300.00,M,M,M,M,M,M,M,M,M,M,-21.54,KALO 070039Z 31007KT 10SM BKN013 M21/M25 A3026 RMK AO2 T12111250,M
ALO,2022-01-07 00:54,-6.00,-14.10,67.06,300.00,7.00,0.00,30.26,1027.30,10.00,M,SCT,M,M,M,1300.00,M,M,M,M,M,M,M,M,M,M,-21.54,KALO 070054Z 30007KT 10SM SCT013 M21/M26 A3026 RMK AO2 SLP273 T12111256,M
ALO,2022-01-07 01:54,-6.00,-14.10,67.06,310.00,11.00,0.00,30.25,1027.00,10.00,M,CLR,M,M,M,M,M,M,M,M,M,M,M,M,M,M,-25.56,KALO 070154Z 31011KT 10SM CLR M21/M26 A3025 RMK AO2 SLP270 T12111256,M
ALO,2022-01-07 02:54,-7.10,-15.00,67.59,320.00,11.00,0.00,30.26,1027.50,10.00,M,SCT,M,M,M,1500.00,M,M,M,M,M,M,M,M,M,M,-26.95,KALO 070254Z AUTO 32011KT 10SM SCT015 M22/M26 A3026 RMK AO2 SLP275 T12171261 51005,M
ALO,2022-01-07 03:01,-6.00,-15.00,64.08,310.00,7.00,0.00,30.27,M,10.00,M,BKN,M,M,M,1500.00,M,M,M,M,M,M,M,M,M,M,-21.54,KALO 070301Z AUTO 31007KT 10SM BKN015 M21/M26 A3027 RMK AO2 T12111261,M
ALO,2022-01-07 03:45,-7.10,-14.10,70.73,300.00,9.00,0.00,30.28,M,10.00,M,SCT,M,M,M,1500.00,M,M,M,M,M,M,M,M,M,M,-25.10,KALO 070345Z AUTO 30009KT 10SM SCT015 M22/M26 A3028 RMK AO2 T12171256,M
ALO,2022-01-07 03:54,-7.10,-14.10,70.73,310.00,10.00,0.00,30.27,1027.80,10.00,M,FEW,M,M,M,1500.00,M,M,M,M,M,M,M,M,M,M,-26.06,KALO 070354Z AUTO 31010KT 10SM FEW015 M22/M26 A3027 RMK AO2 SLP278 T12171256,M
ALO,2022-01-07 04:54,-8.00,-15.00,70.62,320.00,7.00,0.00,30.28,1028.10,10.00,M,CLR,M,M,M,M,M,M,M,M,M,M,M,M,M,M,-23.98,KALO 070454Z AUTO 32007KT 10SM CLR M22/M26 A3028 RMK AO2 SLP281 T12221261,M
ALO,2022-01-07 05:54,-9.00,-16.10,70.14,320.00,5.00,0.00,30.28,1028.10,10.00,M,CLR,M,M,M,M,M,M,M,M,M,M,M,M,M,M,-22.30,KALO 070554Z AUTO 32005KT 10SM CLR M23/M27 A3028 RMK AO2 SLP281 T12281267 11206 21228 411781228 50006,M
ALO,2022-01-07 06:39,-8.00,-15.00,70.62,320.00,7.00,0.00,30.29,M,10.00,M,BKN,M,M,M,1400.00,M,M,M,M,M,M,M,M,M,M,-23.98,KALO 070639Z AUTO 32007KT 10SM BKN014 M22/M26 A3029 RMK AO2 T12221261,M
ALO,2022-01-07 06:54,-8.00,-15.00,70.62,330.00,7.00,0.00,30.28,1028.10,10.00,M,OVC,M,M,M,1400.00,M,M,M,M,M,M,M,M,M,M,-23.98,KALO 070654Z AUTO 33007KT 10SM OVC014 M22/M26 A3028 RMK AO2 SLP281 T12221261,M
ALO,2022-01-07 07:38,-7.10,-14.10,70.73,290.00,5.00,0.00,30.30,M,10.00,M,OVC,M,M,M,1500.00,M,M,M,M,M,M,M,M,M,M,-20.04,KALO 070738Z AUTO 29005KT 10SM OVC015 M22/M26 A3030 RMK AO2 T12171256,M
ALO,2022-01-07 07:54,-7.10,-14.10,70.73,300.00,5.00,0.00,30.30,1028.60,10.00,M,OVC,M,M,M,1500.00,M,M,M,M,M,M,M,M,M,M,-20.04,KALO 070754Z AUTO 30005KT 10SM OVC015 M22/M26 A3030 RMK AO2 SLP286 T12171256,M
ALO,2022-01-07 08:42,-6.00,-13.00,70.87,310.00,6.00,0.00,30.30,M,10.00,M,SCT,M,M,M,1400.00,M,M,M,M,M,M,M,M,M,M,-20.24,KALO 070842Z AUTO 31006KT 10SM SCT014 M21/M25 A3030 RMK AO2 T12111250,M
ALO,2022-01-07 08:54,-6.00,-13.00,70.87,320.00,6.00,0.00,30.30,1028.80,10.00,M,CLR,M,M,M,M,M,M,M,M,M,M,M,M,M,M,-20.24,KALO 070854Z AUTO 32006KT 10SM CLR M21/M25 A3030 RMK AO2 SLP288 T12111250 53008,M
ALO,2022-01-07 09:54,-6.00,-13.00,70.87,300.00,5.00,0.00,30.29,1028.30,10.00,M,CLR,M,M,M,M,M,M,M,M,M,M,M,M,M,M,-18.73,KALO 070954Z AUTO 30005KT 10SM CLR M21/M25 A3029 RMK AO2 SLP283 T12111250,M
ALO,2022-01-07 10:54,-7.10,-15.00,67.59,0.00,0.00,0.00,30.28,1028.10,10.00,M,CLR,M,M,M,M,M,M,M,M,M,M,M,M,M,M,-7.10,KALO 071054Z AUTO 00000KT 10SM CLR M22/M26 A3028 RMK AO2 SLP281 T12171261,M
ALO,2022-01-07 11:54,-8.00,-15.00,70.62,0.00,0.00,0.00,30.29,1028.50,10.00,M,CLR,M,M,M,M,M,M,M,M,M,M,M,M,M,M,-8.00,KALO 071154Z 00000KT 10SM CLR M22/M26 A3029 RMK AO2 SLP285 T12221261 11211 21228 55004,M
ALO,2022-01-07 12:54,-11.90,-18.00,73.46,0.00,0.00,0.00,30.28,1028.20,10.00,M,CLR,M,M,M,M,M,M,M,M,M,M,M,M,M,M,-11.90,KALO 071254Z 00000KT 10SM CLR M24/M28 A3028 RMK AO2 SLP282 T12441278,M
ALO,2022-01-07 13:54,-9.90,-16.10,73.31,230.00,3.00,0.00,30.31,1029.30,10.00,M,CLR,M,M,M,M,M,M,M,M,M,M,M,M,M,M,-19.21,KALO 071354Z 23003KT 10SM CLR M23/M27 A3031 RMK AO2 SLP293 T12331267,M
ALO,2022-01-07 14:54,-5.10,-11.00,74.97,250.00,4.00,0.00,30.34,1030.00,10.00,M,CLR,M,M,M,M,M,M,M,M,M,M,M,M,M,M,-15.90,KALO 071454Z 25004KT 10SM CLR M21/M24 A3034 RMK AO2 SLP300 T12061239 53015,M
ALO,2022-01-07 15:54,-2.90,-9.90,71.25,210.00,3.00,0.00,30.33,1029.70,10.00,M,CLR,M,M,M,M,M,M,M,M,M,M,M,M,M,M,-11.21,KALO 071554Z 21003KT 10SM CLR M19/M23 A3033 RMK AO2 SLP297 T11941233,M
ALO,2022-01-07 16:54,-0.90,-9.00,67.74,100.00,4.00,0.00,30.32,1029.40,10.00,M,CLR,M,M,M,M,M,M,M,M,M,M,M,M,M,M,-11.00,KALO 071654Z 10004KT 10SM CLR M18/M23 A3032 RMK AO2 SLP294 T11831228,M
ALO,2022-01-07 17:54,3.00,-6.00,65.35,180.00,8.00,0.00,30.29,1028.40,10.00,M,CLR,M,M,M,M,M,M,M,M,M,M,M,M,M,M,-11.61,KALO 071754Z 18008KT 10SM CLR M16/M21 A3029 RMK AO2 SLP284 T11611211 11161 21244 58014,M
ALO,2022-01-07 18:54,3.00,-5.10,68.25,190.00,5.00,0.00,30.27,1027.70,10.00,M,OVC,M,M,M,8000.00,M,M,M,M,M,M,M,M,M,M,-8.05,KALO 071854Z 19005KT 10SM OVC080 M16/M21 A3027 RMK AO2 SLP277 T11611206,M
ALO,2022-01-07 19:54,5.00,-2.90,69.16,130.00,8.00,0.00,30.23,1026.10,10.00,M,FEW,M,M,M,8000.00,M,M,M,M,M,M,M,M,M,M,-9.15,KALO 071954Z 13008KT 10SM FEW080 M15/M19 A3023 RMK AO2 SLP261 T11501194,M
ALO,2022-01-07 20:54,6.10,-2.90,65.77,150.00,9.00,0.00,30.23,1026.20,10.00,M,BKN,M,M,M,4900.00,M,M,M,M,M,M,M,M,M,M,-8.69,KALO 072054Z 15009KT 10SM BKN049 M14/M19 A3023 RMK AO2 SLP262 T11441194 55020,M
ALO,2022-01-07 21:54,5.00,-2.00,72.18,130.00,11.00,0.00,30.22,1025.70,10.00,M,OVC,M,M,M,6000.00,M,M,M,M,M,M,M,M,M,M,-11.65,KALO 072154Z 13011KT 10SM OVC060 M15/M19 A3022 RMK AO2 SLP257 T11501189,M
ALO,2022-01-07 22:54,6.10,-2.00,68.64,130.00,12.00,0.00,30.20,1024.90,10.00,M,OVC,M,M,M,5500.00,M,M,M,M,M,M,M,M,M,M,-10.96,KALO 072254Z 13012KT 10SM OVC055 M14/M19 A3020 RMK AO2 SLP249 T11441189,M
ALO,2022-01-07 23:54,6.10,-2.90,65.77,130.00,10.00,0.00,30.17,1023.90,10.00,M,CLR,M,M,M,M,M,M,M,M,M,M,M,M,M,M,-9.51,KALO 072354Z 13010KT 10SM CLR M14/M19 A3017 RMK AO2 SLP239 T11441194 11144 21167 58022,M
ALO,2022-01-08 00:54,7.00,-2.00,65.89,150.00,15.00,0.00,30.15,1023.60,10.00,M,CLR,M,M,M,M,M,M,M,M,M,M,M,M,M,M,-11.63,KALO 080054Z 15015KT 10SM CLR M14/M19 A3015 RMK AO2 SLP236 T11391189,M
ALO,2022-01-08 01:54,7.00,-0.90,69.41,150.00,13.00,0.00,30.16,1023.70,10.00,23.00,CLR,M,M,M,M,M,M,M,M,M,M,M,M,M,M,-10.46,KALO 080154Z AUTO 15013G23KT 10SM CLR M14/M18 A3016 RMK AO2 SLP237 T11391183,M
ALO,2022-01-08 02:54,8.10,0.00,68.90,150.00,16.00,0.00,30.14,1022.80,10.00,24.00,CLR,M,M,M,M,M,M,M,M,M,M,M,M,M,M,-10.73,KALO 080254Z AUTO 15016G24KT 10SM CLR M13/M18 A3014 RMK AO2 SLP228 T11331178 58010,M
ALO,2022-01-08 03:54,8.10,-0.90,66.04,150.00,13.00,0.00,30.10,1021.60,10.00,21.00,SCT,M,M,M,12000.00,M,M,M,M,M,M,M,M,M,M,-9.05,KALO 080354Z AUTO 15013G21KT 10SM SCT120 M13/M18 A3010 RMK AO2 SLP216 T11331183,M
ALO,2022-01-08 04:54,8.10,0.00,68.90,150.00,15.00,0.00,30.10,1021.60,10.00,23.00,BKN,M,M,M,12000.00,M,M,M,M,M,M,M,M,M,M,-10.20,KALO 080454Z AUTO 15015G23KT 10SM BKN120 M13/M18 A3010 RMK AO2 SLP216 T11331178,M
ALO,2022-01-08 05:54,8.10,1.00,72.20,150.00,13.00,0.00,30.07,1020.30,10.00,25.00,CLR,M,M,M,M,M,M,M,M,M,M,M,M,M,M,-9.05,KALO 080554Z AUTO 15013G25KT 10SM CLR M13/M17 A3007 RMK AO2 SLP203 T11331172 11128 21144 411281244 56022,M
ALO,2022-01-08 06:54,9.00,1.00,69.33,150.00,18.00,0.00,30.05,1019.70,10.00,24.00,SCT,M,M,M,3900.00,M,M,M,M,M,M,M,26.00,150.00,2022-01-08 06:40,-10.53,KALO 080654Z AUTO 15018G24KT 10SM SCT039 M13/M17 A3005 RMK AO2 PK WND 15026/0640 SLP197 T11281172,M
ALO,2022-01-08 07:54,10.00,1.00,66.29,150.00,15.00,0.00,30.01,1018.30,10.00,22.00,CLR,M,M,M,M,M,M,M,M,M,M,M,28.00,150.00,2022-01-08 07:03,-7.74,KALO 080754Z AUTO 15015G22KT 10SM CLR M12/M17 A3001 RMK AO2 PK WND 15028/0703 SLP183 T11221172,M
ALO,2022-01-08 08:54,12.00,3.00,66.56,150.00,15.00,0.00,30.01,1018.30,10.00,21.00,SCT,M,M,M,3600.00,M,M,M,M,M,M,M,M,M,M,-5.15,KALO 080854Z AUTO 15015G21KT 10SM SCT036 M11/M16 A3001 RMK AO2 SLP183 T11111161 56019,M
ALO,2022-01-08 09:54,12.90,3.90,66.67,160.00,15.00,0.00,29.97,1016.80,10.00,23.00,SCT,M,M,M,3500.00,M,M,M,M,M,M,M,M,M,M,-3.98,KALO 080954Z AUTO 16015G23KT 10SM SCT035 M11/M16 A2997 RMK AO2 SLP168 T11061156,M
ALO,2022-01-08 10:54,15.10,6.10,66.96,160.00,17.00,0.00,29.94,1015.90,10.00,28.00,OVC,M,M,M,3300.00,M,M,M,M,M,M,M,28.00,160.00,2022-01-08 10:51,-2.06,KALO 081054Z AUTO 16017G28KT 10SM OVC033 M09/M14 A2994 RMK AO2 PK WND 16028/1051 SLP159 T10941144,M
ALO,2022-01-08 11:54,15.10,6.10,66.96,160.00,16.00,0.00,29.93,1015.50,10.00,26.00,FEW,M,M,M,3600.00,M,M,M,M,M,M,M,27.00,160.00,2022-01-08 11:05,-1.61,KALO 081154Z 16016G26KT 10SM FEW036 M09/M14 A2993 RMK AO2 PK WND 16027/1105 SLP155 T10941144 11094 21133 56026,M
ALO,2022-01-08 12:54,15.10,6.10,66.96,160.00,13.00,0.00,29.93,1015.20,10.00,M,CLR,M,M,M,M,M,M,M,M,M,M,M,M,M,M,-0.08,KALO 081254Z 16013KT 10SM CLR M09/M14 A2993 RMK AO2 SLP152 T10941144,M
ALO,2022-01-08 13:54,16.00,7.00,67.07,160.00,15.00,0.00,29.91,1014.70,10.00,23.00,CLR,M,M,M,M,M,M,M,M,M,M,M,M,M,M,0.04,KALO 081354Z 16015G23KT 10SM CLR M09/M14 A2991 RMK AO2 SLP147 T10891139,M
ALO,2022-01-08 14:40,17.10,8.10,67.22,170.00,12.00,0.00,29.93,M,10.00,20.00,BKN,M,M,M,2800.00,M,M,M,M,M,M,M,M,M,M,3.04,KALO 081440Z 17012G20KT 10SM BKN028 M08/M13 A2993 RMK AO2 T10831133,M
ALO,2022-01-08 14:54,18.00,9.00,67.33,160.00,15.00,0.00,29.92,1014.90,10.00,22.00,OVC,M,M,M,2500.00,M,M,M,M,M,M,M,M,M,M,2.63,KALO 081454Z 16015G22KT 10SM OVC025 M08/M13 A2992 RMK AO2 SLP149 T10781128 55005,M
ALO,2022-01-08 15:54,19.00,10.90,70.22,170.00,14.00,0.00,29.93,1015.10,10.00,M,OVC,M,M,M,1600.00,M,M,M,M,M,M,M,M,M,M,4.41,KALO 081554Z 17014KT 10SM OVC016 M07/M12 A2993 RMK AO2 SLP151 T10721117,M
ALO,2022-01-08 16:01,19.90,10.90,67.57,170.00,15.00,0.00,29.92,M,10.00,M,OVC,M,M,M,1400.00,M,M,M,M,M,M,M,M,M,M,5.09,KALO 081601Z 17015KT 10SM OVC014 M07/M12 A2992 RMK AO2 T10671117,M
ALO,2022-01-08 16:54,21.90,14.00,71.18,160.00,11.00,0.00,29.90,1014.00,10.00,M,OVC,M,M,M,1000.00,M,M,M,M,M,M,M,M,M,M,9.70,KALO 081654Z 16011KT 10SM OVC010 M06/M10 A2990 RMK AO2 SLP140 T10561100,M
ALO,2022-01-08 17:54,23.00,17.10,77.77,160.00,12.00,0.00,29.87,1013.10,10.00,21.00,OVC,M,M,M,1200.00,M,M,M,M,M,M,M,M,M,M,10.55,KALO 081754Z 16012G21KT 10SM OVC012 M05/M08 A2987 RMK AO2 SLP131 T10501083 11050 21094 58016,M
ALO,2022-01-08 18:54,24.10,18.00,77.21,170.00,11.00,0.00,29.86,1012.80,10.00,M,OVC,M,M,M,1200.00,M,M,M,M,M,M,M,M,M,M,12.48,KALO 081854Z 17011KT 10SM OVC012 M04/M08 A2986 RMK AO2 SLP128 T10441078,M
ALO,2022-01-08 19:54,25.00,19.90,80.66,160.00,10.00,0.00,29.83,1011.60,9.00,M,OVC,M,M,M,1000.00,M,M,M,M,M,M,M,M,M,M,14.19,KALO 081954Z 16010KT 9SM OVC010 M04/M07 A2983 RMK AO2 SLP116 T10391067,M
ALO,2022-01-08 20:09,25.00,21.00,84.53,160.00,12.00,0.00,29.83,M,8.00,M,OVC,M,M,M,900.00,M,M,M,M,M,M,M,M,M,M,13.09,KALO 082009Z 16012KT 8SM OVC009 M04/M06 A2983 RMK AO2 T10391061,M
ALO,2022-01-08 20:54,26.10,21.90,83.89,170.00,10.00,0.00,29.83,1011.50,7.00,M,OVC,M,M,M,800.00,M,M,M,M,M,M,M,M,M,M,15.57,KALO 082054Z 17010KT 7SM OVC008 M03/M06 A2983 RMK AO2 SLP115 T10331056 56014,M
ALO,2022-01-08 21:54,27.00,23.00,84.66,170.00,9.00,0.00,29.84,1012.10,4.00,M,OVC,M,M,M,600.00,M,M,M,BR,M,M,M,M,M,M,17.30,KALO 082154Z 17009KT 4SM BR OVC006 M03/M05 A2984 RMK AO2 SLP121 T10281050,M
ALO,2022-01-08 22:54,27.00,24.10,88.65,170.00,9.00,0.00,29.84,1011.90,4.00,M,OVC,M,M,M,500.00,M,M,M,BR,M,M,M,M,M,M,17.30,KALO 082254Z 17009KT 4SM BR OVC005 M03/M04 A2984 RMK AO2 SLP119 T10281044,M
ALO,2022-01-08 23:54,28.00,24.10,85.08,180.00,5.00,0.00,29.88,1013.30,5.00,M,OVC,M,M,M,600.00,M,M,M,BR,M,M,M,M,M,M,21.64,KALO 082354Z 18005KT 5SM BR OVC006 M02/M04 A2988 RMK AO2 SLP133 T10221044 11022 21050 53018,M
ALO,2022-01-09 00:54,28.90,25.00,85.14,190.00,5.00,0.00,29.91,1014.30,3.00,M,OVC,M,M,M,500.00,M,M,M,BR,M,M,M,M,M,M,22.71,KALO 090054Z 19005KT 3SM BR OVC005 M02/M04 A2991 RMK AO2 SLP143 T10171039,M
ALO,2022-01-09 01:04,28.90,25.00,85.14,190.00,5.00,0.00,29.92,M,2.50,M,OVC,M,M,M,400.00,M,M,M,BR,M,M,M,M,M,M,22.71,KALO 090104Z 19005KT 2 1/2SM BR OVC004 M02/M04 A2992 RMK AO2 T10171039,M
ALO,2022-01-09 01:41,28.90,25.00,85.14,180.00,5.00,0.00,29.92,M,1.75,M,OVC,M,M,M,300.00,M,M,M,BR,T,M,M,M,M,M,22.71,KALO 090141Z 18005KT 1 3/4SM BR OVC003 M02/M04 A2992 RMK AO2 I1000 T10171039,M
ALO,2022-01-09 01:54,28.90,25.00,85.14,200.00,4.00,0.00,29.93,1014.60,2.00,M,OVC,M,M,M,300.00,M,M,M,BR,T,M,M,M,M,M,23.80,KALO 090154Z AUTO 20004KT 2SM BR OVC003 M02/M04 A2993 RMK AO2 SLP146 I1000 T10171039,M
ALO,2022-01-09 02:54,28.90,26.10,89.12,240.00,6.00,0.00,29.94,1015.00,2.00,M,OVC,M,M,M,300.00,M,M,M,BR,M,T,M,M,M,M,21.80,KALO 090254Z AUTO 24006KT 2SM BR OVC003 M02/M03 A2994 RMK AO2 SLP150 I3000 T10171033 51017,M
ALO,2022-01-09 03:26,30.00,27.00,88.44,260.00,8.00,0.00,29.95,M,3.00,M,OVC,M,M,M,300.00,M,M,M,BR,M,M,M,M,M,M,21.65,KALO 090326Z AUTO 26008KT 3SM BR OVC003 M01/M03 A2995 RMK AO2 T10111028,M
ALO,2022-01-09 03:46,30.00,27.00,88.44,280.00,7.00,0.00,29.96,M,4.00,M,OVC,M,M,M,600.00,M,M,M,BR,M,M,M,M,M,M,22.34,KALO 090346Z AUTO 28007KT 4SM BR OVC006 M01/M03 A2996 RMK AO2 CIG 003V010 T10111028,M
ALO,2022-01-09 03:54,30.00,27.00,88.44,280.00,6.00,0.00,29.97,1015.90,4.00,M,BKN,BKN,M,M,600.00,1100.00,M,M,BR,M,M,M,M,M,M,23.12,KALO 090354Z AUTO 28006KT 4SM BR BKN006 BKN011 M01/M03 A2997 RMK AO2 CIG 004V009 SLP159 T10111028,M
ALO,2022-01-09 04:09,30.90,27.00,85.26,290.00,10.00,0.00,29.98,M,6.00,M,SCT,M,M,M,900.00,M,M,M,BR,M,M,M,M,M,M,21.59,KALO 090409Z AUTO 29010KT 6SM BR SCT009 M01/M03 A2998 RMK AO2 T10061028,M
ALO,2022-01-09 04:25,30.00,26.10,85.21,320.00,17.00,0.00,30.00,M,9.00,26.00,BKN,M,M,M,1700.00,M,M,M,M,M,M,M,26.00,300.00,2022-01-09 04:22,17.46,KALO 090425Z AUTO 32017G26KT 9SM BKN017 M01/M03 A3000 RMK AO2 PK WND 30026/0422 T10111033,M
ALO,2022-01-09 04:54,25.00,18.00,74.36,310.00,20.00,0.00,30.04,1018.40,10.00,29.00,FEW,SCT,BKN,M,1500.00,2200.00,12000.00,M,M,M,M,M,29.00,310.00,2022-01-09 04:48,9.84,KALO 090454Z AUTO 31020G29KT 10SM FEW015 SCT022 BKN120 M04/M08 A3004 RMK AO2 PK WND 31029/0448 SLP184 T10391078,M
ALO,2022-01-09 05:50,19.40,14.00,79.16,310.00,15.00,0.00,30.10,M,10.00,M,BKN,OVC,M,M,1900.00,8500.00,M,M,M,M,M,M,26.00,300.00,2022-01-09 05:34,4.45,KALO 090550Z AUTO 31015KT 10SM BKN019 OVC085 M07/M10 A3010 RMK AO2 PK WND 30026/0534 PRESRR,M
ALO,2022-01-09 05:54,19.90,14.00,77.48,320.00,16.00,0.00,30.10,1020.70,10.00,M,BKN,BKN,OVC,M,1900.00,8000.00,10000.00,M,M,M,M,T,26.00,300.00,2022-01-09 05:34,4.65,KALO 090554Z AUTO 32016KT 10SM BKN019 BKN080 OVC100 M07/M10 A3010 RMK AO2 PK WND 30026/0534 PRESRR SLP207 I6000 T10671100 11006 21067 410061128 51045,M
ALO,2022-01-09 06:21,19.90,12.00,70.95,330.00,19.00,0.00,30.12,M,10.00,26.00,SCT,BKN,M,M,1700.00,11000.00,M,M,M,M,M,M,26.00,320.00,2022-01-09 06:20,3.44,KALO 090621Z AUTO 33019G26KT 10SM SCT017 BKN110 M07/M11 A3012 RMK AO2 PK WND 32026/0620 T10671111,M
ALO,2022-01-09 06:54,18.00,10.00,70.41,300.00,16.00,0.00,30.16,1022.60,10.00,24.00,SCT,M,M,M,12000.00,M,M,M,M,M,M,M,26.00,320.00,2022-01-09 06:20,2.17,KALO 090654Z AUTO 30016G24KT 10SM SCT120 M08/M12 A3016 RMK AO2 PK WND 32026/0620 SLP226 T10781122,M
ALO,2022-01-09 07:54,14.00,6.10,70.26,300.00,14.00,0.00,30.20,1024.10,10.00,24.00,CLR,M,M,M,M,M,M,M,M,M,M,M,29.00,310.00,2022-01-09 07:12,-2.04,KALO 090754Z AUTO 30014G24KT 10SM CLR M10/M14 A3020 RMK AO2 PK WND 31029/0712 SLP241 T11001144,M
ALO,2022-01-09 08:54,10.00,-0.90,60.64,320.00,22.00,0.00,30.26,1026.40,10.00,31.00,CLR,M,M,M,M,M,M,M,M,M,M,M,34.00,290.00,2022-01-09 08:38,-10.88,KALO 090854Z AUTO 32022G31KT 10SM CLR M12/M18 A3026 RMK AO2 PK WND 29034/0838 SLP264 T11221183 53053,M
ALO,2022-01-09 09:54,8.10,-2.00,62.70,310.00,14.00,0.00,30.29,1027.50,10.00,M,CLR,M,M,M,M,M,M,M,M,M,M,M,33.00,310.00,2022-01-09 09:02,-9.64,KALO 090954Z AUTO 31014KT 10SM CLR M13/M19 A3029 RMK AO2 PK WND 31033/0902 SLP275 T11331189,M
ALO,2022-01-09 10:54,5.00,-5.10,62.25,310.00,16.00,0.00,30.34,1029.00,10.00,M,CLR,M,M,M,M,M,M,M,M,M,M,M,M,M,M,-14.77,KALO 091054Z AUTO 31016KT 10SM CLR M15/M21 A3034 RMK AO2 SLP290 T11501206,M
ALO,2022-01-09 11:54,3.90,-5.10,65.47,300.00,13.00,0.00,30.38,1030.40,10.00,M,CLR,M,M,M,M,M,M,M,M,M,M,M,M,M,M,-14.43,KALO 091154Z 30013KT 10SM CLR M16/M21 A3038 RMK AO2 SLP304 T11561206 11067 21156 53039,M
ALO,2022-01-09 12:54,3.00,-5.10,68.25,310.00,15.00,0.00,30.41,1031.60,10.00,M,CLR,M,M,M,M,M,M,M,M,M,M,M,M,M,M,-16.82,KALO 091254Z 31015KT 10SM CLR M16/M21 A3041 RMK AO2 SLP316 T11611206,M
ALO,2022-01-09 13:54,1.90,-6.00,68.77,310.00,12.00,0.00,30.45,1032.70,10.00,M,CLR,M,M,M,M,M,M,M,M,M,M,M,M,M,M,-16.31,KALO 091354Z 31012KT 10SM CLR M17/M21 A3045 RMK AO2 SLP327 T11671211,M
ALO,2022-01-09 14:54,3.90,-6.00,62.69,310.00,12.00,0.00,30.48,1033.70,10.00,M,CLR,M,M,M,M,M,M,M,M,M,M,M,M,M,M,-13.76,KALO 091454Z 31012KT 10SM CLR M16/M21 A3048 RMK AO2 SLP337 T11561211 51032,M
ALO,2022-01-09 15:54,7.00,-4.00,59.91,310.00,15.00,0.00,30.52,1035.20,10.00,25.00,CLR,M,M,M,M,M,M,M,M,M,M,M,26.00,320.00,2022-01-09 15:25,-11.63,KALO 091554Z 31015G25KT 10SM CLR M14/M20 A3052 RMK AO2 PK WND 32026/1525 SLP352 T11391200,M
ALO,2022-01-09 16:54,9.00,-2.90,57.69,300.00,20.00,0.00,30.54,1036.00,10.00,25.00,CLR,M,M,M,M,M,M,M,M,M,M,M,31.00,310.00,2022-01-09 16:13,-11.41,KALO 091654Z 30020G25KT 10SM CLR M13/M19 A3054 RMK AO2 PK WND 31031/1613 SLP360 T11281194,M
ALO,2022-01-09 17:54,10.90,-2.00,55.30,310.00,16.00,0.00,30.54,1035.80,10.00,21.00,CLR,M,M,M,M,M,M,M,M,M,M,M,M,M,M,-7.08,KALO 091754Z 31016G21KT 10SM CLR M12/M19 A3054 RMK AO2 SLP358 T11171189 11117 21167 50020,M
ALO,2022-01-09 18:54,12.00,-0.90,55.48,320.00,14.00,0.00,30.52,1035.30,10.00,M,CLR,M,M,M,M,M,M,M,M,M,M,M,M,M,M,-4.62,KALO 091854Z 32014KT 10SM CLR M11/M18 A3052 RMK AO2 SLP353 T11111183,M
ALO,2022-01-09 19:54,14.00,0.00,53.00,310.00,11.00,0.00,30.51,1034.90,10.00,M,CLR,M,M,M,M,M,M,M,M,M,M,M,M,M,M,-0.28,KALO 091954Z 31011KT 10SM CLR M10/M18 A3051 RMK AO2 SLP349 T11001178,M
ALO,2022-01-09 20:54,15.10,0.00,50.51,310.00,9.00,0.00,30.51,1035.10,10.00,M,CLR,M,M,M,M,M,M,M,M,M,M,M,M,M,M,2.50,KALO 092054Z 31009KT 10SM CLR M09/M18 A3051 RMK AO2 SLP351 T10941178 55009,M
ALO,2022-01-09 21:54,15.10,1.00,52.93,300.00,9.00,0.00,30.53,1035.90,10.00,M,CLR,M,M,M,M,M,M,M,M,M,M,M,M,M,M,2.50,KALO 092154Z 30009KT 10SM CLR M09/M17 A3053 RMK AO2 SLP359 T10941172,M
ALO,2022-01-09 22:54,14.00,0.00,53.00,280.00,5.00,0.00,30.54,1036.30,10.00,M,CLR,M,M,M,M,M,M,M,M,M,M,M,M,M,M,5.02,KALO 092254Z 28005KT 10SM CLR M10/M18 A3054 RMK AO2 SLP363 T11001178,M
ALO,2022-01-09 23:54,12.00,0.00,57.88,0.00,0.00,0.00,30.55,1036.70,10.00,M,CLR,M,M,M,M,M,M,M,M,M,M,M,M,M,M,12.00,KALO 092354Z 00000KT 10SM CLR M11/M18 A3055 RMK AO2 SLP367 T11111178 11089 21122 51014,M
ALO,2022-01-10 00:54,6.10,-2.90,65.77,0.00,0.00,0.00,30.55,1036.70,10.00,M,CLR,M,M,M,M,M,M,M,M,M,M,M,M,M,M,6.10,KALO 100054Z 00000KT 10SM CLR M14/M19 A3055 RMK AO2 SLP367 T11441194,M
ALO,2022-01-10 01:54,3.90,-4.00,69.02,60.00,3.00,0.00,30.55,1036.80,10.00,M,OVC,M,M,M,9000.00,M,M,M,M,M,M,M,M,M,M,-3.43,KALO 100154Z AUTO 06003KT 10SM OVC090 M16/M20 A3055 RMK AO2 SLP368 T11561200,M
ALO,2022-01-10 02:54,8.10,1.00,72.20,0.00,0.00,0.00,30.54,1036.40,10.00,M,OVC,M,M,M,9000.00,M,M,M,M,M,M,M,M,M,M,8.10,KALO 100254Z AUTO 00000KT 10SM OVC090 M13/M17 A3054 RMK AO2 SLP364 T11331172 58004,M
ALO,2022-01-10 03:54,10.90,3.90,72.85,0.00,0.00,0.00,30.53,1036.10,10.00,M,OVC,M,M,M,9500.00,M,M,M,M,M,M,M,M,M,M,10.90,KALO 100354Z AUTO 00000KT 10SM OVC095 M12/M16 A3053 RMK AO2 SLP361 T11171156,M
ALO,2022-01-10 04:54,12.90,5.00,70.13,0.00,0.00,0.00,30.52,1035.70,10.00,M,OVC,M,M,M,9500.00,M,M,M,M,M,M,M,M,M,M,12.90,KALO 100454Z AUTO 00000KT 10SM OVC095 M11/M15 A3052 RMK AO2 SLP357 T11061150,M
ALO,2022-01-10 05:54,14.00,6.10,70.26,0.00,0.00,0.00,30.51,1035.20,10.00,M,OVC,M,M,M,9500.00,M,M,M,M,M,M,M,M,M,M,14.00,KALO 100554Z AUTO 00000KT 10SM OVC095 M10/M14 A3051 RMK AO2 SLP352 T11001144 11100 21167 410671167 58009,M
ALO,2022-01-10 06:54,12.90,6.10,73.74,70.00,5.00,0.00,30.48,1034.20,10.00,M,OVC,M,M,M,9500.00,M,M,M,M,M,M,M,M,M,M,3.71,KALO 100654Z AUTO 07005KT 10SM OVC095 M11/M14 A3048 RMK AO2 SLP342 T11061144,M
ALO,2022-01-10 07:54,12.00,3.00,66.56,0.00,0.00,0.00,30.48,1034.00,10.00,M,BKN,M,M,M,9000.00,M,M,M,M,M,M,M,M,M,M,12.00,KALO 100754Z AUTO 00000KT 10SM BKN090 M11/M16 A3048 RMK AO2 SLP340 T11111161,M
ALO,2022-01-10 08:54,10.00,1.00,66.29,0.00,0.00,0.00,30.48,1033.90,10.00,M,CLR,M,M,M,M,M,M,M,M,M,M,M,M,M,M,10.00,KALO 100854Z AUTO 00000KT 10SM CLR M12/M17 A3048 RMK AO2 SLP339 T11221172 56013,M
ALO,2022-01-10 09:54,1.90,-2.90,79.79,320.00,5.00,0.00,30.48,1034.10,10.00,M,CLR,M,M,M,M,M,M,M,M,M,M,M,M,M,M,-9.35,KALO 100954Z AUTO 32005KT 10SM CLR M17/M19 A3048 RMK AO2 SLP341 T11671194,M
ALO,2022-01-10 10:54,5.00,-0.90,76.03,300.00,5.00,0.00,30.51,1035.00,10.00,M,CLR,M,M,M,M,M,M,M,M,M,M,M,M,M,M,-5.67,KALO 101054Z AUTO 30005KT 10SM CLR M15/M18 A3051 RMK AO2 SLP350 T11501183,M
ALO,2022-01-10 11:54,3.90,-2.90,72.74,310.00,5.00,0.00,30.52,1035.70,10.00,M,SCT,M,M,M,7500.00,M,M,M,M,M,M,M,M,M,M,-6.98,KALO 101154Z 31005KT 10SM SCT075 M16/M19 A3052 RMK AO2 SLP357 T11561194 11100 21167 53016,M
ALO,2022-01-10 12:54,5.00,-2.90,69.16,330.00,8.00,0.00,30.55,1036.80,10.00,M,BKN,M,M,M,8000.00,M,M,M,M,M,M,M,M,M,M,-9.15,KALO 101254Z 33008KT 10SM BKN080 M15/M19 A3055 RMK AO2 SLP368 T11501194,M
ALO,2022-01-10 13:54,3.90,-5.10,65.47,340.00,8.00,0.00,30.56,1037.10,10.00,M,CLR,M,M,M,M,M,M,M,M,M,M,M,M,M,M,-10.50,KALO 101354Z 34008KT 10SM CLR M16/M21 A3056 RMK AO2 SLP371 T11561206,M
ALO,2022-01-10 14:54,5.00,-7.10,56.51,340.00,8.00,0.00,30.59,1038.10,10.00,M,CLR,M,M,M,M,M,M,M,M,M,M,M,M,M,M,-9.15,KALO 101454Z 34008KT 10SM CLR M15/M22 A3059 RMK AO2 SLP381 T11501217 53022,M
ALO,2022-01-10 15:54,6.10,-9.90,46.86,360.00,10.00,0.00,30.61,1038.70,10.00,M,CLR,M,M,M,M,M,M,M,M,M,M,M,M,M,M,-9.51,KALO 101554Z 36010KT 10SM CLR M14/M23 A3061 RMK AO2 SLP387 T11441233,M
ALO,2022-01-10 16:54,7.00,-9.00,47.02,340.00,10.00,0.00,30.63,1039.10,10.00,M,CLR,M,M,M,M,M,M,M,M,M,M,M,M,M,M,-8.38,KALO 101654Z 34010KT 10SM CLR M14/M23 A3063 RMK AO2 SLP391 T11391228,M
ALO,2022-01-10 17:54,9.00,-7.10,47.14,350.00,8.00,0.00,30.61,1038.40,10.00,M,CLR,M,M,M,M,M,M,M,M,M,M,M,M,M,M,-4.22,KALO 101754Z 35008KT 10SM CLR M13/M22 A3061 RMK AO2 SLP384 T11281217 11128 21161 50006,M
ALO,2022-01-10 18:54,10.00,-7.10,45.07,320.00,10.00,0.00,30.59,1037.80,10.00,M,CLR,M,M,M,M,M,M,M,M,M,M,M,M,M,M,-4.62,KALO 101854Z 32010KT 10SM CLR M12/M22 A3059 RMK AO2 SLP378 T11221217,M
ALO,2022-01-10 19:54,10.90,-6.00,45.67,320.00,8.00,0.00,30.58,1037.40,10.00,M,CLR,M,M,M,M,M,M,M,M,M,M,M,M,M,M,-1.88,KALO 101954Z 32008KT 10SM CLR M12/M21 A3058 RMK AO2 SLP374 T11171211,M
ALO,2022-01-10 20:54,12.00,-4.00,47.89,340.00,9.00,0.00,30.59,1037.80,10.00,M,CLR,M,M,M,M,M,M,M,M,M,M,M,M,M,M,-1.35,KALO 102054Z 34009KT 10SM CLR M11/M20 A3059 RMK AO2 SLP378 T11111200 55006,M
ALO,2022-01-10 21:54,12.00,-4.00,47.89,350.00,6.00,0.00,30.60,1038.40,10.00,M,CLR,M,M,M,M,M,M,M,M,M,M,M,M,M,M,1.44,KALO 102154Z 35006KT 10SM CLR M11/M20 A3060 RMK AO2 SLP384 T11111200,M
ALO,2022-01-10 22:54,9.00,-4.00,54.74,10.00,4.00,0.00,30.59,1038.00,10.00,M,CLR,M,M,M,M,M,M,M,M,M,M,M,M,M,M,0.56,KALO 102254Z 01004KT 10SM CLR M13/M20 A3059 RMK AO2 SLP380 T11281200,M
ALO,2022-01-10 23:54,6.10,-5.10,59.20,0.00,0.00,0.00,30.60,1038.40,10.00,M,CLR,M,M,M,M,M,M,M,M,M,M,M,M,M,M,6.10,KALO 102354Z 00000KT 10SM CLR M14/M21 A3060 RMK AO2 SLP384 T11441206 11111 21144 51003,M
ALO,2022-01-11 00:54,5.00,-5.10,62.25,0.00,0.00,0.00,30.61,1038.80,10.00,M,CLR,M,M,M,M,M,M,M,M,M,M,M,M,M,M,5.00,KALO 110054Z 00000KT 10SM CLR M15/M21 A3061 RMK AO2 SLP388 T11501206,M
ALO,2022-01-11 01:54,3.90,-4.00,69.02,180.00,3.00,0.00,30.59,1038.10,10.00,M,CLR,M,M,M,M,M,M,M,M,M,M,M,M,M,M,-3.43,KALO 110154Z 18003KT 10SM CLR M16/M20 A3059 RMK AO2 SLP381 T11561200,M
ALO,2022-01-11 02:54,3.00,-5.10,68.25,0.00,0.00,0.00,30.57,1037.60,10.00,M,CLR,M,M,M,M,M,M,M,M,M,M,M,M,M,M,3.00,KALO 110254Z AUTO 00000KT 10SM CLR M16/M21 A3057 RMK AO2 SLP376 T11611206 58008,M
ALO,2022-01-11 03:54,1.00,-6.00,71.71,110.00,3.00,0.00,30.56,1037.00,10.00,M,CLR,M,M,M,M,M,M,M,M,M,M,M,M,M,M,-6.75,KALO 110354Z AUTO 11003KT 10SM CLR M17/M21 A3056 RMK AO2 SLP370 T11721211,M
ALO,2022-01-11 04:54,5.00,-4.00,65.62,0.00,0.00,0.00,30.55,1036.60,10.00,M,CLR,M,M,M,M,M,M,M,M,M,M,M,M,M,M,5.00,KALO 110454Z AUTO 00000KT 10SM CLR M15/M20 A3055 RMK AO2 SLP366 T11501200,M
ALO,2022-01-11 05:54,6.10,-4.00,62.41,170.00,6.00,0.00,30.52,1035.50,10.00,M,CLR,M,M,M,M,M,M,M,M,M,M,M,M,M,M,-5.66,KALO 110554Z AUTO 17006KT 10SM CLR M14/M20 A3052 RMK AO2 SLP355 T11441200 11139 21172 411001172 58019,M
ALO,2022-01-11 06:54,6.10,-4.00,62.41,160.00,4.00,0.00,30.49,1034.60,10.00,M,CLR,M,M,M,M,M,M,M,M,M,M,M,M,M,M,-2.82,KALO 110654Z AUTO 16004KT 10SM CLR M14/M20 A3049 RMK AO2 SLP346 T11441200,M
ALO,2022-01-11 07:54,7.00,-2.90,63.14,130.00,9.00,0.00,30.44,1032.70,10.00,M,CLR,M,M,M,M,M,M,M,M,M,M,M,M,M,M,-7.57,KALO 110754Z AUTO 13009KT 10SM CLR M14/M19 A3044 RMK AO2 SLP327 T11391194,M
ALO,2022-01-11 08:54,6.10,-2.90,65.77,140.00,7.00,0.00,30.42,1032.10,10.00,M,CLR,M,M,M,M,M,M,M,M,M,M,M,M,M,M,-6.79,KALO 110854Z AUTO 14007KT 10SM CLR M14/M19 A3042 RMK AO2 SLP321 T11441194 56033,M
ALO,2022-01-11 09:54,7.00,-4.00,59.91,150.00,10.00,0.00,30.38,1030.90,10.00,M,CLR,M,M,M,M,M,M,M,M,M,M,M,M,M,M,-8.38,KALO 110954Z AUTO 15010KT 10SM CLR M14/M20 A3038 RMK AO2 SLP309 T11391200,M
ALO,2022-01-11 10:54,7.00,-2.90,63.14,170.00,12.00,0.00,30.35,1029.90,10.00,M,CLR,M,M,M,M,M,M,M,M,M,M,M,M,M,M,-9.82,KALO 111054Z AUTO 17012KT 10SM CLR M14/M19 A3035 RMK AO2 SLP299 T11391194,M
ALO,2022-01-11 11:54,8.10,-2.90,60.07,160.00,14.00,0.00,30.31,1028.50,10.00,20.00,CLR,M,M,M,M,M,M,M,M,M,M,M,M,M,M,-9.64,KALO 111154Z 16014G20KT 10SM CLR M13/M19 A3031 RMK AO2 SLP285 T11331194 11133 21144 58036,M
ALO,2022-01-11 12:54,8.10,-2.90,60.07,160.00,15.00,0.00,30.26,1026.80,10.00,24.00,CLR,M,M,M,M,M,M,M,M,M,M,M,M,M,M,-10.20,KALO 111254Z 16015G24KT 10SM CLR M13/M19 A3026 RMK AO2 SLP268 T11331194,M
ALO,2022-01-11 13:54,9.00,-0.90,63.42,170.00,16.00,0.00,30.20,1024.90,10.00,M,CLR,M,M,M,M,M,M,M,M,M,M,M,M,M,M,-9.56,KALO 111354Z 17016KT 10SM CLR M13/M18 A3020 RMK AO2 SLP249 T11281183,M
ALO,2022-01-11 14:54,12.00,1.90,63.25,170.00,15.00,0.00,30.16,1023.20,10.00,23.00,CLR,M,M,M,M,M,M,M,M,M,M,M,M,M,M,-5.15,KALO 111454Z 17015G23KT 10SM CLR M11/M17 A3016 RMK AO2 SLP232 T11111167 56051,M
ALO,2022-01-11 15:54,18.00,8.10,64.66,170.00,12.00,0.00,30.13,1022.10,10.00,21.00,CLR,M,M,M,M,M,M,M,M,M,M,M,27.00,180.00,2022-01-11 15:07,4.18,KALO 111554Z 17012G21KT 10SM CLR M08/M13 A3013 RMK AO2 PK WND 18027/1507 SLP221 T10781133,M
ALO,2022-01-11 16:54,24.10,14.00,64.89,180.00,14.00,0.00,30.09,1020.60,10.00,M,CLR,M,M,M,M,M,M,M,M,M,M,M,M,M,M,10.98,KALO 111654Z 18014KT 10SM CLR M04/M10 A3009 RMK AO2 SLP206 T10441100,M
ALO,2022-01-11 17:54,32.00,19.90,60.55,190.00,15.00,0.00,30.04,1018.60,10.00,22.00,CLR,M,M,M,M,M,M,M,M,M,M,M,M,M,M,20.78,KALO 111754Z 19015G22KT 10SM CLR 00/M07 A3004 RMK AO2 PRESFR SLP186 T00001067 10000 21139 58040,M
ALO,2022-01-11 18:54,35.10,23.00,60.99,210.00,11.00,0.00,29.99,1017.10,10.00,M,CLR,M,M,M,M,M,M,M,M,M,M,M,M,M,M,26.38,KALO 111854Z 21011KT 10SM CLR 02/M05 A2999 RMK AO2 SLP171 T00171050,M
ALO,2022-01-11 19:54,39.00,26.10,59.52,220.00,13.00,0.00,29.96,1015.90,10.00,M,CLR,M,M,M,M,M,M,M,M,M,M,M,M,M,M,30.54,KALO 111954Z 22013KT 10SM CLR 04/M03 A2996 RMK AO2 SLP159 T00391033,M
ALO,2022-01-11 20:54,39.90,27.00,59.65,220.00,14.00,0.00,29.92,1014.50,10.00,M,CLR,M,M,M,M,M,M,M,M,M,M,M,M,M,M,31.35,KALO 112054Z 22014KT 10SM CLR 04/M03 A2992 RMK AO2 SLP145 T00441028 58037,M
ALO,2022-01-11 21:54,41.00,28.90,61.79,230.00,11.00,0.00,29.94,1015.00,10.00,M,CLR,M,M,M,M,M,M,M,M,M,M,M,M,M,M,33.84,KALO 112154Z 23011KT 10SM CLR 05/M02 A2994 RMK AO2 SLP150 T00501017,M
ALO,2022-01-11 22:54,39.90,28.90,64.49,220.00,11.00,0.00,29.93,1014.90,10.00,M,CLR,M,M,M,M,M,M,M,M,M,M,M,M,M,M,32.45,KALO 112254Z 22011KT 10SM CLR 04/M02 A2993 RMK AO2 SLP149 T00441017,M
ALO,2022-01-11 23:54,37.90,28.00,67.20,250.00,9.00,0.00,29.96,1016.00,10.00,M,CLR,M,M,M,M,M,M,M,M,M,M,M,M,M,M,30.85,KALO 112354Z 25009KT 10SM CLR 03/M02 A2996 RMK AO2 SLP160 T00331022 10050 20000 53014,M
ALO,2022-01-12 00:54,37.90,26.10,62.14,250.00,9.00,0.00,29.98,1016.40,10.00,M,CLR,M,M,M,M,M,M,M,M,M,M,M,M,M,M,30.85,KALO 120054Z 25009KT 10SM CLR 03/M03 A2998 RMK AO2 SLP164 T00331033,M
ALO,2022-01-12 01:54,37.90,26.10,62.14,260.00,9.00,0.00,29.99,1017.00,10.00,M,CLR,M,M,M,M,M,M,M,M,M,M,M,M,M,M,30.85,KALO 120154Z AUTO 26009KT 10SM CLR 03/M03 A2999 RMK AO2 SLP170 T00331033,M
ALO,2022-01-12 02:54,34.00,25.00,69.28,250.00,8.00,0.00,30.01,1017.40,10.00,M,CLR,M,M,M,M,M,M,M,M,M,M,M,M,M,M,26.58,KALO 120254Z AUTO 25008KT 10SM CLR 01/M04 A3001 RMK AO2 SLP174 T00111039 52015,M
ALO,2022-01-12 03:54,30.00,24.10,78.40,240.00,8.00,0.00,30.01,1017.70,10.00,M,CLR,M,M,M,M,M,M,M,M,M,M,M,M,M,M,21.65,KALO 120354Z AUTO 24008KT 10SM CLR M01/M04 A3001 RMK AO2 SLP177 T10111044,M
ALO,2022-01-12 04:54,33.10,24.10,69.17,280.00,3.00,0.00,30.03,1017.90,10.00,M,CLR,M,M,M,M,M,M,M,M,M,M,M,M,M,M,29.95,KALO 120454Z AUTO 28003KT 10SM CLR 01/M04 A3003 RMK AO2 SLP179 T00061044,M
ALO,2022-01-12 05:54,36.00,26.10,66.97,230.00,3.00,0.00,30.01,1017.30,10.00,M,CLR,M,M,M,M,M,M,M,M,M,M,M,M,M,M,33.26,KALO 120554Z AUTO 23003KT 10SM CLR 02/M03 A3001 RMK AO2 SLP173 T00221033 10039 21011 400501144 50002,M
ALO,2022-01-12 06:54,33.10,26.10,75.18,260.00,6.00,0.00,30.00,1016.70,10.00,M,CLR,M,M,M,M,M,M,M,M,M,M,M,M,M,M,26.86,KALO 120654Z AUTO 26006KT 10SM CLR 01/M03 A3000 RMK AO2 SLP167 T00061033,M
ALO,2022-01-12 07:54,30.90,25.00,78.48,260.00,5.00,0.00,30.01,1016.90,10.00,M,CLR,M,M,M,M,M,M,M,M,M,M,M,M,M,M,25.09,KALO 120754Z AUTO 26005KT 10SM CLR M01/M04 A3001 RMK AO2 SLP169 T10061039,M
ALO,2022-01-12 08:54,28.00,21.90,77.57,240.00,3.00,0.00,30.00,1016.90,10.00,M,CLR,M,M,M,M,M,M,M,M,M,M,M,M,M,M,24.12,KALO 120854Z AUTO 24003KT 10SM CLR M02/M06 A3000 RMK AO2 SLP169 T10221056 56003,M
ALO,2022-01-12 09:54,28.00,23.00,81.25,200.00,3.00,0.00,29.98,1016.00,10.00,M,CLR,M,M,M,M,M,M,M,M,M,M,M,M,M,M,24.12,KALO 120954Z AUTO 20003KT 10SM CLR M02/M05 A2998 RMK AO2 SLP160 T10221050,M
ALO,2022-01-12 10:54,28.90,24.10,82.00,160.00,4.00,0.00,29.96,1015.20,10.00,M,BKN,M,M,M,12000.00,M,M,M,M,M,M,M,M,M,M,23.80,KALO 121054Z AUTO 16004KT 10SM BKN120 M02/M04 A2996 RMK AO2 SLP152 T10171044,M
ALO,2022-01-12 11:54,30.90,25.00,78.48,210.00,5.00,0.00,29.97,1015.50,10.00,M,OVC,M,M,M,12000.00,M,M,M,M,M,M,M,M,M,M,25.09,KALO 121154Z 21005KT 10SM OVC120 M01/M04 A2997 RMK AO2 SLP155 T10061039 10022 21028 55013,M
ALO,2022-01-12 12:54,30.00,24.10,78.40,120.00,3.00,0.00,29.94,1014.80,10.00,M,CLR,M,M,M,M,M,M,M,M,M,M,M,M,M,M,26.40,KALO 121254Z 12003KT 10SM CLR M01/M04 A2994 RMK AO2 SLP148 T10111044,M
ALO,2022-01-12 13:54,33.10,26.10,75.18,200.00,7.00,0.00,29.96,1015.30,10.00,M,SCT,BKN,OVC,M,5500.00,7500.00,9500.00,M,M,M,M,M,M,M,M,26.12,KALO 121354Z 20007KT 10SM SCT055 BKN075 OVC095 01/M03 A2996 RMK AO2 SLP153 T00061033,M
ALO,2022-01-12 14:54,34.00,27.00,75.26,200.00,3.00,0.00,29.95,1015.00,10.00,M,SCT,M,M,M,11000.00,M,M,M,M,M,M,M,M,M,M,30.97,KALO 121454Z 20003KT 10SM SCT110 01/M03 A2995 RMK AO2 SLP150 T00111028 56006,M
ALO,2022-01-12 15:54,36.00,28.90,75.15,130.00,3.00,0.00,29.95,1015.20,10.00,M,FEW,BKN,M,M,9000.00,12000.00,M,M,M,M,M,M,M,M,M,33.26,KALO 121554Z 13003KT 10SM FEW090 BKN120 02/M02 A2995 RMK AO2 SLP152 T00221017,M
ALO,2022-01-12 16:54,37.90,28.90,69.73,230.00,6.00,0.00,29.96,1015.20,10.00,M,FEW,BKN,M,M,9000.00,11000.00,M,M,M,M,M,M,M,M,M,32.64,KALO 121654Z 23006KT 10SM FEW090 BKN110 03/M02 A2996 RMK AO2 SLP152 T00331017,M
ALO,2022-01-12 17:54,42.10,28.90,59.22,270.00,3.00,0.00,29.94,1014.60,10.00,M,CLR,M,M,M,M,M,M,M,M,M,M,M,M,M,M,40.23,KALO 121754Z 27003KT 10SM CLR 06/M02 A2994 RMK AO2 SLP146 T00561017 10056 21017 58003,M
ALO,2022-01-12 18:54,44.10,28.90,54.85,300.00,3.00,0.00,29.91,1013.60,10.00,M,CLR,M,M,M,M,M,M,M,M,M,M,M,M,M,M,42.52,KALO 121854Z 30003KT 10SM CLR 07/M02 A2991 RMK AO2 SLP136 T00671017,M
ALO,2022-01-12 19:54,44.10,28.90,54.85,300.00,5.00,0.00,29.91,1013.50,10.00,M,CLR,M,M,M,M,M,M,M,M,M,M,M,M,M,M,40.77,KALO 121954Z 30005KT 10SM CLR 07/M02 A2991 RMK AO2 SLP135 T00671017,M
ALO,2022-01-12 20:54,43.00,30.00,59.83,300.00,6.00,0.00,29.91,1013.60,10.00,M,CLR,M,M,M,M,M,M,M,M,M,M,M,M,M,M,38.78,KALO 122054Z 30006KT 10SM CLR 06/M01 A2991 RMK AO2 SLP136 T00611011 56010,M
ALO,2022-01-12 21:54,43.00,32.00,64.88,320.00,5.00,0.00,29.94,1014.60,10.00,M,CLR,M,M,M,M,M,M,M,M,M,M,M,M,M,M,39.46,KALO 122154Z 32005KT 10SM CLR 06/00 A2994 RMK AO2 SLP146 T00610000,M
ALO,2022-01-12 22:54,37.90,30.00,72.93,320.00,5.00,0.00,29.97,1015.70,10.00,M,CLR,M,M,M,M,M,M,M,M,M,M,M,M,M,M,33.40,KALO 122254Z 32005KT 10SM CLR 03/M01 A2997 RMK AO2 SLP157 T00331011,M
ALO,2022-01-12 23:54,36.00,30.00,78.60,320.00,5.00,0.00,29.97,1015.80,10.00,M,CLR,M,M,M,M,M,M,M,M,M,M,M,M,M,M,31.15,KALO 122354Z 32005KT 10SM CLR 02/M01 A2997 RMK AO2 SLP158 T00221011 10067 20022 51020,M
ALO,2022-01-13 00:54,32.00,27.00,81.55,10.00,3.00,0.00,29.97,1015.70,10.00,M,CLR,M,M,M,M,M,M,M,M,M,M,M,M,M,M,28.69,KALO 130054Z 01003KT 10SM CLR 00/M03 A2997 RMK AO2 SLP157 T00001028,M
ALO,2022-01-13 01:54,28.90,25.00,85.14,0.00,0.00,0.00,29.97,1015.80,10.00,M,CLR,M,M,M,M,M,M,M,M,M,M,M,M,M,M,28.90,KALO 130154Z 00000KT 10SM CLR M02/M04 A2997 RMK AO2 SLP158 T10171039,M
ALO,2022-01-13 02:54,28.90,25.00,85.14,0.00,0.00,0.00,29.96,1015.40,10.00,M,CLR,M,M,M,M,M,M,M,M,M,M,M,M,M,M,28.90,KALO 130254Z 00000KT 10SM CLR M02/M04 A2996 RMK AO2 SLP154 T10171039 58004,M
ALO,2022-01-13 03:54,28.00,24.10,85.08,0.00,0.00,0.00,29.96,1015.70,10.00,M,CLR,M,M,M,M,M,M,M,M,M,M,M,M,M,M,28.00,KALO 130354Z 00000KT 10SM CLR M02/M04 A2996 RMK AO2 SLP157 T10221044,M
ALO,2022-01-13 04:54,28.00,24.10,85.08,0.00,0.00,0.00,29.95,1015.20,10.00,M,CLR,M,M,M,M,M,M,M,M,M,M,M,M,M,M,28.00,KALO 130454Z 00000KT 10SM CLR M02/M04 A2995 RMK AO2 SLP152 T10221044,M
ALO,2022-01-13 05:54,28.90,25.00,85.14,0.00,0.00,0.00,29.94,1014.80,10.00,M,CLR,M,M,M,M,M,M,M,M,M,M,M,M,M,M,28.90,KALO 130554Z AUTO 00000KT 10SM CLR M02/M04 A2994 RMK AO2 SLP148 T10171039 10028 21028 400671028 58004,M
ALO,2022-01-13 06:54,28.90,25.00,85.14,0.00,0.00,0.00,29.93,1014.30,10.00,M,CLR,M,M,M,M,M,M,M,M,M,M,M,M,M,M,28.90,KALO 130654Z AUTO 00000KT 10SM CLR M02/M04 A2993 RMK AO2 SLP143 T10171039,M
ALO,2022-01-13 07:54,28.90,25.00,85.14,0.00,0.00,0.00,29.92,1014.00,10.00,M,FEW,M,M,M,12000.00,M,M,M,M,M,M,M,M,M,M,28.90,KALO 130754Z AUTO 00000KT 10SM FEW120 M02/M04 A2992 RMK AO2 SLP140 T10171039,M
ALO,2022-01-13 08:54,28.90,25.00,85.14,0.00,0.00,0.00,29.92,1014.10,10.00,M,OVC,M,M,M,12000.00,M,M,M,M,M,M,M,M,M,M,28.90,KALO 130854Z AUTO 00000KT 10SM OVC120 M02/M04 A2992 RMK AO2 SLP141 T10171039 55007,M
ALO,2022-01-13 09:54,27.00,24.10,88.65,0.00,0.00,0.00,29.91,1013.80,9.00,M,FEW,M,M,M,12000.00,M,M,M,M,M,M,M,M,M,M,27.00,KALO 130954Z AUTO 00000KT 9SM FEW120 M03/M04 A2991 RMK AO2 SLP138 T10281044,M
ALO,2022-01-13 10:54,28.00,24.10,85.08,340.00,3.00,0.00,29.92,1014.10,7.00,M,CLR,M,M,M,M,M,M,M,M,M,M,M,M,M,M,24.12,KALO 131054Z AUTO 34003KT 7SM CLR M02/M04 A2992 RMK AO2 SLP141 T10221044,M
ALO,2022-01-13 11:54,26.10,23.00,87.87,0.00,0.00,0.00,29.93,1014.60,3.00,M,CLR,M,M,M,M,M,M,M,BR,M,M,M,M,M,M,26.10,KALO 131154Z 00000KT 3SM BR CLR M03/M05 A2993 RMK AO2 SLP146 T10331050 11011 21033 53003,M
ALO,2022-01-13 12:02,24.10,21.00,87.76,0.00,0.00,0.00,29.93,M,1.50,M,FEW,FEW,M,M,9000.00,11000.00,M,M,BR,M,M,M,M,M,M,24.10,KALO 131202Z 00000KT 1 1/2SM BR FEW090 FEW110 M04/M06 A2993 RMK AO2 T10441061,M
ALO,2022-01-13 12:20,24.10,21.00,87.76,340.00,4.00,0.00,29.94,M,3.00,M,FEW,FEW,M,M,8500.00,11000.00,M,M,BR,M,M,M,M,M,M,18.19,KALO 131220Z 34004KT 3SM BR FEW085 FEW110 M04/M06 A2994 RMK AO2 T10441061,M
ALO,2022-01-13 12:54,24.10,19.90,83.75,0.00,0.00,0.00,29.94,1014.80,6.00,M,CLR,M,M,M,M,M,M,M,BR,M,M,M,M,M,M,24.10,KALO 131254Z 00000KT 6SM BR CLR M04/M07 A2994 RMK AO2 SLP148 T10441067,M
ALO,2022-01-13 13:20,25.00,21.00,84.53,0.00,0.00,0.00,29.94,M,1.75,M,CLR,M,M,M,M,M,M,M,BR,T,M,M,M,M,M,25.00,KALO 131320Z 00000KT 1 3/4SM BR CLR M04/M06 A2994 RMK AO2 I1000 T10391061,M
ALO,2022-01-13 13:30,24.10,19.90,83.75,0.00,0.00,0.00,29.94,M,0.25,M,CLR,M,M,M,M,M,M,M,FZFG,T,M,M,M,M,M,24.10,KALO 131330Z 00000KT 1/4SM R12/P6000FT FZFG CLR M04/M07 A2994 RMK AO2 I1000 T10441067,M
ALO,2022-01-13 13:40,25.00,21.00,84.53,0.00,0.00,0.00,29.93,M,0.50,M,CLR,M,M,M,M,M,M,M,FZFG,0.01,M,M,M,M,M,25.00,KALO 131340Z 00000KT 1/2SM R12/5500VP6000FT FZFG CLR M04/M06 A2993 RMK AO2 I1001 T10391061,M
ALO,2022-01-13 13:54,23.00,19.90,87.70,0.00,0.00,0.00,29.93,1014.70,0.50,M,CLR,M,M,M,M,M,M,M,FZFG,0.01,M,M,M,M,M,23.00,KALO 131354Z 00000KT 1/2SM R12/1600VP6000FT FZFG CLR M05/M07 A2993 RMK AO2 SLP147 I1001 T10501067,M
ALO,2022-01-13 14:08,24.10,21.00,87.76,0.00,0.00,0.00,29.94,M,0.25,M,CLR,M,M,M,M,M,M,M,FZFG,M,M,M,M,M,M,24.10,KALO 131408Z 00000KT 1/4SM R12/1800V4000FT FZFG CLR M04/M06 A2994 RMK AO2 T10441061,M
ALO,2022-01-13 14:21,24.10,21.00,87.76,0.00,0.00,0.00,29.94,M,1.50,M,CLR,M,M,M,M,M,M,M,BR,M,M,M,M,M,M,24.10,KALO 131421Z 00000KT 1 1/2SM R12/3000VP6000FT BR CLR M04/M06 A2994 RMK AO2 T10441061,M
ALO,2022-01-13 14:23,24.10,21.00,87.76,0.00,0.00,0.00,29.94,M,3.00,M,CLR,M,M,M,M,M,M,M,BR,M,M,M,M,M,M,24.10,KALO 131423Z 00000KT 3SM BR CLR M04/M06 A2994 RMK AO2 T10441061,M
ALO,2022-01-13 14:54,28.90,27.00,92.49,0.00,0.00,0.00,29.95,1015.30,6.00,M,CLR,M,M,M,M,M,M,M,BR,M,0.01,M,M,M,M,28.90,KALO 131454Z 00000KT 6SM BR CLR M02/M03 A2995 RMK AO2 SLP153 I3001 T10171028 53006,M
ALO,2022-01-13 15:54,35.10,30.90,84.49,0.00,0.00,0.00,29.97,1015.90,10.00,M,CLR,M,M,M,M,M,M,M,M,M,M,M,M,M,M,35.10,KALO 131554Z 00000KT 10SM CLR 02/M01 A2997 RMK AO2 SLP159 T00171006,M
ALO,2022-01-13 16:54,39.90,30.90,69.96,310.00,5.00,0.00,29.99,1016.50,10.00,M,CLR,M,M,M,M,M,M,M,M,M,M,M,M,M,M,35.78,KALO 131654Z 31005KT 10SM CLR 04/M01 A2999 RMK AO2 SLP165 T00441006,M
ALO,2022-01-13 17:54,43.00,32.00,64.88,340.00,7.00,0.00,29.98,1015.90,10.00,M,CLR,M,M,M,M,M,M,M,M,M,M,0.01,M,M,M,38.19,KALO 131754Z 34007KT 10SM CLR 06/00 A2998 RMK AO2 SLP159 I6001 T00610000 10061 21056 50009,M
ALO,2022-01-13 18:54,44.10,33.10,65.02,290.00,6.00,0.00,29.97,1015.50,10.00,M,CLR,M,M,M,M,M,M,M,M,M,M,M,M,M,M,40.10,KALO 131854Z 29006KT 10SM CLR 07/01 A2997 RMK AO2 SLP155 T00670006,M
ALO,2022-01-13 19:54,46.00,34.00,62.71,280.00,8.00,0.00,29.96,1015.30,10.00,M,CLR,M,M,M,M,M,M,M,M,M,M,M,M,M,M,41.36,KALO 131954Z 28008KT 10SM CLR 08/01 A2996 RMK AO2 SLP153 T00780011,M
ALO,2022-01-13 20:54,44.10,34.00,67.41,310.00,9.00,0.00,29.97,1015.70,10.00,M,CLR,M,M,M,M,M,M,M,M,M,M,M,M,M,M,38.56,KALO 132054Z 31009KT 10SM CLR 07/01 A2997 RMK AO2 SLP157 T00670011 55002,M
ALO,2022-01-13 21:54,42.10,34.00,72.78,310.00,10.00,0.00,29.99,1016.40,10.00,M,CLR,M,M,M,M,M,M,M,M,M,M,M,M,M,M,35.63,KALO 132154Z 31010KT 10SM CLR 06/01 A2999 RMK AO2 SLP164 T00560011,M
ALO,2022-01-13 22:54,37.90,32.00,79.08,320.00,13.00,0.00,30.01,1017.30,10.00,M,FEW,M,M,M,2200.00,M,M,M,M,M,M,M,M,M,M,29.13,KALO 132254Z 32013KT 10SM FEW022 03/00 A3001 RMK AO2 SLP173 T00330000,M
ALO,2022-01-13 23:06,37.90,30.90,75.64,330.00,10.00,0.00,30.02,M,10.00,M,BKN,M,M,M,2000.00,M,M,M,M,M,M,M,M,M,M,30.37,KALO 132306Z 33010KT 10SM BKN020 03/M01 A3002 RMK AO2 T00331006,M
ALO,2022-01-13 23:37,36.00,30.00,78.60,320.00,15.00,0.00,30.04,M,10.00,M,OVC,M,M,M,1400.00,M,M,M,M,M,M,M,M,M,M,25.97,KALO 132337Z 32015KT 10SM OVC014 02/M01 A3004 RMK AO2 T00221011,M
ALO,2022-01-13 23:54,35.10,30.00,81.46,330.00,11.00,0.00,30.05,1018.50,10.00,M,OVC,M,M,M,1200.00,M,M,M,M,M,M,M,M,M,M,26.38,KALO 132354Z 33011KT 10SM OVC012 02/M01 A3005 RMK AO2 SLP185 T00171011 10078 20017 53025,M
ALO,2022-01-14 00:54,35.10,30.00,81.46,350.00,8.00,0.00,30.06,1019.00,9.00,M,OVC,M,M,M,1300.00,M,M,M,M,M,M,M,M,M,M,27.93,KALO 140054Z 35008KT 9SM OVC013 02/M01 A3006 RMK AO2 SLP190 T00171011,M
ALO,2022-01-14 01:54,35.10,28.90,77.88,360.00,12.00,0.00,30.08,1019.60,8.00,M,OVC,M,M,M,1200.00,M,M,M,M,M,M,M,M,M,M,25.95,KALO 140154Z 36012KT 8SM OVC012 02/M02 A3008 RMK AO2 SLP196 T00171017,M
ALO,2022-01-14 02:42,33.10,28.00,81.30,20.00,12.00,0.00,30.08,M,7.00,M,OVC,M,M,M,900.00,M,M,M,M,M,M,M,M,M,M,23.40,KALO 140242Z AUTO 02012KT 7SM OVC009 01/M02 A3008 RMK AO2 T00061022,M
ALO,2022-01-14 02:54,33.10,28.00,81.30,360.00,11.00,0.00,30.08,1019.50,7.00,M,OVC,M,M,M,900.00,M,M,M,M,M,M,M,M,M,M,23.86,KALO 140254Z AUTO 36011KT 7SM OVC009 01/M02 A3008 RMK AO2 SLP195 T00061022 50009,M
ALO,2022-01-14 03:54,32.00,28.00,84.98,10.00,9.00,0.00,30.09,1019.90,9.00,M,OVC,M,M,M,900.00,M,M,M,M,M,M,M,M,M,M,23.51,KALO 140354Z AUTO 01009KT 9SM OVC009 00/M02 A3009 RMK AO2 SLP199 T00001022,M
ALO,2022-01-14 04:34,32.00,28.00,84.98,10.00,9.00,0.00,30.09,M,9.00,M,OVC,M,M,M,1000.00,M,M,M,M,M,M,M,M,M,M,23.51,KALO 140434Z AUTO 01009KT 9SM OVC010 00/M02 A3009 RMK AO2 T00001022,M
ALO,2022-01-14 04:54,33.10,28.00,81.30,40.00,9.00,0.00,30.08,1019.50,9.00,M,OVC,M,M,M,1000.00,M,M,M,M,M,M,M,M,M,M,24.88,KALO 140454Z AUTO 04009KT 9SM OVC010 01/M02 A3008 RMK AO2 SLP195 T00061022,M
ALO,2022-01-14 05:54,33.10,27.00,78.03,20.00,6.00,0.00,30.08,1019.40,10.00,M,OVC,M,M,M,1100.00,M,M,M,M,M,M,M,M,M,M,26.86,KALO 140554Z AUTO 02006KT 10SM OVC011 01/M03 A3008 RMK AO2 SLP194 T00061028 10017 20000 400781056 51002,M
ALO,2022-01-14 06:54,33.10,27.00,78.03,60.00,6.00,0.00,30.06,1018.60,10.00,M,OVC,M,M,M,1100.00,M,M,M,M,M,M,M,M,M,M,26.86,KALO 140654Z AUTO 06006KT 10SM OVC011 01/M03 A3006 RMK AO2 SLP186 T00061028,M
ALO,2022-01-14 07:54,33.10,27.00,78.03,0.00,0.00,0.00,30.07,1019.10,9.00,M,OVC,M,M,M,1500.00,M,M,M,M,M,M,M,M,M,M,33.10,KALO 140754Z AUTO 00000KT 9SM OVC015 01/M03 A3007 RMK AO2 SLP191 T00061028,M
ALO,2022-01-14 08:54,32.00,28.00,84.98,10.00,3.00,0.00,30.07,1018.90,8.00,M,OVC,M,M,M,1800.00,M,M,M,M,M,M,M,M,M,M,28.69,KALO 140854Z AUTO 01003KT 8SM OVC018 00/M02 A3007 RMK AO2 SLP189 T00001022 56005,M
ALO,2022-01-14 09:54,32.00,28.00,84.98,310.00,3.00,0.00,30.06,1018.90,9.00,M,OVC,M,M,M,1700.00,M,M,M,M,M,M,M,M,M,M,28.69,KALO 140954Z AUTO 31003KT 9SM OVC017 00/M02 A3006 RMK AO2 SLP189 T00001022,M
ALO,2022-01-14 10:31,32.00,28.00,84.98,300.00,4.00,0.00,30.07,M,8.00,M,OVC,M,M,M,1400.00,M,M,M,M,M,M,M,M,M,M,27.42,KALO 141031Z AUTO 30004KT 8SM OVC014 00/M02 A3007 RMK AO2 T00001022,M
ALO,2022-01-14 10:54,32.00,28.00,84.98,0.00,0.00,0.00,30.06,1018.80,8.00,M,OVC,M,M,M,1400.00,M,M,M,M,M,M,M,M,M,M,32.00,KALO 141054Z AUTO 00000KT 8SM OVC014 00/M02 A3006 RMK AO2 SLP188 T00001022,M
ALO,2022-01-14 11:54,32.00,28.00,84.98,90.00,4.00,0.00,30.04,1018.10,7.00,M,FEW,OVC,M,M,1400.00,2100.00,M,M,M,M,M,M,M,M,M,27.42,KALO 141154Z 09004KT 7SM FEW014 OVC021 00/M02 A3004 RMK AO2 SLP181 T00001022 10006 20000 58010,M
ALO,2022-01-14 12:41,33.10,28.00,81.30,40.00,4.00,0.00,30.06,M,8.00,M,OVC,M,M,M,1400.00,M,M,M,M,M,M,M,M,M,M,28.70,KALO 141241Z 04004KT 8SM OVC014 01/M02 A3006 RMK AO2 T00061022,M
ALO,2022-01-14 12:54,33.10,28.00,81.30,10.00,3.00,0.00,30.07,1019.10,8.00,M,OVC,M,M,M,1200.00,M,M,M,M,M,M,M,M,M,M,29.95,KALO 141254Z 01003KT 8SM OVC012 01/M02 A3007 RMK AO2 SLP191 T00061022,M
ALO,2022-01-14 13:54,33.10,28.90,84.36,60.00,4.00,T,30.08,1019.40,2.50,M,OVC,M,M,M,1100.00,M,M,M,-SN BR,M,M,M,M,M,M,28.70,KALO 141354Z 06004KT 2 1/2SM -SN BR OVC011 01/M02 A3008 RMK AO2 SNB42 SLP194 P0000 T00061017,M
ALO,2022-01-14 14:12,33.10,28.90,84.36,80.00,6.00,0.01,30.07,M,1.50,M,OVC,M,M,M,1100.00,M,M,M,-SN BR,M,M,M,M,M,M,26.86,KALO 141412Z 08006KT 1 1/2SM -SN BR OVC011 01/M02 A3007 RMK AO2 P0001 T00061017,M
ALO,2022-01-14 14:37,33.10,30.00,88.23,90.00,5.00,0.02,30.07,M,0.50,M,FEW,OVC,M,M,500.00,1100.00,M,M,SN FG,M,M,M,M,M,M,27.70,KALO 141437Z 09005KT 1/2SM R12/4500V5500FT SN FG FEW005 OVC011 01/M01 A3007 RMK AO2 P0002 T00061011,M
ALO,2022-01-14 14:54,33.10,30.00,88.23,100.00,7.00,0.03,30.07,1019.30,0.50,M,SCT,OVC,M,M,500.00,1000.00,M,M,SN FG,M,M,M,M,M,M,26.12,KALO 141454Z 10007KT 1/2SM R12/3500V4500FT SN FG SCT005 OVC010 01/M01 A3007 RMK AO2 SLP193 P0003 60003 T00061011 50011,M
ALO,2022-01-14 15:01,33.10,30.00,88.23,100.00,7.00,0.01,30.07,M,0.25,M,BKN,OVC,M,M,500.00,900.00,M,M,SN FG,M,M,M,M,M,M,26.12,KALO 141501Z 10007KT 1/4SM R12/3000V3500FT SN FG BKN005 OVC009 01/M01 A3007 RMK AO2 P0001 T00061011,M
ALO,2022-01-14 15:21,33.10,30.00,88.23,110.00,10.00,0.03,30.07,M,0.50,M,OVC,M,M,M,500.00,M,M,M,SN FG,M,M,M,M,M,M,24.35,KALO 141521Z 11010KT 1/2SM R12/3000V3500FT SN FG OVC005 01/M01 A3007 RMK AO2 P0003 T00061011,M
ALO,2022-01-14 15:54,34.00,30.90,88.27,110.00,12.00,0.06,30.08,1019.70,0.50,M,OVC,M,M,M,500.00,M,M,M,SN FG,M,M,M,M,M,M,24.55,KALO 141554Z 11012KT 1/2SM R12/3000V3500FT SN FG OVC005 01/M01 A3008 RMK AO2 SLP197 P0006 T00111006,M
ALO,2022-01-14 16:54,34.00,30.90,88.27,110.00,13.00,0.03,30.08,1019.50,0.50,M,OVC,M,M,M,600.00,M,M,M,SN FG,M,M,M,M,M,M,24.13,KALO 141654Z 11013KT 1/2SM R12/2800V3000FT SN FG OVC006 01/M01 A3008 RMK AO2 SLP195 P0003 T00111006,M
ALO,2022-01-14 17:44,28.90,26.10,89.12,100.00,17.00,0.03,30.07,M,0.75,23.00,SCT,OVC,M,M,700.00,1600.00,M,M,-SN BR,M,M,M,26.00,100.00,2022-01-14 17:06,16.01,KALO 141744Z 10017G23KT 3/4SM R12/4000VP6000FT -SN BR SCT007 OVC016 M02/M03 A3007 RMK AO2 PK WND 10026/1706 P0003 T10171033,M
ALO,2022-01-14 17:54,28.90,25.00,85.14,100.00,16.00,0.03,30.07,1019.20,1.00,24.00,SCT,OVC,M,M,700.00,1800.00,M,M,-SN BR,M,M,M,26.00,100.00,2022-01-14 17:06,16.38,KALO 141754Z 10016G24KT 1SM R12/6000VP6000FT -SN BR SCT007 OVC018 M02/M04 A3007 RMK AO2 PK WND 10026/1706 SLP192 P0003 60015 T10171039 10011 21017 58001,M
ALO,2022-01-14 18:45,28.00,24.10,85.08,90.00,16.00,0.01,30.07,M,0.75,22.00,SCT,OVC,M,M,1000.00,1600.00,M,M,-SN BR,M,M,M,26.00,90.00,2022-01-14 18:11,15.20,KALO 141845Z 09016G22KT 3/4SM R12/5000VP6000FT -SN BR SCT010 OVC016 M02/M04 A3007 RMK AO2 PK WND 09026/1811 P0001 T10221044,M
ALO,2022-01-14 18:54,28.00,24.10,85.08,80.00,13.00,0.01,30.07,1019.40,0.75,M,OVC,M,M,M,1300.00,M,M,M,-SN BR,M,M,M,26.00,90.00,2022-01-14 18:11,16.44,KALO 141854Z 08013KT 3/4SM R12/4500VP6000FT -SN BR OVC013 M02/M04 A3007 RMK AO2 PK WND 09026/1811 SLP194 P0001 T10221044,M
ALO,2022-01-14 19:08,28.00,24.10,85.08,90.00,13.00,0.01,30.08,M,0.50,M,SCT,BKN,OVC,M,800.00,1300.00,1700.00,M,-SN FZFG,M,M,M,M,M,M,16.44,KALO 141908Z 09013KT 1/2SM R12/3000VP6000FT -SN FZFG SCT008 BKN013 OVC017 M02/M04 A3008 RMK AO2 P0001 T10221044,M
ALO,2022-01-14 19:21,27.00,24.10,88.65,90.00,14.00,0.01,30.08,M,2.00,M,SCT,BKN,OVC,M,800.00,1300.00,2700.00,M,-SN BR,M,M,M,M,M,M,14.72,KALO 141921Z 09014KT 2SM -SN BR SCT008 BKN013 OVC027 M03/M04 A3008 RMK AO2 P0001 T10281044,M
ALO,2022-01-14 19:33,27.00,23.00,84.66,80.00,16.00,0.02,30.08,M,1.75,M,FEW,BKN,OVC,M,800.00,1300.00,2700.00,M,-SN BR,M,M,M,M,M,M,13.90,KALO 141933Z 08016KT 1 3/4SM -SN BR FEW008 BKN013 OVC027 M03/M05 A3008 RMK AO2 P0002 T10281050,M
ALO,2022-01-14 19:50,26.60,21.20,79.77,80.00,17.00,0.02,30.08,M,1.25,23.00,FEW,BKN,OVC,M,1000.00,1500.00,2100.00,M,-SN BR,M,M,M,M,M,M,13.00,KALO 141950Z 08017G23KT 1 1/4SM R12/6000VP6000FT -SN BR FEW010 BKN015 OVC021 M03/M06 A3008 RMK AO2 P0002,M
ALO,2022-01-14 19:54,26.10,21.90,83.89,90.00,15.00,0.02,30.08,1019.60,1.00,M,SCT,SCT,OVC,M,1000.00,1500.00,2100.00,M,-SN BR,M,M,M,M,M,M,13.13,KALO 141954Z 09015KT 1SM R12/4500VP6000FT -SN BR SCT010 SCT015 OVC021 M03/M06 A3008 RMK AO2 SLP196 P0002 T10331056,M
ALO,2022-01-14 20:02,26.10,21.90,83.89,80.00,14.00,T,30.08,M,0.75,M,FEW,OVC,M,M,1000.00,1800.00,M,M,-SN BR,M,M,M,M,M,M,13.56,KALO 142002Z 08014KT 3/4SM R12/3500V5000FT -SN BR FEW010 OVC018 M03/M06 A3008 RMK AO2 P0000 T10331056,M
ALO,2022-01-14 20:09,26.10,21.90,83.89,90.00,17.00,T,30.08,M,0.50,M,FEW,OVC,M,M,800.00,1800.00,M,M,SN FZFG,M,M,M,M,M,M,12.35,KALO 142009Z 09017KT 1/2SM R12/3500V5000FT SN FZFG FEW008 OVC018 M03/M06 A3008 RMK AO2 P0000 T10331056,M
ALO,2022-01-14 20:54,25.00,21.00,84.53,90.00,14.00,0.03,30.09,1020.10,0.75,M,VV ,M,M,M,1700.00,M,M,M,-SN BR,M,M,M,M,M,M,12.14,KALO 142054Z 09014KT 3/4SM R12/4500VP6000FT -SN BR VV017 M04/M06 A3009 RMK AO2 SLP201 P0003 60006 T10391061 53006,M
ALO,2022-01-14 21:17,25.00,21.00,84.53,90.00,14.00,0.01,30.10,M,0.50,22.00,VV ,M,M,M,1300.00,M,M,M,SN FZFG,M,M,M,M,M,M,12.14,KALO 142117Z 09014G22KT 1/2SM R12/3000V3500FT SN FZFG VV013 M04/M06 A3010 RMK AO2 P0001 T10391061,M
ALO,2022-01-14 21:31,25.00,21.00,84.53,90.00,13.00,0.02,30.10,M,0.25,22.00,VV ,M,M,M,1000.00,M,M,M,SN FZFG,M,M,M,M,M,M,12.60,KALO 142131Z 09013G22KT 1/4SM R12/2600V3000FT SN FZFG VV010 M04/M06 A3010 RMK AO2 P0002 T10391061,M
ALO,2022-01-14 21:49,24.80,21.20,85.96,90.00,14.00,0.05,30.11,M,0.50,M,VV ,M,M,M,1000.00,M,M,M,SN FZFG,M,M,M,M,M,M,11.88,KALO 142149Z 09014KT 1/2SM R12/3000V3500FT SN FZFG VV010 M04/M06 A3011 RMK AO2 P0005,M
ALO,2022-01-14 21:54,25.00,21.00,84.53,90.00,15.00,0.05,30.11,1020.60,0.50,22.00,VV ,M,M,M,1000.00,M,M,M,SN FZFG,M,M,M,M,M,M,11.71,KALO 142154Z 09015G22KT 1/2SM R12/3000V3500FT SN FZFG VV010 M04/M06 A3011 RMK AO2 SLP206 P0005 T10391061,M
ALO,2022-01-14 22:08,24.10,21.00,87.76,90.00,16.00,0.01,30.11,M,0.25,23.00,VV ,M,M,M,1000.00,M,M,M,SN FZFG,M,M,M,M,M,M,10.12,KALO 142208Z 09016G23KT 1/4SM R12/3000V3500FT SN FZFG VV010 M04/M06 A3011 RMK AO2 P0001 T10441061,M
ALO,2022-01-14 22:28,24.10,19.90,83.75,80.00,14.00,0.02,30.11,M,0.50,M,FEW,OVC,M,M,700.00,1200.00,M,M,SN FZFG,M,M,M,M,M,M,10.98,KALO 142228Z 08014KT 1/2SM R12/3500V5000FT SN FZFG FEW007 OVC012 M04/M07 A3011 RMK AO2 P0002 T10441067,M
ALO,2022-01-14 22:54,24.10,19.90,83.75,80.00,16.00,0.03,30.12,1020.90,0.75,M,VV ,M,M,M,1400.00,M,M,M,-SN BR,M,M,M,M,M,M,10.12,KALO 142254Z 08016KT 3/4SM R12/5000V5500FT -SN BR VV014 M04/M07 A3012 RMK AO2 SLP209 P0003 T10441067,M
ALO,2022-01-14 23:02,24.10,19.90,83.75,80.00,16.00,T,30.11,M,1.00,M,VV ,M,M,M,1400.00,M,M,M,-SN BR,M,M,M,M,M,M,10.12,KALO 142302Z 08016KT 1SM R12/5500VP6000FT -SN BR VV014 M04/M07 A3011 RMK AO2 P0000 T10441067,M
ALO,2022-01-14 23:22,23.00,19.00,84.39,70.00,20.00,0.01,30.12,M,0.75,23.00,FEW,OVC,M,M,1000.00,1400.00,M,M,-SN BR,M,M,M,M,M,M,7.19,KALO 142322Z 07020G23KT 3/4SM R12/P6000FT -SN BR FEW010 OVC014 M05/M07 A3012 RMK AO2 P0001 T10501072,M
ALO,2022-01-14 23:54,23.00,19.00,84.39,70.00,15.00,0.01,30.13,1021.30,0.75,M,VV ,M,M,M,1300.00,M,M,M,-SN BR,M,M,M,M,M,M,9.11,KALO 142354Z 07015KT 3/4SM R12/P6000FT -SN BR VV013 M05/M07 A3013 RMK AO2 SLP213 P0001 60015 T10501072 11017 21050 53007,M
ALO,2022-01-15 00:54,21.90,18.00,84.68,70.00,18.00,0.03,30.16,1022.30,0.75,M,VV ,M,M,M,1200.00,M,M,M,-SN BR,M,M,M,28.00,70.00,2022-01-15 00:31,6.45,KALO 150054Z 07018KT 3/4SM R12/P6000FT -SN BR VV012 M06/M08 A3016 RMK AO2 PK WND 07028/0031 SLP223 P0003 T10561078,M
ALO,2022-01-15 01:54,19.90,16.00,84.55,70.00,23.00,0.02,30.18,1023.30,0.75,31.00,VV ,M,M,M,1400.00,M,M,M,-SN BR,M,M,M,34.00,70.00,2022-01-15 01:38,2.05,KALO 150154Z 07023G31KT 3/4SM R12/P6000FT -SN BR VV014 M07/M09 A3018 RMK AO2 PK WND 07034/0138 SLP233 P0002 T10671089,M
ALO,2022-01-15 02:01,19.90,16.00,84.55,70.00,19.00,0.01,30.19,M,0.75,34.00,VV ,M,M,M,1500.00,M,M,M,-SN BR,M,M,M,34.00,60.00,2022-01-15 01:55,3.44,KALO 150201Z 07019G34KT 3/4SM R12/P6000FT -SN BR VV015 M07/M09 A3019 RMK AO2 PK WND 06034/0155 P0001 T10671089,M
ALO,2022-01-15 02:24,19.90,16.00,84.55,70.00,18.00,0.02,30.21,M,0.75,M,VV ,M,M,M,1400.00,M,M,M,-SN BR,M,M,M,34.00,60.00,2022-01-15 01:55,3.82,KALO 150224Z 07018KT 3/4SM R12/P6000FT -SN BR VV014 M07/M09 A3021 RMK AO2 PK WND 06034/0155 P0002 T10671089,M
ALO,2022-01-15 02:54,19.90,15.10,81.30,70.00,22.00,0.03,30.22,1024.60,0.75,29.00,VV ,M,M,M,1300.00,M,M,M,-SN,M,M,M,34.00,60.00,2022-01-15 01:55,2.38,KALO 150254Z 07022G29KT 3/4SM R12/6000VP6000FT -SN VV013 M07/M09 A3022 RMK AO2 PK WND 06034/0155 SLP246 P0003 60008 T10671094 53030,M
ALO,2022-01-15 03:20,19.90,15.10,81.30,50.00,14.00,0.02,30.23,M,1.00,28.00,VV ,M,M,M,1500.00,M,M,M,-SN,M,M,M,28.00,60.00,2022-01-15 03:16,5.57,KALO 150320Z 05014G28KT 1SM R12/P6000FT -SN VV015 M07/M09 A3023 RMK AO2 PK WND 06028/0316 P0002 T10671094,M
ALO,2022-01-15 03:54,19.00,14.00,80.52,50.00,19.00,0.03,30.25,1025.60,1.00,M,VV ,M,M,M,1500.00,M,M,M,-SN,M,M,M,28.00,60.00,2022-01-15 03:16,2.25,KALO 150354Z 05019KT 1SM R12/P6000FT -SN VV015 M07/M10 A3025 RMK AO2 PK WND 06028/0316 SLP256 P0003 T10721100,M
ALO,2022-01-15 04:54,19.00,14.00,80.52,50.00,14.00,0.02,30.27,1026.40,1.25,25.00,OVC,M,M,M,1700.00,M,M,M,-SN,M,M,M,M,M,M,4.41,KALO 150454Z 05014G25KT 1 1/4SM -SN OVC017 M07/M10 A3027 RMK AO2 SLP264 P0002 T10721100,M
ALO,2022-01-15 05:54,18.00,12.90,80.09,50.00,19.00,0.01,30.29,1027.00,1.75,24.00,OVC,M,M,M,2200.00,M,M,M,-SN,M,M,M,M,M,M,0.92,KALO 150554Z 05019G24KT 1 3/4SM -SN OVC022 M08/M11 A3029 RMK AO2 SLP270 P0001 60014 T10781106 11050 21078 400111078 51022,M
ALO,2022-01-15 06:12,18.00,12.90,80.09,50.00,16.00,T,30.29,M,2.00,M,OVC,M,M,M,3000.00,M,M,M,-SN,M,M,M,M,M,M,2.17,KALO 150612Z 05016KT 2SM -SN OVC030 M08/M11 A3029 RMK AO2 P0000 T10781106,M
ALO,2022-01-15 06:54,17.10,12.00,80.01,50.00,17.00,T,30.31,1027.70,2.50,24.00,OVC,M,M,M,3300.00,M,M,M,-SN,M,M,M,M,M,M,0.56,KALO 150654Z 05017G24KT 2 1/2SM -SN OVC033 M08/M11 A3031 RMK AO2 SLP277 P0000 T10831111,M
ALO,2022-01-15 07:15,17.10,12.00,80.01,40.00,15.00,T,30.31,M,1.75,M,OVC,M,M,M,2700.00,M,M,M,-SN,M,M,M,M,M,M,1.46,KALO 150715Z 04015KT 1 3/4SM -SN OVC027 M08/M11 A3031 RMK AO2 P0000 T10831111,M
ALO,2022-01-15 07:54,17.10,10.90,76.20,30.00,14.00,T,30.34,1028.70,1.75,24.00,OVC,M,M,M,3100.00,M,M,M,-SN,M,M,M,26.00,40.00,2022-01-15 07:27,1.96,KALO 150754Z 03014G24KT 1 3/4SM -SN OVC031 M08/M12 A3034 RMK AO2 PK WND 04026/0727 SLP287 P0000 T10831117,M
ALO,2022-01-15 08:07,16.00,10.90,79.92,40.00,14.00,T,30.34,M,2.00,22.00,OVC,M,M,M,3300.00,M,M,M,-SN,M,M,M,M,M,M,0.54,KALO 150807Z 04014G22KT 2SM -SN OVC033 M09/M12 A3034 RMK AO2 P0000 T10891117,M
ALO,2022-01-15 08:18,16.00,10.90,79.92,40.00,15.00,0.01,30.34,M,1.75,27.00,OVC,M,M,M,3300.00,M,M,M,-SN,M,M,M,27.00,40.00,2022-01-15 08:09,0.04,KALO 150818Z 04015G27KT 1 3/4SM -SN OVC033 M09/M12 A3034 RMK AO2 PK WND 04027/0809 P0001 T10891117,M
ALO,2022-01-15 08:27,16.00,10.00,76.77,50.00,15.00,0.01,30.35,M,2.00,M,OVC,M,M,M,3500.00,M,M,M,-SN,M,M,M,27.00,40.00,2022-01-15 08:09,0.04,KALO 150827Z 05015KT 2SM -SN OVC035 M09/M12 A3035 RMK AO2 PK WND 04027/0809 P0001 T10891122,M
ALO,2022-01-15 08:54,15.10,10.00,79.84,40.00,17.00,0.01,30.35,1029.30,3.00,M,OVC,M,M,M,3700.00,M,M,M,-SN,M,M,M,27.00,40.00,2022-01-15 08:09,-2.06,KALO 150854Z 04017KT 3SM -SN OVC037 M09/M12 A3035 RMK AO2 PK WND 04027/0809 SLP293 P0001 60001 T10941122 51021,M
ALO,2022-01-15 09:54,14.00,8.10,76.92,40.00,14.00,T,30.36,1029.80,6.00,M,CLR,M,M,M,M,M,M,M,HZ,M,M,M,M,M,M,-2.04,KALO 150954Z 04014KT 6SM HZ CLR M10/M13 A3036 RMK AO2 SNE12 SLP298 P0000 T11001133,M
ALO,2022-01-15 10:38,14.00,6.10,70.26,40.00,16.00,0.00,30.37,M,6.00,M,BKN,M,M,M,1800.00,M,M,M,HZ,M,M,M,M,M,M,-3.04,KALO 151038Z 04016KT 6SM HZ BKN018 M10/M14 A3037 RMK AO2 T11001144,M
ALO,2022-01-15 10:54,14.00,6.10,70.26,30.00,14.00,0.00,30.38,1030.20,6.00,M,OVC,M,M,M,1800.00,M,M,M,HZ,M,M,M,M,M,M,-2.04,KALO 151054Z 03014KT 6SM HZ OVC018 M10/M14 A3038 RMK AO2 SLP302 T11001144,M
ALO,2022-01-15 11:54,14.00,6.10,70.26,40.00,15.00,0.00,30.39,1030.80,6.00,M,OVC,M,M,M,1700.00,M,M,M,HZ,M,M,M,M,M,M,-2.56,KALO 151154Z 04015KT 6SM HZ OVC017 M10/M14 A3039 RMK AO2 SLP308 60001 70045 T11001144 11078 21100 53014,M
ALO,2022-01-15 12:54,12.90,6.10,73.74,30.00,13.00,0.00,30.42,1031.90,10.00,M,OVC,M,M,M,1700.00,M,M,M,M,M,M,M,M,M,M,-2.90,KALO 151254Z 03013KT 10SM OVC017 M11/M14 A3042 RMK AO2 SLP319 T11061144,M
ALO,2022-01-15 13:54,12.00,3.90,69.38,40.00,12.00,0.00,30.45,1032.80,10.00,M,BKN,M,M,M,1600.00,M,M,M,M,M,M,M,M,M,M,-3.45,KALO 151354Z 04012KT 10SM BKN016 M11/M16 A3045 RMK AO2 SLP328 T11111156,M
ALO,2022-01-15 14:01,10.90,3.90,72.85,30.00,12.00,0.00,30.45,M,10.00,M,SCT,M,M,M,1600.00,M,M,M,M,M,M,M,M,M,M,-4.85,KALO 151401Z 03012KT 10SM SCT016 M12/M16 A3045 RMK AO2 T11171156,M
ALO,2022-01-15 14:54,10.00,1.90,69.13,30.00,9.00,0.00,30.45,1033.00,10.00,M,CLR,M,M,M,M,M,M,M,M,M,M,M,M,M,M,-3.84,KALO 151454Z 03009KT 10SM CLR M12/M17 A3045 RMK AO2 SLP330 T11221167 51020,M
ALO,2022-01-15 15:54,10.90,1.90,66.41,40.00,10.00,0.00,30.46,1033.30,10.00,M,CLR,M,M,M,M,M,M,M,M,M,M,M,M,M,M,-3.49,KALO 151554Z 04010KT 10SM CLR M12/M17 A3046 RMK AO2 SLP333 T11171167 $,M
ALO,2022-01-15 16:54,12.00,3.00,66.56,40.00,13.00,0.00,30.47,1033.30,10.00,M,CLR,M,M,M,M,M,M,M,M,M,M,M,M,M,M,-4.05,KALO 151654Z 04013KT 10SM CLR M11/M16 A3047 RMK AO2 SLP333 T11111161 $,M
ALO,2022-01-15 17:54,14.00,3.90,63.53,40.00,9.00,0.00,30.44,1032.40,10.00,M,CLR,M,M,M,M,M,M,M,M,M,M,M,M,M,M,1.13,KALO 151754Z 04009KT 10SM CLR M10/M16 A3044 RMK AO2 SLP324 T11001156 11100 21122 58005 $,M
ALO,2022-01-15 18:54,15.10,5.00,63.68,40.00,10.00,0.00,30.40,1031.10,10.00,M,CLR,M,M,M,M,M,M,M,M,M,M,M,M,M,M,1.78,KALO 151854Z 04010KT 10SM CLR M09/M15 A3040 RMK AO2 SLP311 T10941150 $,M
ALO,2022-01-15 19:54,15.10,6.10,66.96,20.00,8.00,0.00,30.38,1030.30,10.00,M,CLR,M,M,M,M,M,M,M,M,M,M,M,M,M,M,3.30,KALO 151954Z 02008KT 10SM CLR M09/M14 A3038 RMK AO2 SLP303 T10941144 $,M
ALO,2022-01-15 20:54,16.00,6.10,64.39,10.00,7.00,0.00,30.37,1030.10,10.00,M,CLR,M,M,M,M,M,M,M,M,M,M,M,M,M,M,5.28,KALO 152054Z 01007KT 10SM CLR M09/M14 A3037 RMK AO2 SLP301 T10891144 56022 $,M
ALO,2022-01-15 21:54,15.10,5.00,63.68,10.00,6.00,0.00,30.36,1029.90,10.00,M,CLR,M,M,M,M,M,M,M,M,M,M,M,M,M,M,5.18,KALO 152154Z 01006KT 10SM CLR M09/M15 A3036 RMK AO2 SLP299 T10941150 $,M
ALO,2022-01-15 22:54,10.00,3.00,72.75,360.00,3.00,0.00,30.34,1029.30,10.00,M,CLR,M,M,M,M,M,M,M,M,M,M,M,M,M,M,3.54,KALO 152254Z 36003KT 10SM CLR M12/M16 A3034 RMK AO2 SLP293 T11221161 $,M
ALO,2022-01-15 23:54,3.00,-4.00,71.95,0.00,0.00,0.00,30.35,1029.70,10.00,M,CLR,M,M,M,M,M,M,M,M,M,M,M,M,M,M,3.00,KALO 152354Z 00000KT 10SM CLR M16/M20 A3035 RMK AO2 SLP297 T11611200 11089 21172 55008 $,M
ALO,2022-01-16 00:54,0.00,-6.00,75.15,0.00,0.00,0.00,30.34,1029.50,10.00,M,CLR,M,M,M,M,M,M,M,M,M,M,M,M,M,M,0.00,KALO 160054Z 00000KT 10SM CLR M18/M21 A3034 RMK AO2 SLP295 T11781211 $,M
ALO,2022-01-16 01:54,-0.90,-9.00,67.74,0.00,0.00,0.00,30.33,1029.30,10.00,M,CLR,M,M,M,M,M,M,M,M,T,M,M,M,M,M,-0.90,KALO 160154Z 00000KT 10SM CLR M18/M23 A3033 RMK AO2 SLP293 I1000 T11831228 $,M
ALO,2022-01-16 02:54,-5.10,-11.00,74.97,0.00,0.00,0.00,30.29,1027.90,10.00,M,CLR,M,M,M,M,M,M,M,M,T,T,M,M,M,M,-5.10,KALO 160254Z 00000KT 10SM CLR M21/M24 A3029 RMK AO2 SLP279 I1000 I3000 T12061239 58019 $,M
ALO,2022-01-16 03:54,-6.00,-11.90,74.87,0.00,0.00,0.00,30.25,1026.60,10.00,M,CLR,M,M,M,M,M,M,M,M,T,M,M,M,M,M,-6.00,KALO 160354Z 00000KT 10SM CLR M21/M24 A3025 RMK AO2 SLP266 I1000 T12111244 $,M
ALO,2022-01-16 04:54,-8.00,-14.10,73.90,0.00,0.00,0.00,30.23,1025.90,10.00,M,CLR,M,M,M,M,M,M,M,M,T,M,M,M,M,M,-8.00,KALO 160454Z 00000KT 10SM CLR M22/M26 A3023 RMK AO2 SLP259 I1000 T12221256 $,M
ALO,2022-01-16 05:54,-6.00,-13.00,70.87,0.00,0.00,0.00,30.21,1025.10,10.00,M,CLR,M,M,M,M,M,M,M,M,M,M,T,M,M,M,-6.00,KALO 160554Z 00000KT 10SM CLR M21/M25 A3021 RMK AO2 SLP251 I6000 T12111250 11150 21222 410781222 56027 $,M
ALO,2022-01-16 06:51,-7.60,-14.80,69.96,0.00,0.00,0.00,30.18,M,10.00,M,BKN,M,M,M,1800.00,M,M,M,M,M,M,M,M,M,M,-7.60,KALO 160651Z 00000KT 10SM BKN018 M22/M26 A3018 RMK AO2 $,M
ALO,2022-01-16 06:54,-7.10,-14.10,70.73,0.00,0.00,0.00,30.19,1024.40,10.00,M,BKN,M,M,M,1800.00,M,M,M,M,M,M,M,M,M,M,-7.10,KALO 160654Z 00000KT 10SM BKN018 M22/M26 A3019 RMK AO2 SLP244 T12171256 $,M
ALO,2022-01-16 07:44,-0.90,-7.10,74.33,0.00,0.00,0.00,30.17,M,9.00,M,OVC,M,M,M,1400.00,M,M,M,M,M,M,M,M,M,M,-0.90,KALO 160744Z 00000KT 9SM OVC014 M18/M22 A3017 RMK AO2 T11831217 $,M
ALO,2022-01-16 07:54,0.00,-6.00,75.15,0.00,0.00,0.00,30.17,1023.60,9.00,M,OVC,M,M,M,1300.00,M,M,M,M,M,M,M,M,M,M,0.00,KALO 160754Z 00000KT 9SM OVC013 M18/M21 A3017 RMK AO2 SLP236 T11781211 $,M
ALO,2022-01-16 08:54,7.00,1.90,79.13,170.00,3.00,0.00,30.14,1022.30,10.00,M,OVC,M,M,M,1000.00,M,M,M,M,M,M,M,M,M,M,0.11,KALO 160854Z 17003KT 10SM OVC010 M14/M17 A3014 RMK AO2 SLP223 T11391167 58013 $,M
ALO,2022-01-16 09:07,8.10,3.00,79.23,140.00,4.00,0.00,30.11,M,10.00,M,OVC,M,M,M,800.00,M,M,M,M,M,M,M,M,M,M,-0.49,KALO 160907Z 14004KT 10SM OVC008 M13/M16 A3011 RMK AO2 CIG 007V011 PRESFR T11331161 $,M
ALO,2022-01-16 09:39,10.00,5.00,79.76,0.00,0.00,0.00,30.10,M,10.00,M,OVC,M,M,M,1100.00,M,M,M,M,M,M,M,M,M,M,10.00,KALO 160939Z 00000KT 10SM OVC011 M12/M15 A3010 RMK AO2 T11221150 $,M
ALO,2022-01-16 09:54,9.00,5.00,83.41,0.00,0.00,0.00,30.09,1020.80,10.00,M,OVC,M,M,M,1100.00,M,M,M,M,M,M,M,M,M,M,9.00,KALO 160954Z 00000KT 10SM OVC011 M13/M15 A3009 RMK AO2 SLP208 T11281150 $,M
ALO,2022-01-16 10:54,12.90,8.10,80.74,170.00,5.00,0.00,30.05,1019.40,10.00,M,OVC,M,M,M,1100.00,M,M,M,M,M,M,M,M,M,M,3.71,KALO 161054Z 17005KT 10SM OVC011 M11/M13 A3005 RMK AO2 SLP194 T11061133 $,M
ALO,2022-01-16 11:54,14.00,10.00,83.77,160.00,8.00,0.00,29.99,1017.60,10.00,M,OVC,M,M,M,1000.00,M,M,M,M,M,M,M,M,M,M,1.94,KALO 161154Z 16008KT 10SM OVC010 M10/M12 A2999 RMK AO2 SLP176 T11001122 11100 21222 58048 $,M
ALO,2022-01-16 12:12,15.10,10.00,79.84,170.00,8.00,0.00,29.99,M,9.00,M,OVC,M,M,M,900.00,M,M,M,M,M,M,M,M,M,M,3.30,KALO 161212Z 17008KT 9SM OVC009 M09/M12 A2999 RMK AO2 T10941122 $,M
ALO,2022-01-16 12:54,16.00,10.90,79.92,190.00,6.00,0.00,29.97,1016.90,9.00,M,OVC,M,M,M,800.00,M,M,M,M,M,M,M,M,M,M,6.26,KALO 161254Z 19006KT 9SM OVC008 M09/M12 A2997 RMK AO2 SLP169 T10891117 $,M
ALO,2022-01-16 13:54,16.00,12.00,83.91,190.00,6.00,0.00,29.95,1016.00,8.00,M,OVC,M,M,M,700.00,M,M,M,M,M,M,M,M,M,M,6.26,KALO 161354Z 19006KT 8SM OVC007 M09/M11 A2995 RMK AO2 SLP160 T10891111 $,M
ALO,2022-01-16 14:54,17.10,12.90,83.25,180.00,9.00,0.00,29.91,1015.00,7.00,M,OVC,M,M,M,700.00,M,M,M,M,M,M,M,M,M,M,4.99,KALO 161454Z 18009KT 7SM OVC007 M08/M11 A2991 RMK AO2 CIG 006V010 SLP150 T10831106 58026 $,M
ALO,2022-01-16 15:54,18.00,14.00,84.05,180.00,8.00,0.00,29.90,1014.60,7.00,M,OVC,M,M,M,700.00,M,M,M,M,M,M,M,M,M,M,6.87,KALO 161554Z 18008KT 7SM OVC007 M08/M10 A2990 RMK AO2 SLP146 T10781100 $,M
ALO,2022-01-16 16:30,19.00,14.00,80.52,180.00,9.00,0.00,29.88,M,6.00,M,SCT,BKN,OVC,M,800.00,7000.00,8500.00,M,HZ,M,M,M,M,M,M,7.35,KALO 161630Z 18009KT 6SM HZ SCT008 BKN070 OVC085 M07/M10 A2988 RMK AO2 T10721100 $,M
ALO,2022-01-16 16:54,19.00,14.00,80.52,190.00,7.00,0.00,29.87,1013.60,9.00,M,FEW,BKN,OVC,M,900.00,6500.00,8000.00,M,M,M,M,M,M,M,M,8.93,KALO 161654Z 19007KT 9SM FEW009 BKN065 OVC080 M07/M10 A2987 RMK AO2 SLP136 T10721100 $,M
ALO,2022-01-16 17:54,19.90,15.10,81.30,220.00,8.00,0.00,29.84,1012.40,10.00,M,FEW,FEW,M,M,1300.00,7500.00,M,M,M,M,M,M,M,M,M,9.21,KALO 161754Z 22008KT 10SM FEW013 FEW075 M07/M09 A2984 RMK AO2 SLP124 T10671094 11067 21100 58025 $,M
ALO,2022-01-16 18:24,19.90,14.00,77.48,240.00,11.00,0.00,29.83,M,10.00,M,BKN,M,M,M,1300.00,M,M,M,M,M,M,M,M,M,M,7.18,KALO 161824Z 24011KT 10SM BKN013 M07/M10 A2983 RMK AO2 T10671100 $,M
ALO,2022-01-16 18:54,19.90,15.10,81.30,240.00,10.00,0.00,29.80,1011.30,10.00,M,OVC,M,M,M,1300.00,M,M,M,M,M,M,M,M,M,M,7.79,KALO 161854Z 24010KT 10SM OVC013 M07/M09 A2980 RMK AO2 SLP113 T10671094 $,M
ALO,2022-01-16 19:54,19.90,14.00,77.48,250.00,9.00,0.00,29.79,1010.50,10.00,M,OVC,M,M,M,1300.00,M,M,M,M,M,M,M,M,M,M,8.47,KALO 161954Z 25009KT 10SM OVC013 M07/M10 A2979 RMK AO2 SLP105 T10671100 $,M
ALO,2022-01-16 20:41,21.90,15.10,74.69,270.00,6.00,0.00,29.79,M,10.00,M,SCT,M,M,M,1500.00,M,M,M,M,M,M,M,M,M,M,13.37,KALO 162041Z 27006KT 10SM SCT015 M06/M09 A2979 RMK AO2 T10561094 $,M
ALO,2022-01-16 20:54,21.90,15.10,74.69,300.00,8.00,0.00,29.79,1010.40,10.00,M,FEW,M,M,M,1500.00,M,M,M,M,M,M,M,M,M,M,11.67,KALO 162054Z 30008KT 10SM FEW015 M06/M09 A2979 RMK AO2 SLP104 T10561094 55016 $,M
ALO,2022-01-16 21:42,21.90,15.10,74.69,270.00,4.00,0.00,29.79,M,10.00,M,BKN,BKN,M,M,2500.00,7000.00,M,M,M,M,M,M,M,M,M,15.63,KALO 162142Z 27004KT 10SM BKN025 BKN070 M06/M09 A2979 RMK AO2 T10561094 $,M
ALO,2022-01-16 21:54,21.90,15.10,74.69,280.00,8.00,0.00,29.79,1010.40,10.00,M,BKN,OVC,M,M,2400.00,6000.00,M,M,M,M,M,M,M,M,M,11.67,KALO 162154Z 28008KT 10SM BKN024 OVC060 M06/M09 A2979 RMK AO2 SLP104 T10561094 $,M
ALO,2022-01-16 22:54,21.90,15.10,74.69,290.00,6.00,0.00,29.80,1010.80,10.00,M,OVC,M,M,M,2000.00,M,M,M,M,M,M,M,M,M,M,13.37,KALO 162254Z 29006KT 10SM OVC020 M06/M09 A2980 RMK AO2 SLP108 T10561094 $,M
ALO,2022-01-16 23:54,21.90,16.00,77.67,280.00,4.00,0.00,29.81,1011.20,10.00,M,OVC,M,M,M,1400.00,M,M,M,M,M,M,M,M,M,M,15.63,KALO 162354Z 28004KT 10SM OVC014 M06/M09 A2981 RMK AO2 SLP112 T10561089 11056 21067 53008 $,M
ALO,2022-01-17 00:32,23.00,16.00,74.15,280.00,3.00,0.00,29.80,M,10.00,M,OVC,M,M,M,1500.00,M,M,M,M,M,M,M,M,M,M,18.40,KALO 170032Z 28003KT 10SM OVC015 M05/M09 A2980 RMK AO2 T10501089 $,M
ALO,2022-01-17 00:54,23.00,16.00,74.15,290.00,3.00,0.00,29.80,1010.70,10.00,M,OVC,M,M,M,1600.00,M,M,M,M,M,M,M,M,M,M,18.40,KALO 170054Z 29003KT 10SM OVC016 M05/M09 A2980 RMK AO2 SLP107 T10501089 $,M
ALO,2022-01-17 01:54,24.10,17.10,74.27,290.00,5.00,0.00,29.82,1011.20,10.00,M,OVC,M,M,M,1700.00,M,M,M,M,M,M,M,M,M,M,17.01,KALO 170154Z 29005KT 10SM OVC017 M04/M08 A2982 RMK AO2 SLP112 T10441083 $,M
ALO,2022-01-17 02:54,25.00,19.90,80.66,320.00,7.00,0.00,29.84,1011.80,10.00,M,OVC,M,M,M,2000.00,M,M,M,M,M,M,M,M,M,M,16.25,KALO 170254Z AUTO 32007KT 10SM OVC020 M04/M07 A2984 RMK AO2 SLP118 T10391067 53008 $,M
ALO,2022-01-17 03:54,30.00,23.00,74.87,340.00,16.00,0.00,29.84,1011.60,10.00,M,OVC,M,M,M,2000.00,M,M,M,M,M,M,M,M,M,M,17.81,KALO 170354Z AUTO 34016KT 10SM OVC020 M01/M05 A2984 RMK AO2 SLP116 T10111050 $,M
ALO,2022-01-17 04:54,28.90,23.00,78.30,340.00,11.00,0.00,29.84,1011.70,10.00,M,OVC,M,M,M,2500.00,M,M,M,M,M,M,M,M,M,M,18.55,KALO 170454Z AUTO 34011KT 10SM OVC025 M02/M05 A2984 RMK AO2 SLP117 T10171050 $,M
ALO,2022-01-17 05:54,28.90,21.90,74.76,330.00,11.00,0.00,29.85,1012.00,10.00,M,OVC,M,M,M,2100.00,M,M,M,M,M,M,M,M,M,M,18.55,KALO 170554Z AUTO 33011KT 10SM OVC021 M02/M06 A2985 RMK AO2 SLP120 T10171056 11011 21056 410111222 53004 $,M
ALO,2022-01-17 06:54,28.90,23.00,78.30,320.00,9.00,0.00,29.85,1011.90,10.00,M,OVC,M,M,M,2000.00,M,M,M,M,M,M,M,M,M,M,19.66,KALO 170654Z AUTO 32009KT 10SM OVC020 M02/M05 A2985 RMK AO2 SLP119 T10171050 $,M
ALO,2022-01-17 07:19,28.90,23.00,78.30,310.00,10.00,0.00,29.85,M,10.00,M,BKN,OVC,M,M,1200.00,1800.00,M,M,M,M,M,M,M,M,M,19.08,KALO 170719Z AUTO 31010KT 10SM BKN012 OVC018 M02/M05 A2985 RMK AO2 T10171050 $,M
ALO,2022-01-17 07:54,28.00,23.00,81.25,320.00,15.00,0.00,29.85,1012.20,10.00,M,BKN,OVC,M,M,1100.00,1800.00,M,M,M,M,M,M,M,M,M,15.59,KALO 170754Z AUTO 32015KT 10SM BKN011 OVC018 M02/M05 A2985 RMK AO2 SLP122 T10221050 $,M
ALO,2022-01-17 08:54,27.00,21.90,80.83,320.00,13.00,0.00,29.87,1012.50,10.00,M,OVC,M,M,M,1300.00,M,M,M,M,M,M,M,M,M,M,15.16,KALO 170854Z AUTO 32013KT 10SM OVC013 M03/M06 A2987 RMK AO2 SLP125 T10281056 53005 $,M
ALO,2022-01-17 09:54,27.00,21.00,77.80,310.00,12.00,0.00,29.87,1012.50,10.00,18.00,OVC,M,M,M,1200.00,M,M,M,M,M,M,M,M,M,M,15.64,KALO 170954Z AUTO 31012G18KT 10SM OVC012 M03/M06 A2987 RMK AO2 SLP125 T10281061 $,M
ALO,2022-01-17 10:54,25.00,19.90,80.66,320.00,13.00,0.00,29.87,1012.90,10.00,19.00,BKN,OVC,M,M,1400.00,2700.00,M,M,M,M,M,M,M,M,M,12.60,KALO 171054Z AUTO 32013G19KT 10SM BKN014 OVC027 M04/M07 A2987 RMK AO2 SLP129 T10391067 $,M
ALO,2022-01-17 11:11,25.00,19.00,77.62,310.00,8.00,0.00,29.88,M,10.00,M,SCT,OVC,M,M,1500.00,2700.00,M,M,M,M,M,M,M,M,M,15.49,KALO 171111Z AUTO 31008KT 10SM SCT015 OVC027 M04/M07 A2988 RMK AO2 T10391072 $,M
ALO,2022-01-17 11:26,24.10,19.00,80.59,300.00,12.00,0.00,29.88,M,10.00,M,BKN,OVC,M,M,1300.00,2700.00,M,M,M,M,M,M,M,M,M,11.95,KALO 171126Z AUTO 30012KT 10SM BKN013 OVC027 M04/M07 A2988 RMK AO2 T10441072 $,M
ALO,2022-01-17 11:47,24.10,18.00,77.21,300.00,12.00,0.00,29.89,M,10.00,M,SCT,OVC,M,M,1400.00,2500.00,M,M,M,M,M,M,M,M,M,11.95,KALO 171147Z AUTO 30012KT 10SM SCT014 OVC025 M04/M08 A2989 RMK AO2 T10441078 $,M
ALO,2022-01-17 11:54,24.10,18.00,77.21,300.00,9.00,0.00,29.89,1013.40,10.00,M,FEW,OVC,M,M,1400.00,2500.00,M,M,M,M,M,M,M,M,M,13.69,KALO 171154Z AUTO 30009KT 10SM FEW014 OVC025 M04/M08 A2989 RMK AO2 SLP134 T10441078 11017 21044 53007 $,M
ALO,2022-01-17 12:54,23.00,17.10,77.77,300.00,11.00,0.00,29.90,1013.70,10.00,M,OVC,M,M,M,2500.00,M,M,M,M,M,M,M,M,M,M,11.09,KALO 171254Z 30011KT 10SM OVC025 M05/M08 A2990 RMK AO2 SLP137 T10501083 $,M
ALO,2022-01-17 13:54,21.90,17.10,81.46,310.00,10.00,0.00,29.91,1014.10,10.00,M,OVC,M,M,M,2300.00,M,M,M,M,M,M,M,M,M,M,10.30,KALO 171354Z 31010KT 10SM OVC023 M06/M08 A2991 RMK AO2 SLP141 T10561083 $,M
ALO,2022-01-17 14:54,21.90,16.00,77.67,300.00,12.00,0.00,29.92,1014.30,10.00,M,OVC,M,M,M,2100.00,M,M,M,M,M,M,M,M,M,M,9.15,KALO 171454Z 30012KT 10SM OVC021 M06/M09 A2992 RMK AO2 SLP143 T10561089 52009 $,M
ALO,2022-01-17 15:47,19.90,15.10,81.30,300.00,10.00,0.00,29.93,M,10.00,M,SCT,M,M,M,1900.00,M,M,M,M,M,M,M,M,M,M,7.79,KALO 171547Z 30010KT 10SM SCT019 M07/M09 A2993 RMK AO2 T10671094 $,M
ALO,2022-01-17 15:54,19.90,15.10,81.30,300.00,9.00,0.00,29.93,1014.80,10.00,M,FEW,M,M,M,1900.00,M,M,M,M,M,M,M,M,M,M,8.47,KALO 171554Z 30009KT 10SM FEW019 M07/M09 A2993 RMK AO2 SLP148 T10671094 $,M
ALO,2022-01-17 16:54,21.00,15.10,77.59,300.00,9.00,0.00,29.93,1014.80,10.00,M,FEW,M,M,M,12000.00,M,M,M,M,M,M,M,M,M,M,9.84,KALO 171654Z 30009KT 10SM FEW120 M06/M09 A2993 RMK AO2 SLP148 T10611094 $,M
ALO,2022-01-17 17:54,24.10,16.00,70.81,300.00,7.00,0.00,29.93,1014.70,10.00,M,BKN,M,M,M,12000.00,M,M,M,M,M,M,M,M,M,M,15.15,KALO 171754Z 30007KT 10SM BKN120 M04/M09 A2993 RMK AO2 SLP147 T10441089 11039 21067 50004 $,M
ALO,2022-01-17 18:13,25.00,17.10,71.53,300.00,9.00,0.00,29.93,M,10.00,M,BKN,OVC,M,M,1900.00,12000.00,M,M,M,M,M,M,M,M,M,14.81,KALO 171813Z 30009KT 10SM BKN019 OVC120 M04/M08 A2993 RMK AO2 T10391083 $,M
ALO,2022-01-17 18:54,25.00,17.10,71.53,300.00,6.00,0.00,29.94,1014.90,10.00,M,OVC,M,M,M,2100.00,M,M,M,M,M,M,M,M,M,M,17.10,KALO 171854Z 30006KT 10SM OVC021 M04/M08 A2994 RMK AO2 SLP149 T10391083 $,M
ALO,2022-01-17 19:54,26.10,17.10,68.34,290.00,6.00,0.00,29.91,1014.00,10.00,M,OVC,M,M,M,2200.00,M,M,M,M,M,M,M,M,M,M,18.42,KALO 171954Z 29006KT 10SM OVC022 M03/M08 A2991 RMK AO2 SLP140 T10331083 $,M
ALO,2022-01-17 20:54,28.00,19.00,68.57,0.00,0.00,0.00,29.91,1013.80,10.00,M,OVC,M,M,M,2200.00,M,M,M,M,M,M,M,M,M,M,28.00,KALO 172054Z 00000KT 10SM OVC022 M02/M07 A2991 RMK AO2 SLP138 T10221072 58008 $,M
ALO,2022-01-17 21:54,27.00,19.00,71.45,190.00,4.00,0.00,29.90,1013.70,10.00,M,OVC,M,M,M,2100.00,M,M,M,M,M,M,M,M,M,M,21.58,KALO 172154Z 19004KT 10SM OVC021 M03/M07 A2990 RMK AO2 SLP137 T10281072 $,M
ALO,2022-01-17 22:38,27.00,19.00,71.45,0.00,0.00,0.00,29.90,M,10.00,M,SCT,M,M,M,1900.00,M,M,M,M,M,M,M,M,M,M,27.00,KALO 172238Z 00000KT 10SM SCT019 M03/M07 A2990 RMK AO2 T10281072 $,M
ALO,2022-01-17 22:54,25.00,18.00,74.36,180.00,5.00,0.00,29.91,1013.80,10.00,M,CLR,M,M,M,M,M,M,M,M,M,M,M,M,M,M,18.08,KALO 172254Z 18005KT 10SM CLR M04/M08 A2991 RMK AO2 SLP138 T10391078 $,M
ALO,2022-01-17 23:54,24.10,18.00,77.21,170.00,3.00,0.00,29.92,1014.30,10.00,M,CLR,M,M,M,M,M,M,M,M,M,M,M,M,M,M,19.66,KALO 172354Z 17003KT 10SM CLR M04/M08 A2992 RMK AO2 SLP143 T10441078 11017 21050 53003 $,M
ALO,2022-01-18 00:54,19.00,14.00,80.52,170.00,4.00,0.00,29.91,1014.40,10.00,M,CLR,M,M,M,M,M,M,M,M,M,M,M,M,M,M,12.24,KALO 180054Z 17004KT 10SM CLR M07/M10 A2991 RMK AO2 SLP144 T10721100 $,M
ALO,2022-01-18 01:54,23.00,18.00,80.85,200.00,7.00,0.00,29.92,1014.50,10.00,M,CLR,M,M,M,M,M,M,M,M,M,M,M,M,M,M,13.81,KALO 180154Z 20007KT 10SM CLR M05/M08 A2992 RMK AO2 SLP145 T10501078 $,M
ALO,2022-01-18 02:54,23.00,18.00,80.85,190.00,6.00,0.00,29.92,1014.50,10.00,M,BKN,M,M,M,9500.00,M,M,M,M,M,M,M,M,M,M,14.69,KALO 180254Z AUTO 19006KT 10SM BKN095 M05/M08 A2992 RMK AO2 SLP145 T10501078 53002 $,M
ALO,2022-01-18 03:54,27.00,21.00,77.80,170.00,7.00,0.00,29.92,1014.30,10.00,M,OVC,M,M,M,9000.00,M,M,M,M,M,M,M,M,M,M,18.68,KALO 180354Z AUTO 17007KT 10SM OVC090 M03/M06 A2992 RMK AO2 SLP143 T10281061 $,M
ALO,2022-01-18 04:54,27.00,21.00,77.80,170.00,6.00,0.00,29.90,1013.80,10.00,M,OVC,M,M,M,9000.00,M,M,M,M,M,M,M,M,M,M,19.51,KALO 180454Z AUTO 17006KT 10SM OVC090 M03/M06 A2990 RMK AO2 SLP138 T10281061 $,M
ALO,2022-01-18 05:54,28.00,21.90,77.57,170.00,6.00,0.00,29.87,1012.70,10.00,M,OVC,M,M,M,9000.00,M,M,M,M,M,M,M,M,M,M,20.71,KALO 180554Z AUTO 17006KT 10SM OVC090 M02/M06 A2987 RMK AO2 SLP127 T10221056 11022 21078 410171078 58017 $,M
ALO,2022-01-18 06:54,28.00,23.00,81.25,170.00,8.00,0.00,29.85,1012.00,10.00,M,OVC,M,M,M,9500.00,M,M,M,M,M,M,M,M,M,M,19.19,KALO 180654Z AUTO 17008KT 10SM OVC095 M02/M05 A2985 RMK AO2 SLP120 T10221050 $,M
ALO,2022-01-18 07:54,28.90,23.00,78.30,170.00,11.00,0.00,29.83,1011.30,10.00,M,OVC,M,M,M,9500.00,M,M,M,M,M,M,M,M,M,M,18.55,KALO 180754Z AUTO 17011KT 10SM OVC095 M02/M05 A2983 RMK AO2 SLP113 T10171050 $,M
ALO,2022-01-18 08:54,28.90,23.00,78.30,160.00,11.00,0.00,29.81,1010.60,10.00,M,FEW,M,M,M,9500.00,M,M,M,M,M,M,M,M,M,M,18.55,KALO 180854Z AUTO 16011KT 10SM FEW095 M02/M05 A2981 RMK AO2 SLP106 T10171050 58019 $,M
ALO,2022-01-18 09:54,28.00,23.00,81.25,160.00,9.00,0.00,29.79,1009.70,10.00,M,CLR,M,M,M,M,M,M,M,M,M,M,M,M,M,M,18.54,KALO 180954Z AUTO 16009KT 10SM CLR M02/M05 A2979 RMK AO2 SLP097 T10221050 $,M
ALO,2022-01-18 10:54,28.00,23.00,81.25,160.00,10.00,0.00,29.77,1009.30,10.00,M,CLR,M,M,M,M,M,M,M,M,M,M,M,M,M,M,17.95,KALO 181054Z AUTO 16010KT 10SM CLR M02/M05 A2977 RMK AO2 SLP093 T10221050 $,M
ALO,2022-01-18 11:54,27.00,21.90,80.83,160.00,9.00,0.00,29.76,1009.00,10.00,M,FEW,M,M,M,11000.00,M,M,M,M,M,M,M,M,M,M,17.30,KALO 181154Z 16009KT 10SM FEW110 M03/M06 A2976 RMK AO2 SLP090 T10281056 11017 21028 56016 $,M
ALO,2022-01-18 12:54,26.10,21.00,80.75,150.00,10.00,0.00,29.74,1008.40,10.00,M,SCT,M,M,M,11000.00,M,M,M,M,M,M,M,M,M,M,15.57,KALO 181254Z 15010KT 10SM SCT110 M03/M06 A2974 RMK AO2 SLP084 T10331061 $,M
ALO,2022-01-18 13:54,26.10,21.00,80.75,160.00,11.00,0.00,29.73,1007.90,8.00,M,CLR,M,M,M,M,M,M,M,M,M,M,M,M,M,M,15.01,KALO 181354Z 16011KT 8SM CLR M03/M06 A2973 RMK AO2 SLP079 T10331061,M
ALO,2022-01-18 14:54,27.00,21.90,80.83,160.00,8.00,0.00,29.73,1007.80,8.00,M,CLR,M,M,M,M,M,M,M,M,M,M,M,M,M,M,17.95,KALO 181454Z 16008KT 8SM CLR M03/M06 A2973 RMK AO2 SLP078 T10281056 56012,M
ALO,2022-01-18 15:54,28.90,24.10,82.00,170.00,12.00,0.00,29.71,1007.10,10.00,M,CLR,M,M,M,M,M,M,M,M,M,M,M,M,M,M,18.06,KALO 181554Z 17012KT 10SM CLR M02/M04 A2971 RMK AO2 SLP071 T10171044,M
ALO,2022-01-18 16:54,30.90,26.10,82.15,170.00,9.00,0.00,29.69,1006.50,10.00,M,CLR,M,M,M,M,M,M,M,M,M,M,M,M,M,M,22.15,KALO 181654Z 17009KT 10SM CLR M01/M03 A2969 RMK AO2 SLP065 T10061033,M
ALO,2022-01-18 17:54,33.10,27.00,78.03,180.00,12.00,0.00,29.65,1005.00,10.00,M,CLR,M,M,M,M,M,M,M,M,M,M,M,M,M,M,23.40,KALO 181754Z 18012KT 10SM CLR 01/M03 A2965 RMK AO2 SLP050 T00061028 10006 21039 58026,M
ALO,2022-01-18 18:54,35.10,28.00,75.06,170.00,12.00,0.00,29.61,1003.70,10.00,M,CLR,M,M,M,M,M,M,M,M,M,M,M,M,M,M,25.95,KALO 181854Z 17012KT 10SM CLR 02/M02 A2961 RMK AO2 SLP037 T00171022,M
ALO,2022-01-18 19:54,37.00,28.90,72.24,180.00,14.00,0.00,29.57,1002.20,10.00,M,CLR,M,M,M,M,M,M,M,M,M,M,M,M,M,M,27.61,KALO 181954Z 18014KT 10SM CLR 03/M02 A2957 RMK AO2 SLP022 T00281017,M
ALO,2022-01-18 20:54,36.00,28.90,75.15,180.00,13.00,0.00,29.57,1002.30,10.00,M,CLR,M,M,M,M,M,M,M,M,M,M,M,M,M,M,26.69,KALO 182054Z 18013KT 10SM CLR 02/M02 A2957 RMK AO2 SLP023 T00221017 55025,M
ALO,2022-01-18 21:54,37.90,30.00,72.93,210.00,9.00,0.00,29.60,1003.20,10.00,M,CLR,M,M,M,M,M,M,M,M,M,M,M,M,M,M,30.85,KALO 182154Z 21009KT 10SM CLR 03/M01 A2960 RMK AO2 SLP032 T00331011,M
ALO,2022-01-18 22:54,37.00,30.00,75.56,230.00,9.00,0.00,29.62,1003.90,10.00,M,CLR,M,M,M,M,M,M,M,M,M,M,M,M,M,M,29.73,KALO 182254Z 23009KT 10SM CLR 03/M01 A2962 RMK AO2 SLP039 T00281011,M
ALO,2022-01-18 23:54,37.90,30.00,72.93,260.00,9.00,0.00,29.65,1004.90,10.00,M,CLR,M,M,M,M,M,M,M,M,M,M,M,M,M,M,30.85,KALO 182354Z 26009KT 10SM CLR 03/M01 A2965 RMK AO2 SLP049 T00331011 10033 20006 53026,M
ALO,2022-01-19 00:54,39.00,30.90,72.45,310.00,20.00,0.00,29.69,1006.10,10.00,34.00,BKN,M,M,M,2100.00,M,M,M,M,M,M,M,34.00,310.00,2022-01-19 00:50,28.44,KALO 190054Z 31020G34KT 10SM BKN021 04/M01 A2969 RMK AO2 PK WND 31034/0050 SLP061 T00391006,M
ALO,2022-01-19 01:54,36.00,30.00,78.60,310.00,14.00,0.00,29.72,1007.40,10.00,26.00,OVC,M,M,M,1400.00,M,M,M,M,M,M,M,34.00,300.00,2022-01-19 01:06,26.32,KALO 190154Z 31014G26KT 10SM OVC014 02/M01 A2972 RMK AO2 PK WND 30034/0106 SLP074 T00221011,M
ALO,2022-01-19 02:27,36.00,28.90,75.15,310.00,19.00,0.00,29.75,M,10.00,29.00,OVC,M,M,M,1500.00,M,M,M,M,M,M,M,29.00,300.00,2022-01-19 02:22,24.73,KALO 190227Z AUTO 31019G29KT 10SM OVC015 02/M02 A2975 RMK AO2 PK WND 30029/0222 T00221017,M
ALO,2022-01-19 02:54,33.10,26.10,75.18,300.00,22.00,0.00,29.77,1009.10,10.00,32.00,OVC,M,M,M,1700.00,M,M,M,M,M,M,M,33.00,300.00,2022-01-19 02:33,20.05,KALO 190254Z AUTO 30022G32KT 10SM OVC017 01/M03 A2977 RMK AO2 PK WND 30033/0233 SLP091 T00061033 53040,M
ALO,2022-01-19 03:54,28.90,23.00,78.30,300.00,23.00,0.00,29.82,1010.70,10.00,34.00,OVC,M,M,M,1500.00,M,M,M,M,M,M,M,34.00,310.00,2022-01-19 03:45,14.15,KALO 190354Z AUTO 30023G34KT 10SM OVC015 M02/M05 A2982 RMK AO2 PK WND 31034/0345 PRESRR SLP107 T10171050,M
ALO,2022-01-19 04:54,21.90,14.00,71.18,300.00,19.00,0.00,29.86,1012.40,10.00,32.00,SCT,M,M,M,1500.00,M,M,M,M,M,M,M,35.00,310.00,2022-01-19 04:12,6.08,KALO 190454Z AUTO 30019G32KT 10SM SCT015 M06/M10 A2986 RMK AO2 PK WND 31035/0412 SLP124 T10561100,M
ALO,2022-01-19 05:54,18.00,9.00,67.33,300.00,19.00,0.00,29.91,1013.90,10.00,29.00,CLR,M,M,M,M,M,M,M,M,M,M,M,31.00,300.00,2022-01-19 05:43,0.92,KALO 190554Z AUTO 30019G29KT 10SM CLR M08/M13 A2991 RMK AO2 PK WND 30031/0543 SLP139 T10781128 10044 21078 400441078 53030,M
ALO,2022-01-19 06:54,15.10,6.10,66.96,300.00,18.00,0.00,29.96,1015.80,10.00,27.00,CLR,M,M,M,M,M,M,M,M,M,M,M,32.00,320.00,2022-01-19 06:30,-2.50,KALO 190654Z AUTO 30018G27KT 10SM CLR M09/M14 A2996 RMK AO2 PK WND 32032/0630 SLP158 T10941144,M
ALO,2022-01-19 07:54,12.00,3.90,69.38,310.00,18.00,0.00,29.99,1016.60,10.00,29.00,CLR,M,M,M,M,M,M,M,M,M,M,M,29.00,300.00,2022-01-19 07:48,-6.58,KALO 190754Z AUTO 31018G29KT 10SM CLR M11/M16 A2999 RMK AO2 PK WND 30029/0748 SLP166 T11111156,M
ALO,2022-01-19 08:54,10.00,1.90,69.13,300.00,13.00,0.00,30.04,1018.60,10.00,21.00,CLR,M,M,M,M,M,M,M,M,M,M,M,29.00,310.00,2022-01-19 07:58,-6.62,KALO 190854Z AUTO 30013G21KT 10SM CLR M12/M17 A3004 RMK AO2 PK WND 31029/0758 SLP186 T11221167 52044,M
ALO,2022-01-19 09:54,8.10,0.00,68.90,310.00,13.00,0.00,30.07,1019.70,10.00,27.00,CLR,M,M,M,M,M,M,M,M,M,M,M,30.00,310.00,2022-01-19 09:38,-9.05,KALO 190954Z AUTO 31013G27KT 10SM CLR M13/M18 A3007 RMK AO2 PK WND 31030/0938 SLP197 T11331178,M
ALO,2022-01-19 10:54,6.10,-2.00,68.64,310.00,15.00,0.00,30.09,1020.50,10.00,30.00,CLR,M,M,M,M,M,M,M,M,M,M,M,30.00,320.00,2022-01-19 10:45,-12.80,KALO 191054Z AUTO 31015G30KT 10SM CLR M14/M19 A3009 RMK AO2 PK WND 32030/1045 SLP205 T11441189,M
ALO,2022-01-19 11:54,6.10,-2.00,68.64,320.00,20.00,0.00,30.13,1021.70,10.00,29.00,CLR,M,M,M,M,M,M,M,M,M,M,M,29.00,310.00,2022-01-19 11:49,-15.26,KALO 191154Z 32020G29KT 10SM CLR M14/M19 A3013 RMK AO2 PK WND 31029/1149 SLP217 T11441189 11078 21144 53029,M
ALO,2022-01-19 12:54,5.00,-2.90,69.16,310.00,15.00,0.00,30.16,1022.90,10.00,25.00,CLR,M,M,M,M,M,M,M,M,M,M,M,29.00,320.00,2022-01-19 12:10,-14.22,KALO 191254Z 31015G25KT 10SM CLR M15/M19 A3016 RMK AO2 PK WND 32029/1210 SLP229 T11501194,M
ALO,2022-01-19 13:54,3.90,-4.00,69.02,310.00,15.00,0.00,30.21,1024.60,10.00,24.00,CLR,M,M,M,M,M,M,M,M,M,M,M,26.00,300.00,2022-01-19 13:33,-15.65,KALO 191354Z 31015G24KT 10SM CLR M16/M20 A3021 RMK AO2 PK WND 30026/1333 SLP246 T11561200,M
ALO,2022-01-19 14:54,3.90,-4.00,69.02,320.00,15.00,0.00,30.24,1025.60,10.00,M,CLR,M,M,M,M,M,M,M,M,M,M,M,27.00,310.00,2022-01-19 13:59,-15.65,KALO 191454Z 32015KT 10SM CLR M16/M20 A3024 RMK AO2 PK WND 31027/1359 SLP256 T11561200 51036,M
ALO,2022-01-19 15:54,5.00,-5.10,62.25,330.00,19.00,0.00,30.27,1026.70,10.00,34.00,CLR,M,M,M,M,M,M,M,M,M,M,M,34.00,330.00,2022-01-19 15:45,-16.27,KALO 191554Z 33019G34KT 10SM CLR M15/M21 A3027 RMK AO2 PK WND 33034/1545 SLP267 T11501206,M
ALO,2022-01-19 16:54,5.00,-5.10,62.25,330.00,22.00,0.00,30.30,1027.90,10.00,30.00,CLR,M,M,M,M,M,M,M,M,M,M,M,34.00,330.00,2022-01-19 15:58,-17.58,KALO 191654Z 33022G30KT 10SM CLR M15/M21 A3030 RMK AO2 PK WND 33034/1558 SLP279 T11501206,M
ALO,2022-01-19 17:54,6.10,-5.10,59.20,330.00,26.00,0.00,30.31,1028.30,10.00,34.00,CLR,M,M,M,M,M,M,M,M,M,M,M,34.00,330.00,2022-01-19 17:43,-17.61,KALO 191754Z 33026G34KT 10SM CLR M14/M21 A3031 RMK AO2 PK WND 33034/1743 SLP283 T11441206 11144 21156 51024,M
ALO,2022-01-19 18:54,7.00,-4.00,59.91,330.00,21.00,0.00,30.33,1029.00,10.00,27.00,CLR,M,M,M,M,M,M,M,M,M,M,M,33.00,320.00,2022-01-19 18:02,-14.49,KALO 191854Z 33021G27KT 10SM CLR M14/M20 A3033 RMK AO2 PK WND 32033/1802 SLP290 T11391200,M
ALO,2022-01-19 19:54,6.10,-4.00,62.41,330.00,22.00,0.00,30.34,1029.60,10.00,29.00,CLR,M,M,M,M,M,M,M,M,M,M,M,30.00,320.00,2022-01-19 19:06,-16.10,KALO 191954Z 33022G29KT 10SM CLR M14/M20 A3034 RMK AO2 PK WND 32030/1906 SLP296 T11441200,M
ALO,2022-01-19 20:54,6.10,-4.00,62.41,320.00,21.00,0.00,30.37,1030.50,10.00,29.00,CLR,M,M,M,M,M,M,M,M,M,M,M,32.00,330.00,2022-01-19 20:28,-15.69,KALO 192054Z 32021G29KT 10SM CLR M14/M20 A3037 RMK AO2 PK WND 33032/2028 SLP305 T11441200 53019,M
ALO,2022-01-19 21:54,6.10,-4.00,62.41,320.00,20.00,0.00,30.39,1031.10,10.00,29.00,CLR,M,M,M,M,M,M,M,M,M,M,M,31.00,320.00,2022-01-19 21:03,-15.26,KALO 192154Z 32020G29KT 10SM CLR M14/M20 A3039 RMK AO2 PK WND 32031/2103 SLP311 T11441200,M
ALO,2022-01-19 22:54,5.00,-5.10,62.25,320.00,18.00,0.00,30.41,1032.00,10.00,26.00,CLR,M,M,M,M,M,M,M,M,M,M,M,28.00,320.00,2022-01-19 21:58,-15.79,KALO 192254Z 32018G26KT 10SM CLR M15/M21 A3041 RMK AO2 PK WND 32028/2158 SLP320 T11501206,M
ALO,2022-01-19 23:54,3.90,-5.10,65.47,330.00,17.00,0.00,30.44,1033.00,10.00,M,CLR,M,M,M,M,M,M,M,M,M,M,M,28.00,320.00,2022-01-19 23:12,-16.74,KALO 192354Z 33017KT 10SM CLR M16/M21 A3044 RMK AO2 PK WND 32028/2312 SLP330 T11561206 11139 21156 53023,M
ALO,2022-01-20 00:54,3.90,-5.10,65.47,320.00,16.00,0.00,30.47,1034.00,10.00,23.00,CLR,M,M,M,M,M,M,M,M,M,M,M,M,M,M,-16.21,KALO 200054Z 32016G23KT 10SM CLR M16/M21 A3047 RMK AO2 SLP340 T11561206,M
ALO,2022-01-20 01:54,3.00,-5.10,68.25,320.00,14.00,0.00,30.49,1035.00,10.00,M,CLR,M,M,M,M,M,M,M,M,M,M,M,M,M,M,-16.22,KALO 200154Z 32014KT 10SM CLR M16/M21 A3049 RMK AO2 SLP350 T11611206,M
ALO,2022-01-20 02:54,1.90,-6.00,68.77,320.00,16.00,0.00,30.52,1035.70,10.00,M,CLR,M,M,M,M,M,M,M,M,M,M,M,M,M,M,-18.81,KALO 200254Z AUTO 32016KT 10SM CLR M17/M21 A3052 RMK AO2 SLP357 T11671211 51025,M
ALO,2022-01-20 03:54,1.00,-8.00,65.07,320.00,15.00,0.00,30.55,1036.70,10.00,M,CLR,M,M,M,M,M,M,M,M,M,M,M,M,M,M,-19.41,KALO 200354Z AUTO 32015KT 10SM CLR M17/M22 A3055 RMK AO2 SLP367 T11721222,M
ALO,2022-01-20 04:54,-0.90,-9.00,67.74,320.00,15.00,0.00,30.57,1037.50,10.00,M,CLR,M,M,M,M,M,M,M,M,M,M,M,M,M,M,-21.87,KALO 200454Z AUTO 32015KT 10SM CLR M18/M23 A3057 RMK AO2 SLP375 T11831228,M
ALO,2022-01-20 05:54,-2.00,-9.90,68.27,320.00,13.00,0.00,30.58,1038.00,10.00,M,CLR,M,M,M,M,M,M,M,M,M,M,M,M,M,M,-21.99,KALO 200554Z AUTO 32013KT 10SM CLR M19/M23 A3058 RMK AO2 SLP380 T11891233 11156 21189 410831189 51021,M
ALO,2022-01-20 06:54,-2.90,-11.00,67.48,310.00,11.00,0.00,30.59,1038.20,10.00,M,CLR,M,M,M,M,M,M,M,M,M,M,M,M,M,M,-21.64,KALO 200654Z AUTO 31011KT 10SM CLR M19/M24 A3059 RMK AO2 SLP382 T11941239,M
ALO,2022-01-20 07:54,-4.00,-11.90,68.00,310.00,11.00,0.00,30.60,1038.80,10.00,M,CLR,M,M,M,M,M,M,M,M,M,M,M,M,M,M,-23.03,KALO 200754Z AUTO 31011KT 10SM CLR M20/M24 A3060 RMK AO2 SLP388 T12001244,M
ALO,2022-01-20 08:54,-5.10,-13.00,67.86,320.00,8.00,0.00,30.62,1039.20,10.00,M,CLR,M,M,M,M,M,M,M,M,M,M,M,M,M,M,-21.59,KALO 200854Z AUTO 32008KT 10SM CLR M21/M25 A3062 RMK AO2 SLP392 T12061250 53011,M
ALO,2022-01-20 09:54,-7.10,-14.10,70.73,320.00,10.00,0.00,30.63,1039.60,10.00,M,CLR,M,M,M,M,M,M,M,M,M,M,M,M,M,M,-26.06,KALO 200954Z AUTO 32010KT 10SM CLR M22/M26 A3063 RMK AO2 SLP396 T12171256,M
ALO,2022-01-20 10:54,-7.10,-15.00,67.59,320.00,10.00,0.00,30.64,1040.10,10.00,M,CLR,M,M,M,M,M,M,M,M,M,M,M,M,M,M,-26.06,KALO 201054Z AUTO 32010KT 10SM CLR M22/M26 A3064 RMK AO2 SLP401 T12171261,M
ALO,2022-01-20 11:54,-8.00,-16.10,66.79,330.00,9.00,0.00,30.65,1040.40,10.00,M,CLR,M,M,M,M,M,M,M,M,M,M,M,M,M,M,-26.22,KALO 201154Z 33009KT 10SM CLR M22/M27 A3065 RMK AO2 SLP404 T12221267 11189 21222 51010,M
ALO,2022-01-20 12:54,-9.00,-16.10,70.14,320.00,8.00,0.00,30.66,1040.90,10.00,M,CLR,M,M,M,M,M,M,M,M,M,M,M,M,M,M,-26.39,KALO 201254Z 32008KT 10SM CLR M23/M27 A3066 RMK AO2 SLP409 T12281267,M
ALO,2022-01-20 13:54,-9.90,-17.00,70.02,310.00,7.00,0.00,30.68,1041.50,10.00,M,CLR,M,M,M,M,M,M,M,M,M,M,M,M,M,M,-26.29,KALO 201354Z 31007KT 10SM CLR M23/M27 A3068 RMK AO2 SLP415 T12331272,M
ALO,2022-01-20 14:54,-8.00,-16.10,66.79,320.00,9.00,0.00,30.68,1041.70,10.00,M,CLR,M,M,M,M,M,M,M,M,M,M,M,M,M,M,-26.22,KALO 201454Z 32009KT 10SM CLR M22/M27 A3068 RMK AO2 SLP417 T12221267 51012,M
ALO,2022-01-20 15:54,-6.00,-14.10,67.06,330.00,7.00,0.00,30.69,1042.00,10.00,M,CLR,M,M,M,M,M,M,M,M,M,M,M,M,M,M,-21.54,KALO 201554Z 33007KT 10SM CLR M21/M26 A3069 RMK AO2 SLP420 T12111256,M
ALO,2022-01-20 16:54,-4.00,-13.00,64.37,330.00,7.00,0.00,30.69,1042.10,10.00,M,CLR,M,M,M,M,M,M,M,M,M,M,M,M,M,M,-19.10,KALO 201654Z 33007KT 10SM CLR M20/M25 A3069 RMK AO2 SLP421 T12001250,M
ALO,2022-01-20 17:54,-2.00,-11.90,61.83,320.00,6.00,0.00,30.68,1041.50,10.00,M,CLR,M,M,M,M,M,M,M,M,M,M,M,M,M,M,-15.42,KALO 201754Z 32006KT 10SM CLR M19/M24 A3068 RMK AO2 SLP415 T11891244 11189 21233 58002,M
ALO,2022-01-20 18:54,0.00,-9.90,62.12,320.00,7.00,0.00,30.65,1040.60,10.00,M,CLR,M,M,M,M,M,M,M,M,M,M,M,M,M,M,-14.23,KALO 201854Z 32007KT 10SM CLR M18/M23 A3065 RMK AO2 SLP406 T11781233,M
ALO,2022-01-20 19:54,1.00,-9.00,61.96,300.00,7.00,0.00,30.64,1040.10,10.00,M,CLR,M,M,M,M,M,M,M,M,M,M,M,M,M,M,-13.01,KALO 201954Z 30007KT 10SM CLR M17/M23 A3064 RMK AO2 SLP401 T11721228,M
ALO,2022-01-20 20:54,1.90,-8.00,62.40,310.00,6.00,0.00,30.63,1039.60,10.00,M,CLR,M,M,M,M,M,M,M,M,M,M,M,M,M,M,-10.72,KALO 202054Z 31006KT 10SM CLR M17/M22 A3063 RMK AO2 SLP396 T11671222 56017,M
ALO,2022-01-20 21:54,1.00,-9.00,61.96,290.00,7.00,0.00,30.62,1039.70,10.00,M,CLR,M,M,M,M,M,M,M,M,M,M,M,M,M,M,-13.01,KALO 202154Z 29007KT 10SM CLR M17/M23 A3062 RMK AO2 SLP397 T11721228,M
ALO,2022-01-20 22:54,-0.90,-9.90,64.81,290.00,5.00,0.00,30.62,1039.70,10.00,M,CLR,M,M,M,M,M,M,M,M,M,M,M,M,M,M,-12.68,KALO 202254Z 29005KT 10SM CLR M18/M23 A3062 RMK AO2 SLP397 T11831233,M
ALO,2022-01-20 23:54,-2.90,-11.90,64.53,300.00,6.00,0.00,30.62,1039.60,10.00,M,CLR,M,M,M,M,M,M,M,M,M,M,M,M,M,M,-16.50,KALO 202354Z 30006KT 10SM CLR M19/M24 A3062 RMK AO2 SLP396 T11941244 11167 21200 58002,M
ALO,2022-01-21 00:54,-6.00,-13.00,70.87,290.00,4.00,0.00,30.61,1039.40,10.00,M,CLR,M,M,M,M,M,M,M,M,M,M,M,M,M,M,-16.95,KALO 210054Z 29004KT 10SM CLR M21/M25 A3061 RMK AO2 SLP394 T12111250,M
ALO,2022-01-21 01:54,-8.00,-16.10,66.79,0.00,0.00,0.00,30.60,1039.10,10.00,M,CLR,M,M,M,M,M,M,M,M,M,M,M,M,M,M,-8.00,KALO 210154Z 00000KT 10SM CLR M22/M27 A3060 RMK AO2 SLP391 T12221267,M
ALO,2022-01-21 02:54,-11.90,-18.00,73.46,0.00,0.00,0.00,30.59,1039.00,10.00,M,CLR,M,M,M,M,M,M,M,M,M,M,M,M,M,M,-11.90,KALO 210254Z AUTO 00000KT 10SM CLR M24/M28 A3059 RMK AO2 SLP390 T12441278 56008,M
ALO,2022-01-21 03:54,-11.00,-18.00,70.24,0.00,0.00,0.00,30.58,1038.60,10.00,M,CLR,M,M,M,M,M,M,M,M,M,M,M,M,M,M,-11.00,KALO 210354Z AUTO 00000KT 10SM CLR M24/M28 A3058 RMK AO2 SLP386 T12391278,M
ALO,2022-01-21 04:54,-14.10,-20.00,73.96,0.00,0.00,0.00,30.58,1038.40,10.00,M,CLR,M,M,M,M,M,M,M,M,T,M,M,M,M,M,-14.10,KALO 210454Z AUTO 00000KT 10SM CLR M26/M29 A3058 RMK AO2 SLP384 I1000 T12561289,M
ALO,2022-01-21 05:54,-14.10,-20.90,70.58,0.00,0.00,0.00,30.56,1037.90,10.00,M,CLR,M,M,M,M,M,M,M,M,M,M,T,M,M,M,-14.10,KALO 210554Z AUTO 00000KT 10SM CLR M26/M29 A3056 RMK AO2 SLP379 I6000 T12561294 11194 21256 411671256 58010,M
ALO,2022-01-21 06:54,-14.10,-22.00,66.64,0.00,0.00,0.00,30.57,1037.80,9.00,M,CLR,M,M,M,M,M,M,M,M,M,M,M,M,M,M,-14.10,KALO 210654Z AUTO 00000KT 9SM CLR M26/M30 A3057 RMK AO2 SLP378 T12561300,M
ALO,2022-01-21 07:54,-14.10,-23.10,62.89,0.00,0.00,0.00,30.56,1037.60,10.00,M,CLR,M,M,M,M,M,M,M,M,M,M,M,M,M,M,-14.10,KALO 210754Z AUTO 00000KT 10SM CLR M26/M31 A3056 RMK AO2 SLP376 T12561306,M
ALO,2022-01-21 08:54,-16.10,-23.10,69.59,0.00,0.00,0.00,30.54,1037.10,10.00,M,CLR,M,M,M,M,M,M,M,M,M,M,M,M,M,M,-16.10,KALO 210854Z AUTO 00000KT 10SM CLR M27/M31 A3054 RMK AO2 SLP371 T12671306 58007,M
ALO,2022-01-21 09:28,-16.10,-23.10,69.59,0.00,0.00,0.00,30.53,M,3.00,M,SCT,M,M,M,100.00,M,M,M,HZ,M,M,M,M,M,M,-16.10,KALO 210928Z AUTO 00000KT 3SM HZ SCT001 M27/M31 A3053 RMK AO2 T12671306,M
ALO,2022-01-21 09:36,-16.10,-22.00,73.73,0.00,0.00,0.00,30.53,M,3.00,M,BKN,M,M,M,100.00,M,M,M,HZ,M,M,M,M,M,M,-16.10,KALO 210936Z AUTO 00000KT 3SM HZ BKN001 M27/M30 A3053 RMK AO2 T12671300,M
ALO,2022-01-21 09:52,-16.60,-23.80,68.79,0.00,0.00,0.00,30.53,M,2.50,M,SCT,M,M,M,100.00,M,M,M,HZ,M,M,M,M,M,M,-16.60,KALO 210952Z AUTO 00000KT 2 1/2SM HZ SCT001 M27/M31 A3053 RMK AO2,M
ALO,2022-01-21 09:54,-16.10,-23.10,69.59,0.00,0.00,0.00,30.53,1036.60,3.00,M,SCT,M,M,M,100.00,M,M,M,HZ,M,M,M,M,M,M,-16.10,KALO 210954Z AUTO 00000KT 3SM HZ SCT001 M27/M31 A3053 RMK AO2 SLP366 T12671306,M
ALO,2022-01-21 10:54,-16.10,-24.00,66.36,0.00,0.00,0.00,30.52,1036.50,10.00,M,CLR,M,M,M,M,M,M,M,M,M,M,M,M,M,M,-16.10,KALO 211054Z AUTO 00000KT 10SM CLR M27/M31 A3052 RMK AO2 SLP365 T12671311,M
ALO,2022-01-21 11:33,-17.00,-25.10,65.53,110.00,3.00,0.00,30.51,M,2.50,M,CLR,M,M,M,M,M,M,M,HZ,M,M,M,M,M,M,-27.33,KALO 211133Z AUTO 11003KT 2 1/2SM HZ CLR M27/M32 A3051 RMK AO2 T12721317,M
ALO,2022-01-21 11:51,-18.40,-25.60,68.55,0.00,0.00,0.00,30.51,M,3.00,M,CLR,M,M,M,M,M,M,M,HZ,M,M,M,M,M,M,-18.40,KALO 211151Z 00000KT 3SM HZ CLR M28/M32 A3051 RMK AO2,M
ALO,2022-01-21 11:54,-17.00,-25.10,65.53,0.00,0.00,0.00,30.51,1036.20,4.00,M,CLR,M,M,M,M,M,M,M,HZ,M,M,M,M,M,M,-17.00,KALO 211154Z 00000KT 4SM HZ CLR M27/M32 A3051 RMK AO2 SLP362 T12721317 11256 21278 55006,M
ALO,2022-01-21 12:54,-17.00,-24.00,69.47,0.00,0.00,0.00,30.51,1036.10,4.00,M,CLR,M,M,M,M,M,M,M,HZ,M,M,M,M,M,M,-17.00,KALO 211254Z 00000KT 4SM HZ CLR M27/M31 A3051 RMK AO2 SLP361 T12721311,M
ALO,2022-01-21 13:14,-16.10,-24.00,66.36,130.00,3.00,0.00,30.51,M,1.75,M,CLR,M,M,M,M,M,M,M,HZ,M,M,M,M,M,M,-26.30,KALO 211314Z 13003KT 1 3/4SM HZ CLR M27/M31 A3051 RMK AO2 T12671311,M
ALO,2022-01-21 13:36,-16.10,-23.10,69.59,0.00,0.00,0.00,30.51,M,3.00,M,CLR,M,M,M,M,M,M,M,HZ,M,M,M,M,M,M,-16.10,KALO 211336Z 00000KT 3SM R12/5500VP6000FT HZ CLR M27/M31 A3051 RMK AO2 T12671306,M
ALO,2022-01-21 13:54,-14.10,-20.90,70.58,0.00,0.00,0.00,30.51,1036.30,6.00,M,CLR,M,M,M,M,M,M,M,HZ,M,M,M,M,M,M,-14.10,KALO 211354Z 00000KT 6SM HZ CLR M26/M29 A3051 RMK AO2 SLP363 T12561294,M
ALO,2022-01-21 14:21,-14.10,-18.00,82.01,0.00,0.00,0.00,30.51,M,1.75,M,CLR,M,M,M,M,M,M,M,BR,M,M,M,M,M,M,-14.10,KALO 211421Z 00000KT 1 3/4SM BR CLR M26/M28 A3051 RMK AO2 T12561278,M
ALO,2022-01-21 14:37,-11.90,-14.10,89.57,160.00,5.00,0.00,30.51,M,3.00,M,CLR,M,M,M,M,M,M,M,BR,M,M,M,M,M,M,-25.74,KALO 211437Z 16005KT 3SM BR CLR M24/M26 A3051 RMK AO2 T12441256,M
ALO,2022-01-21 14:54,-9.00,-11.00,90.61,170.00,5.00,0.00,30.51,1036.30,10.00,M,CLR,M,M,M,M,M,M,M,M,M,M,M,M,M,M,-22.30,KALO 211454Z 17005KT 10SM CLR M23/M24 A3051 RMK AO2 SLP363 T12281239 53001,M
ALO,2022-01-21 15:54,-2.90,-9.00,74.47,170.00,7.00,0.00,30.51,1035.90,10.00,M,CLR,M,M,M,M,M,M,M,M,M,M,M,M,M,M,-17.76,KALO 211554Z 17007KT 10SM CLR M19/M23 A3051 RMK AO2 SLP359 T11941228,M
ALO,2022-01-21 16:54,0.00,-7.10,71.25,170.00,7.00,0.00,30.51,1036.00,10.00,M,CLR,M,M,M,M,M,M,M,M,M,M,M,M,M,M,-14.23,KALO 211654Z 17007KT 10SM CLR M18/M22 A3051 RMK AO2 SLP360 T11781217,M
ALO,2022-01-21 17:54,3.00,-6.00,65.35,180.00,8.00,0.00,30.48,1034.90,10.00,M,CLR,M,M,M,M,M,M,M,M,M,M,M,M,M,M,-11.61,KALO 211754Z 18008KT 10SM CLR M16/M21 A3048 RMK AO2 SLP349 T11611211 11161 21272 58010,M
ALO,2022-01-21 18:54,5.00,-4.00,65.62,170.00,11.00,0.00,30.44,1033.60,10.00,M,CLR,M,M,M,M,M,M,M,M,M,M,M,M,M,M,-11.65,KALO 211854Z 17011KT 10SM CLR M15/M20 A3044 RMK AO2 SLP336 T11501200,M
ALO,2022-01-21 19:54,8.10,-2.90,60.07,170.00,13.00,0.00,30.39,1031.60,10.00,M,CLR,M,M,M,M,M,M,M,M,M,M,M,M,M,M,-9.05,KALO 211954Z 17013KT 10SM CLR M13/M19 A3039 RMK AO2 SLP316 T11331194,M
ALO,2022-01-21 20:54,9.00,-2.00,60.21,160.00,13.00,0.00,30.38,1031.30,10.00,M,CLR,M,M,M,M,M,M,M,M,M,M,M,M,M,M,-7.90,KALO 212054Z 16013KT 10SM CLR M13/M19 A3038 RMK AO2 SLP313 T11281189 56034,M
ALO,2022-01-21 21:54,10.00,-2.00,57.57,170.00,12.00,0.00,30.34,1030.00,10.00,20.00,CLR,M,M,M,M,M,M,M,M,M,M,M,M,M,M,-6.00,KALO 212154Z 17012G20KT 10SM CLR M12/M19 A3034 RMK AO2 SLP300 T11221189,M
ALO,2022-01-21 22:54,10.00,-2.00,57.57,170.00,12.00,0.00,30.31,1029.10,10.00,M,CLR,M,M,M,M,M,M,M,M,M,M,M,M,M,M,-6.00,KALO 212254Z 17012KT 10SM CLR M12/M19 A3031 RMK AO2 SLP291 T11221189,M
ALO,2022-01-21 23:54,10.00,-2.00,57.57,170.00,13.00,0.00,30.32,1029.30,10.00,19.00,CLR,M,M,M,M,M,M,M,M,M,M,M,M,M,M,-6.62,KALO 212354Z 17013G19KT 10SM CLR M12/M19 A3032 RMK AO2 SLP293 T11221189 11122 21161 55019,M
ALO,2022-01-22 00:54,10.90,-0.90,58.26,170.00,15.00,0.00,30.29,1028.10,10.00,22.00,CLR,M,M,M,M,M,M,M,M,M,M,M,M,M,M,-6.57,KALO 220054Z 17015G22KT 10SM CLR M12/M18 A3029 RMK AO2 SLP281 T11171183,M
ALO,2022-01-22 01:54,12.00,1.00,60.65,190.00,15.00,0.00,30.31,1028.70,10.00,22.00,OVC,M,M,M,5500.00,M,M,M,M,M,M,M,M,M,M,-5.15,KALO 220154Z 19015G22KT 10SM OVC055 M11/M17 A3031 RMK AO2 SLP287 T11111172,M
ALO,2022-01-22 02:54,12.90,1.90,60.78,190.00,14.00,0.00,30.29,1028.20,10.00,M,OVC,M,M,M,4100.00,M,M,M,M,M,M,M,M,M,M,-3.46,KALO 220254Z AUTO 19014KT 10SM OVC041 M11/M17 A3029 RMK AO2 SLP282 T11061167 56009,M
ALO,2022-01-22 03:12,14.00,3.00,60.94,190.00,12.00,T,30.29,M,2.50,M,BKN,OVC,M,M,2100.00,4100.00,M,M,-SN,M,M,M,M,M,M,-0.91,KALO 220312Z AUTO 19012KT 2 1/2SM -SN BKN021 OVC041 M10/M16 A3029 RMK AO2 SNB01 P0000 T11001161,M
ALO,2022-01-22 03:29,14.00,5.00,66.82,190.00,14.00,0.01,30.28,M,4.00,M,OVC,M,M,M,2900.00,M,M,M,-SN,M,M,M,M,M,M,-2.04,KALO 220329Z AUTO 19014KT 4SM -SN OVC029 M10/M15 A3028 RMK AO2 SNB01 P0001 T11001150,M
ALO,2022-01-22 03:45,14.00,6.10,70.26,190.00,14.00,0.01,30.27,M,4.00,M,BKN,OVC,M,M,3100.00,5000.00,M,M,-SN,M,M,M,M,M,M,-2.04,KALO 220345Z AUTO 19014KT 4SM -SN BKN031 OVC050 M10/M14 A3027 RMK AO2 SNB01 P0001 T11001144,M
ALO,2022-01-22 03:54,14.00,6.10,70.26,190.00,14.00,0.01,30.26,1027.00,3.00,M,BKN,OVC,M,M,3300.00,5000.00,M,M,-SN,M,M,M,M,M,M,-2.04,KALO 220354Z AUTO 19014KT 3SM -SN BKN033 OVC050 M10/M14 A3026 RMK AO2 SNB01 SLP270 P0001 T11001144,M
ALO,2022-01-22 04:36,15.10,8.10,73.31,190.00,15.00,T,30.25,M,1.75,23.00,BKN,OVC,M,M,3100.00,5500.00,M,M,-SN,M,M,M,M,M,M,-1.13,KALO 220436Z AUTO 19015G23KT 1 3/4SM -SN BKN031 OVC055 M09/M13 A3025 RMK AO2 P0000 T10941133,M
ALO,2022-01-22 04:47,15.10,8.10,73.31,190.00,14.00,T,30.25,M,3.00,M,OVC,M,M,M,3100.00,M,M,M,-SN,M,M,M,M,M,M,-0.62,KALO 220447Z AUTO 19014KT 3SM -SN OVC031 M09/M13 A3025 RMK AO2 P0000 T10941133,M
ALO,2022-01-22 04:54,15.10,9.00,76.34,190.00,12.00,T,30.25,1026.30,5.00,22.00,OVC,M,M,M,3000.00,M,M,M,-SN,M,M,M,M,M,M,0.49,KALO 220454Z AUTO 19012G22KT 5SM -SN OVC030 M09/M13 A3025 RMK AO2 SLP263 P0000 T10941128,M
ALO,2022-01-22 05:12,16.00,10.00,76.77,200.00,15.00,0.01,30.24,M,8.00,M,OVC,M,M,M,2800.00,M,M,M,-SN,M,M,M,26.00,200.00,2022-01-22 04:55,0.04,KALO 220512Z AUTO 20015KT 8SM -SN OVC028 M09/M12 A3024 RMK AO2 PK WND 20026/0455 P0001 T10891122,M
ALO,2022-01-22 05:54,17.10,10.90,76.20,210.00,15.00,0.01,30.23,1025.60,10.00,M,OVC,M,M,M,2600.00,M,M,M,M,M,M,M,26.00,200.00,2022-01-22 04:55,1.46,KALO 220554Z AUTO 21015KT 10SM OVC026 M08/M12 A3023 RMK AO2 PK WND 20026/0455 SNE15 SLP256 P0001 60002 T10831117 11083 21122 410831278 56021,M
ALO,2022-01-22 06:54,19.00,12.00,73.73,220.00,15.00,0.00,30.20,1024.40,10.00,23.00,OVC,M,M,M,2400.00,M,M,M,M,M,M,M,M,M,M,3.93,KALO 220654Z AUTO 22015G23KT 10SM OVC024 M07/M11 A3020 RMK AO2 SLP244 T10721111,M
ALO,2022-01-22 07:20,19.90,12.00,70.95,210.00,11.00,0.00,30.19,M,10.00,22.00,SCT,OVC,M,M,2300.00,6500.00,M,M,M,M,M,M,M,M,M,7.18,KALO 220720Z AUTO 21011G22KT 10SM SCT023 OVC065 M07/M11 A3019 RMK AO2 T10671111,M
ALO,2022-01-22 07:54,19.90,12.00,70.95,220.00,10.00,0.00,30.18,1023.90,10.00,19.00,OVC,M,M,M,6500.00,M,M,M,M,M,M,M,M,M,M,7.79,KALO 220754Z AUTO 22010G19KT 10SM OVC065 M07/M11 A3018 RMK AO2 SLP239 T10671111,M
ALO,2022-01-22 08:54,21.90,12.00,65.18,230.00,9.00,0.00,30.17,1023.30,10.00,M,OVC,M,M,M,6500.00,M,M,M,M,M,M,M,M,M,M,10.96,KALO 220854Z AUTO 23009KT 10SM OVC065 M06/M11 A3017 RMK AO2 SLP233 T10561111 56019,M
ALO,2022-01-22 09:54,23.00,14.00,67.96,230.00,12.00,0.00,30.15,1022.60,10.00,M,OVC,M,M,M,7000.00,M,M,M,M,M,M,M,M,M,M,10.55,KALO 220954Z AUTO 23012KT 10SM OVC070 M05/M10 A3015 RMK AO2 SLP226 T10501100,M
ALO,2022-01-22 10:54,24.10,14.00,64.89,240.00,12.00,0.00,30.15,1022.70,10.00,M,OVC,M,M,M,7000.00,M,M,M,M,M,M,M,M,M,M,11.95,KALO 221054Z AUTO 24012KT 10SM OVC070 M04/M10 A3015 RMK AO2 SLP227 T10441100,M
ALO,2022-01-22 11:54,25.00,16.00,68.20,260.00,12.00,0.00,30.16,1022.80,10.00,M,OVC,M,M,M,3500.00,M,M,M,M,M,M,M,M,M,M,13.09,KALO 221154Z 26012KT 10SM OVC035 M04/M09 A3016 RMK AO2 SLP228 70002 T10391089 11039 21083 55005,M
ALO,2022-01-22 12:54,26.10,18.00,71.04,290.00,9.00,0.00,30.18,1023.40,10.00,18.00,FEW,SCT,M,M,1800.00,4900.00,M,M,M,M,M,M,M,M,M,16.18,KALO 221254Z 29009G18KT 10SM FEW018 SCT049 M03/M08 A3018 RMK AO2 SLP234 T10331078,M
ALO,2022-01-22 13:11,26.10,19.00,74.16,300.00,11.00,0.00,30.18,M,10.00,M,BKN,M,M,M,2200.00,M,M,M,M,M,M,M,M,M,M,15.01,KALO 221311Z 30011KT 10SM BKN022 M03/M07 A3018 RMK AO2 T10331072,M
ALO,2022-01-22 13:47,21.90,14.00,71.18,320.00,10.00,0.00,30.21,M,10.00,M,FEW,M,M,M,2200.00,M,M,M,M,M,M,M,M,M,M,10.30,KALO 221347Z 32010KT 10SM FEW022 M06/M10 A3021 RMK AO2 T10561100,M
ALO,2022-01-22 13:54,21.90,12.90,67.82,320.00,14.00,0.00,30.21,1024.60,10.00,20.00,FEW,M,M,M,2200.00,M,M,M,M,M,M,M,M,M,M,8.14,KALO 221354Z 32014G20KT 10SM FEW022 M06/M11 A3021 RMK AO2 SLP246 T10561106,M
ALO,2022-01-22 14:54,18.00,8.10,64.66,300.00,18.00,0.00,30.22,1025.10,10.00,27.00,CLR,M,M,M,M,M,M,M,M,M,M,M,30.00,310.00,2022-01-22 14:25,1.32,KALO 221454Z 30018G27KT 10SM CLR M08/M13 A3022 RMK AO2 PK WND 31030/1425 SLP251 T10781133 51022,M
ALO,2022-01-22 15:54,17.10,7.00,63.95,300.00,22.00,0.00,30.25,1026.00,10.00,29.00,CLR,M,M,M,M,M,M,M,M,M,M,M,29.00,310.00,2022-01-22 15:53,-1.37,KALO 221554Z 30022G29KT 10SM CLR M08/M14 A3025 RMK AO2 PK WND 31029/1553 SLP260 T10831139,M
ALO,2022-01-22 16:54,16.00,6.10,64.39,300.00,18.00,0.00,30.28,1027.10,10.00,25.00,CLR,M,M,M,M,M,M,M,M,M,M,M,32.00,300.00,2022-01-22 16:18,-1.31,KALO 221654Z 30018G25KT 10SM CLR M09/M14 A3028 RMK AO2 PK WND 30032/1618 SLP271 T10891144,M
ALO,2022-01-22 17:54,16.00,6.10,64.39,310.00,17.00,0.00,30.27,1026.60,10.00,23.00,CLR,M,M,M,M,M,M,M,M,M,M,M,29.00,290.00,2022-01-22 16:56,-0.89,KALO 221754Z 31017G23KT 10SM CLR M09/M14 A3027 RMK AO2 PK WND 29029/1656 SLP266 T10891144 11033 21089 50014,M
ALO,2022-01-22 18:54,16.00,6.10,64.39,290.00,11.00,0.00,30.24,1025.70,10.00,M,CLR,M,M,M,M,M,M,M,M,M,M,M,M,M,M,2.25,KALO 221854Z 29011KT 10SM CLR M09/M14 A3024 RMK AO2 SLP257 T10891144,M
ALO,2022-01-22 19:54,15.10,5.00,63.68,290.00,9.00,0.00,30.20,1024.40,10.00,M,CLR,M,M,M,M,M,M,M,M,M,M,M,M,M,M,2.50,KALO 221954Z 29009KT 10SM CLR M09/M15 A3020 RMK AO2 SLP244 T10941150,M
ALO,2022-01-22 20:54,16.00,5.00,61.23,290.00,5.00,0.00,30.17,1023.10,10.00,M,FEW,M,M,M,11000.00,M,M,M,M,M,M,M,M,M,M,7.39,KALO 222054Z 29005KT 10SM FEW110 M09/M15 A3017 RMK AO2 SLP231 T10891150 58033,M
ALO,2022-01-22 21:54,16.00,6.10,64.39,230.00,7.00,0.00,30.14,1022.20,10.00,M,OVC,M,M,M,6000.00,M,M,M,M,M,M,M,M,M,M,5.28,KALO 222154Z 23007KT 10SM OVC060 M09/M14 A3014 RMK AO2 SLP222 T10891144,M
ALO,2022-01-22 22:54,16.00,6.10,64.39,230.00,8.00,0.00,30.13,1021.70,10.00,M,SCT,M,M,M,10000.00,M,M,M,M,M,M,M,M,M,M,4.40,KALO 222254Z 23008KT 10SM SCT100 M09/M14 A3013 RMK AO2 SLP217 T10891144,M
ALO,2022-01-22 23:54,17.10,9.00,69.99,190.00,4.00,0.00,30.10,1020.50,10.00,M,OVC,M,M,M,6000.00,M,M,M,M,M,M,M,M,M,M,10.02,KALO 222354Z 19004KT 10SM OVC060 M08/M13 A3010 RMK AO2 SLP205 T10831128 11083 21094 58024,M
ALO,2022-01-23 00:54,18.00,10.00,70.41,130.00,4.00,0.00,30.06,1019.20,10.00,M,OVC,M,M,M,4800.00,M,M,M,M,M,M,M,M,M,M,11.07,KALO 230054Z 13004KT 10SM OVC048 M08/M12 A3006 RMK AO2 SLP192 T10781122,M
ALO,2022-01-23 01:54,19.00,10.90,70.22,100.00,6.00,0.00,30.00,1017.30,10.00,M,OVC,M,M,M,5500.00,M,M,M,M,M,M,M,M,M,M,9.87,KALO 230154Z 10006KT 10SM OVC055 M07/M12 A3000 RMK AO2 SLP173 T10721117,M
ALO,2022-01-23 02:54,19.00,10.90,70.22,130.00,7.00,0.00,29.94,1015.40,10.00,M,OVC,M,M,M,4000.00,M,M,M,M,M,M,M,M,M,M,8.93,KALO 230254Z AUTO 13007KT 10SM OVC040 M07/M12 A2994 RMK AO2 SLP154 T10721117 58050,M
ALO,2022-01-23 03:54,19.90,12.90,73.83,140.00,7.00,0.00,29.89,1013.50,10.00,M,FEW,OVC,M,M,3700.00,4400.00,M,M,M,M,M,M,M,M,M,10.03,KALO 230354Z AUTO 14007KT 10SM FEW037 OVC044 M07/M11 A2989 RMK AO2 SLP135 T10671106,M
ALO,2022-01-23 04:54,21.00,14.00,73.94,120.00,8.00,T,29.82,1011.30,6.00,M,FEW,BKN,OVC,M,2400.00,3300.00,4400.00,M,-SN,M,M,M,M,M,M,10.56,KALO 230454Z AUTO 12008KT 6SM -SN FEW024 BKN033 OVC044 M06/M10 A2982 RMK AO2 SNB31 SLP113 P0000 T10611100,M
ALO,2022-01-23 05:08,21.00,15.10,77.59,90.00,6.00,T,29.82,M,2.50,15.00,BKN,BKN,OVC,M,2200.00,3200.00,3900.00,M,-SN,M,M,M,M,M,M,12.28,KALO 230508Z AUTO 09006G15KT 2 1/2SM -SN BKN022 BKN032 OVC039 M06/M09 A2982 RMK AO2 P0000 T10611094,M
ALO,2022-01-23 05:17,21.00,15.10,77.59,80.00,8.00,T,29.82,M,1.25,M,BKN,BKN,OVC,M,1700.00,2200.00,3200.00,M,-SN,M,M,M,M,M,M,10.56,KALO 230517Z AUTO 08008KT 1 1/4SM -SN BKN017 BKN022 OVC032 M06/M09 A2982 RMK AO2 P0000 T10611094,M
ALO,2022-01-23 05:54,19.00,15.10,84.49,30.00,15.00,0.05,29.84,1011.90,1.75,M,OVC,M,M,M,1500.00,M,M,M,-SN BR,M,M,M,M,M,M,3.93,KALO 230554Z AUTO 03015KT 1 3/4SM -SN BR OVC015 M07/M09 A2984 RMK AO2 SLP119 P0005 60005 T10721094 11061 21083 410331094 55035,M
ALO,2022-01-23 06:01,18.00,12.90,80.09,40.00,19.00,T,29.84,M,3.00,23.00,OVC,M,M,M,1500.00,M,M,M,-SN,M,M,M,M,M,M,0.92,KALO 230601Z AUTO 04019G23KT 3SM -SN OVC015 M08/M11 A2984 RMK AO2 P0000 T10781106,M
ALO,2022-01-23 06:09,17.10,12.00,80.01,40.00,18.00,T,29.84,M,4.00,M,OVC,M,M,M,1400.00,M,M,M,HZ,M,M,M,M,M,M,0.13,KALO 230609Z AUTO 04018KT 4SM HZ OVC014 M08/M11 A2984 RMK AO2 SNE09 P0000 T10831111,M
ALO,2022-01-23 06:40,16.00,10.90,79.92,40.00,14.00,T,29.86,M,10.00,M,OVC,M,M,M,1500.00,M,M,M,M,M,M,M,26.00,40.00,2022-01-23 06:16,0.54,KALO 230640Z AUTO 04014KT 10SM OVC015 M09/M12 A2986 RMK AO2 PK WND 04026/0616 SNE09 P0000 T10891117,M
ALO,2022-01-23 06:54,16.00,10.90,79.92,30.00,17.00,T,29.88,1013.20,7.00,23.00,OVC,M,M,M,1700.00,M,M,M,M,M,M,M,26.00,40.00,2022-01-23 06:16,-0.89,KALO 230654Z AUTO 03017G23KT 7SM OVC017 M09/M12 A2988 RMK AO2 PK WND 04026/0616 SNE09 SLP132 P0000 T10891117,M
ALO,2022-01-23 07:12,16.00,10.90,79.92,30.00,16.00,T,29.89,M,3.00,23.00,OVC,M,M,M,1900.00,M,M,M,-FZRA,0.01,M,M,M,M,M,-0.44,KALO 230712Z AUTO 03016G23KT 3SM -FZRA OVC019 M09/M12 A2989 RMK AO2 UPB04E06FZRAB06 P0000 I1001 T10891117,M
ALO,2022-01-23 07:27,16.00,10.90,79.92,20.00,12.00,T,29.90,M,7.00,20.00,OVC,M,M,M,2100.00,M,M,M,M,0.01,M,M,M,M,M,1.64,KALO 230727Z AUTO 02012G20KT 7SM OVC021 M09/M12 A2990 RMK AO2 UPB04E06FZRAB06E21 P0000 I1001 T10891117,M
ALO,2022-01-23 07:54,16.00,10.00,76.77,20.00,11.00,T,29.91,1014.30,10.00,M,BKN,OVC,M,M,2400.00,4800.00,M,M,M,0.01,M,M,M,M,M,2.25,KALO 230754Z AUTO 02011KT 10SM BKN024 OVC048 M09/M12 A2991 RMK AO2 UPB04E06FZRAB06E21 SLP143 P0000 I1001 T10891122,M
ALO,2022-01-23 08:07,15.10,10.00,79.84,20.00,10.00,0.00,29.91,M,10.00,M,SCT,OVC,M,M,2500.00,4800.00,M,M,M,M,M,M,M,M,M,1.78,KALO 230807Z AUTO 02010KT 10SM SCT025 OVC048 M09/M12 A2991 RMK AO2 T10941122,M
ALO,2022-01-23 08:47,14.00,8.10,76.92,360.00,14.00,0.00,29.97,M,10.00,M,FEW,BKN,OVC,M,900.00,5000.00,6500.00,M,M,M,M,M,M,M,M,-2.04,KALO 230847Z AUTO 36014KT 10SM FEW009 BKN050 OVC065 M10/M13 A2997 RMK AO2 T11001133,M
ALO,2022-01-23 08:54,14.00,8.10,76.92,350.00,16.00,0.00,29.97,1016.70,10.00,M,FEW,BKN,OVC,M,900.00,3800.00,6500.00,M,M,M,0.01,M,M,M,M,-3.04,KALO 230854Z AUTO 35016KT 10SM FEW009 BKN038 OVC065 M10/M13 A2997 RMK AO2 PRESRR SLP167 60000 I3001 T11001133 53045,M
ALO,2022-01-23 09:18,12.90,6.10,73.74,350.00,16.00,0.00,29.99,M,10.00,M,BKN,OVC,M,M,1400.00,4000.00,M,M,M,M,M,M,M,M,M,-4.48,KALO 230918Z AUTO 35016KT 10SM BKN014 OVC040 M11/M14 A2999 RMK AO2 T11061144,M
ALO,2022-01-23 09:46,10.90,5.00,76.62,350.00,14.00,0.00,30.01,M,10.00,M,SCT,M,M,M,1300.00,M,M,M,M,M,M,M,M,M,M,-6.04,KALO 230946Z AUTO 35014KT 10SM SCT013 M12/M15 A3001 RMK AO2 T11171150,M
ALO,2022-01-23 09:54,10.90,5.00,76.62,350.00,14.00,0.00,30.02,1018.10,10.00,M,SCT,M,M,M,1300.00,M,M,M,M,M,M,M,M,M,M,-6.04,KALO 230954Z AUTO 35014KT 10SM SCT013 M12/M15 A3002 RMK AO2 SLP181 T11171150,M
ALO,2022-01-23 10:54,8.10,1.90,75.29,340.00,12.00,0.00,30.05,1019.30,10.00,M,CLR,M,M,M,M,M,M,M,M,M,M,M,M,M,M,-8.42,KALO 231054Z AUTO 34012KT 10SM CLR M13/M17 A3005 RMK AO2 SLP193 T11331167,M
ALO,2022-01-23 11:54,6.10,0.00,75.43,350.00,12.00,0.00,30.07,1020.10,10.00,M,CLR,M,M,M,M,M,M,M,M,M,M,0.01,M,M,M,-10.96,KALO 231154Z 35012KT 10SM CLR M14/M18 A3007 RMK AO2 SLP201 60000 70005 I6001 T11441178 11072 21144 51031,M
ALO,2022-01-23 12:54,3.90,-2.00,75.92,340.00,13.00,0.00,30.10,1021.10,10.00,M,CLR,M,M,M,M,M,M,M,M,M,M,M,M,M,M,-14.43,KALO 231254Z 34013KT 10SM CLR M16/M19 A3010 RMK AO2 SLP211 T11561189,M
ALO,2022-01-23 13:54,1.90,-4.00,75.71,320.00,8.00,0.00,30.13,1022.20,10.00,M,CLR,M,M,M,M,M,M,M,M,M,M,M,M,M,M,-12.96,KALO 231354Z 32008KT 10SM CLR M17/M20 A3013 RMK AO2 SLP222 T11671200,M
ALO,2022-01-23 14:54,3.00,-2.90,75.82,330.00,7.00,0.00,30.15,1022.70,10.00,M,CLR,M,M,M,M,M,M,M,M,M,M,M,M,M,M,-10.57,KALO 231454Z 33007KT 10SM CLR M16/M19 A3015 RMK AO2 SLP227 T11611194 51025,M
ALO,2022-01-23 15:54,3.90,-2.90,72.74,350.00,10.00,0.00,30.15,1022.80,10.00,M,CLR,M,M,M,M,M,M,M,M,M,M,M,M,M,M,-12.27,KALO 231554Z 35010KT 10SM CLR M16/M19 A3015 RMK AO2 SLP228 T11561194,M
ALO,2022-01-23 16:54,7.00,-0.90,69.41,330.00,5.00,0.00,30.16,1022.90,10.00,M,CLR,M,M,M,M,M,M,M,M,M,M,M,M,M,M,-3.29,KALO 231654Z 33005KT 10SM CLR M14/M18 A3016 RMK AO2 SLP229 T11391183,M
ALO,2022-01-23 17:54,10.00,0.00,63.26,340.00,3.00,0.00,30.11,1021.50,10.00,M,CLR,M,M,M,M,M,M,M,M,M,M,M,M,M,M,3.54,KALO 231754Z 34003KT 10SM CLR M12/M18 A3011 RMK AO2 PRESFR SLP215 T11221178 11122 21167 58010,M
ALO,2022-01-23 18:54,10.90,-0.90,58.26,330.00,4.00,0.00,30.09,1020.50,10.00,M,CLR,M,M,M,M,M,M,M,M,M,M,M,M,M,M,2.78,KALO 231854Z 33004KT 10SM CLR M12/M18 A3009 RMK AO2 SLP205 T11171183,M
ALO,2022-01-23 19:54,10.00,0.00,63.26,250.00,10.00,0.00,30.07,1020.20,10.00,M,CLR,M,M,M,M,M,M,M,M,M,M,M,M,M,M,-4.62,KALO 231954Z 25010KT 10SM CLR M12/M18 A3007 RMK AO2 SLP202 T11221178,M
ALO,2022-01-23 20:54,10.90,0.00,60.77,260.00,4.00,0.00,30.03,1018.80,10.00,M,CLR,M,M,M,M,M,M,M,M,M,M,M,M,M,M,2.78,KALO 232054Z 26004KT 10SM CLR M12/M18 A3003 RMK AO2 SLP188 T11171178 58027,M
ALO,2022-01-23 21:54,10.00,-0.90,60.64,0.00,0.00,0.00,30.00,1017.80,10.00,M,FEW,SCT,M,M,7500.00,9000.00,M,M,M,M,M,M,M,M,M,10.00,KALO 232154Z 00000KT 10SM FEW075 SCT090 M12/M18 A3000 RMK AO2 SLP178 T11221183,M
ALO,2022-01-23 22:54,9.00,-0.90,63.42,230.00,6.00,0.00,29.98,1017.20,10.00,M,OVC,M,M,M,7500.00,M,M,M,M,M,M,M,M,M,M,-2.17,KALO 232254Z 23006KT 10SM OVC075 M13/M18 A2998 RMK AO2 SLP172 T11281183,M
ALO,2022-01-23 23:54,10.00,1.00,66.29,190.00,6.00,0.00,29.95,1016.30,10.00,M,FEW,OVC,M,M,5000.00,6500.00,M,M,M,M,M,M,M,M,M,-0.97,KALO 232354Z 19006KT 10SM FEW050 OVC065 M12/M17 A2995 RMK AO2 SLP163 T11221172 11117 21128 56026,M
ALO,2022-01-24 00:54,10.00,1.90,69.13,170.00,7.00,0.00,29.91,1015.00,10.00,M,BKN,OVC,M,M,5000.00,6000.00,M,M,M,M,M,M,M,M,M,-2.04,KALO 240054Z 17007KT 10SM BKN050 OVC060 M12/M17 A2991 RMK AO2 SLP150 T11221167,M
ALO,2022-01-24 01:31,10.00,3.00,72.75,170.00,8.00,T,29.89,M,3.00,M,BKN,OVC,M,M,2700.00,4400.00,M,M,-SN,M,M,M,M,M,M,-2.99,KALO 240131Z 17008KT 3SM -SN BKN027 OVC044 M12/M16 A2989 RMK AO2 SNB02 P0000 T11221161,M
ALO,2022-01-24 01:40,10.00,3.90,75.83,170.00,8.00,0.01,29.89,M,1.75,M,OVC,M,M,M,2500.00,M,M,M,-SN,M,M,M,M,M,M,-2.99,KALO 240140Z 17008KT 1 3/4SM -SN OVC025 M12/M16 A2989 RMK AO2 SNB02 P0001 T11221156,M
ALO,2022-01-24 01:48,10.40,3.20,72.12,180.00,7.00,0.01,29.89,M,3.00,M,BKN,OVC,M,M,2400.00,3600.00,M,M,-SN,M,M,M,M,M,M,-1.55,KALO 240148Z AUTO 18007KT 3SM -SN BKN024 OVC036 M12/M16 A2989 RMK AO2 SNB02 P0001,M
ALO,2022-01-24 01:54,10.00,3.90,75.83,170.00,7.00,0.01,29.88,1013.80,4.00,M,BKN,OVC,M,M,2400.00,3800.00,M,M,-SN,M,M,M,M,M,M,-2.04,KALO 240154Z AUTO 17007KT 4SM -SN BKN024 OVC038 M12/M16 A2988 RMK AO2 SNB02 SLP138 P0001 T11221156,M
ALO,2022-01-24 02:07,10.90,5.00,76.62,160.00,8.00,T,29.86,M,4.00,M,OVC,M,M,M,3500.00,M,M,M,-SN,M,M,M,M,M,M,-1.88,KALO 240207Z AUTO 16008KT 4SM -SN OVC035 M12/M15 A2986 RMK AO2 PRESFR P0000 T11171150,M
ALO,2022-01-24 02:33,10.90,5.00,76.62,180.00,7.00,T,29.85,M,10.00,M,BKN,OVC,M,M,2800.00,3400.00,M,M,M,M,M,M,M,M,M,-0.94,KALO 240233Z AUTO 18007KT 10SM BKN028 OVC034 M12/M15 A2985 RMK AO2 SNE25 P0000 T11171150,M
ALO,2022-01-24 02:54,12.00,6.10,76.73,180.00,7.00,T,29.84,1012.30,10.00,M,OVC,M,M,M,2700.00,M,M,M,M,M,M,M,M,M,M,0.40,KALO 240254Z AUTO 18007KT 10SM OVC027 M11/M14 A2984 RMK AO2 SNE25 SLP123 P0000 60001 T11111144 58038,M
ALO,2022-01-24 03:54,12.90,6.10,73.74,180.00,10.00,0.00,29.80,1011.10,10.00,M,BKN,OVC,M,M,2600.00,3600.00,M,M,M,M,M,M,M,M,M,-0.98,KALO 240354Z AUTO 18010KT 10SM BKN026 OVC036 M11/M14 A2980 RMK AO2 SLP111 T11061144,M
ALO,2022-01-24 04:07,12.90,7.00,76.82,170.00,7.00,0.00,29.80,M,10.00,M,SCT,OVC,M,M,2600.00,3600.00,M,M,M,M,M,M,M,M,M,1.50,KALO 240407Z AUTO 17007KT 10SM SCT026 OVC036 M11/M14 A2980 RMK AO2 T11061139,M
ALO,2022-01-24 04:54,14.00,7.00,73.19,180.00,11.00,0.00,29.74,1008.80,10.00,M,BKN,OVC,M,M,3600.00,7500.00,M,M,M,M,M,M,M,M,M,-0.28,KALO 240454Z AUTO 18011KT 10SM BKN036 OVC075 M10/M14 A2974 RMK AO2 PRESFR SLP088 T11001139,M
ALO,2022-01-24 05:54,15.10,9.00,76.34,170.00,10.00,0.00,29.71,1007.60,10.00,M,BKN,BKN,M,M,6000.00,11000.00,M,M,M,M,M,M,M,M,M,1.78,KALO 240554Z AUTO 17010KT 10SM BKN060 BKN110 M09/M13 A2971 RMK AO2 SLP076 60001 T10941128 11094 21128 410781167 56044,M
ALO,2022-01-24 06:54,17.10,10.00,73.20,180.00,10.00,0.00,29.66,1006.00,10.00,M,BKN,OVC,M,M,5000.00,7000.00,M,M,M,M,M,M,M,M,M,4.28,KALO 240654Z AUTO 18010KT 10SM BKN050 OVC070 M08/M12 A2966 RMK AO2 SLP060 T10831122,M
ALO,2022-01-24 07:42,18.00,12.00,76.97,190.00,8.00,0.01,29.63,M,2.00,M,OVC,M,M,M,2600.00,M,M,M,-SN,M,M,M,M,M,M,6.87,KALO 240742Z AUTO 19008KT 2SM -SN OVC026 M08/M11 A2963 RMK AO2 SNB13 P0001 T10781111,M
ALO,2022-01-24 07:54,18.00,12.00,76.97,190.00,9.00,0.01,29.63,1004.90,2.00,M,OVC,M,M,M,2600.00,M,M,M,-SN,M,M,M,M,M,M,6.11,KALO 240754Z AUTO 19009KT 2SM -SN OVC026 M08/M11 A2963 RMK AO2 SNB13 SLP049 P0001 T10781111,M
ALO,2022-01-24 08:14,18.00,12.90,80.09,190.00,7.00,0.01,29.62,M,1.75,M,SCT,OVC,M,M,2000.00,2800.00,M,M,-SN,M,M,M,M,M,M,7.71,KALO 240814Z AUTO 19007KT 1 3/4SM -SN SCT020 OVC028 M08/M11 A2962 RMK AO2 P0001 T10781106,M
ALO,2022-01-24 08:24,18.00,12.90,80.09,190.00,8.00,0.01,29.62,M,2.50,M,BKN,OVC,M,M,2200.00,2900.00,M,M,-SN,M,M,M,M,M,M,6.87,KALO 240824Z AUTO 19008KT 2 1/2SM -SN BKN022 OVC029 M08/M11 A2962 RMK AO2 P0001 T10781106,M
ALO,2022-01-24 08:35,19.00,14.00,80.52,180.00,8.00,0.02,29.61,M,3.00,M,OVC,M,M,M,2000.00,M,M,M,-SN,M,M,M,M,M,M,8.10,KALO 240835Z AUTO 18008KT 3SM -SN OVC020 M07/M10 A2961 RMK AO2 P0002 T10721100,M
ALO,2022-01-24 08:54,19.00,14.00,80.52,180.00,6.00,0.02,29.60,1003.80,9.00,M,OVC,M,M,M,1900.00,M,M,M,M,M,M,M,M,M,M,9.87,KALO 240854Z AUTO 18006KT 9SM OVC019 M07/M10 A2960 RMK AO2 SNE53 SLP038 P0002 60003 T10721100 56036,M
ALO,2022-01-24 09:41,21.00,16.00,80.69,210.00,6.00,T,29.59,M,2.00,M,OVC,M,M,M,1700.00,M,M,M,-SN,M,M,M,M,M,M,12.28,KALO 240941Z AUTO 21006KT 2SM -SN OVC017 M06/M09 A2959 RMK AO2 SNB07 P0000 T10611089,M
ALO,2022-01-24 09:54,21.00,16.00,80.69,220.00,5.00,T,29.59,1003.40,5.00,M,OVC,M,M,M,1600.00,M,M,M,-SN,M,M,M,M,M,M,13.33,KALO 240954Z AUTO 22005KT 5SM -SN OVC016 M06/M09 A2959 RMK AO2 SNB07 SLP034 P0000 T10611089,M
ALO,2022-01-24 10:19,21.00,17.10,84.62,250.00,4.00,0.01,29.60,M,2.00,M,OVC,M,M,M,1700.00,M,M,M,-SN BR,M,M,M,M,M,M,14.57,KALO 241019Z AUTO 25004KT 2SM -SN BR OVC017 M06/M08 A2960 RMK AO2 P0001 T10611083,M
ALO,2022-01-24 10:31,21.00,17.10,84.62,260.00,4.00,0.02,29.59,M,1.50,M,OVC,M,M,M,1800.00,M,M,M,-SN BR,M,M,M,M,M,M,14.57,KALO 241031Z AUTO 26004KT 1 1/2SM -SN BR OVC018 M06/M08 A2959 RMK AO2 P0002 T10611083,M
ALO,2022-01-24 10:39,21.00,17.10,84.62,260.00,4.00,0.02,29.59,M,3.00,M,OVC,M,M,M,1800.00,M,M,M,-SN BR,M,M,M,M,M,M,14.57,KALO 241039Z AUTO 26004KT 3SM -SN BR OVC018 M06/M08 A2959 RMK AO2 P0002 T10611083,M
ALO,2022-01-24 10:54,21.90,17.10,81.46,270.00,3.00,0.02,29.59,1003.40,3.00,M,BKN,OVC,M,M,1800.00,2700.00,M,M,-SN,M,M,M,M,M,M,17.14,KALO 241054Z AUTO 27003KT 3SM -SN BKN018 OVC027 M06/M08 A2959 RMK AO2 SLP034 P0002 T10561083,M
ALO,2022-01-24 11:04,21.90,17.10,81.46,250.00,3.00,0.01,29.59,M,2.00,M,SCT,OVC,M,M,1800.00,2600.00,M,M,-SN,M,M,M,M,M,M,17.14,KALO 241104Z AUTO 25003KT 2SM -SN SCT018 OVC026 M06/M08 A2959 RMK AO2 P0001 T10561083,M
ALO,2022-01-24 11:12,21.90,17.10,81.46,250.00,3.00,0.01,29.59,M,3.00,M,FEW,BKN,OVC,M,1800.00,3000.00,11000.00,M,-SN,M,M,M,M,M,M,17.14,KALO 241112Z AUTO 25003KT 3SM -SN FEW018 BKN030 OVC110 M06/M08 A2959 RMK AO2 P0001 T10561083,M
ALO,2022-01-24 11:54,23.00,19.00,84.39,300.00,6.00,0.01,29.59,1003.40,7.00,M,FEW,BKN,OVC,M,3500.00,5500.00,7000.00,M,-SN,M,M,M,M,M,M,14.69,KALO 241154Z 30006KT 7SM -SN FEW035 BKN055 OVC070 M05/M07 A2959 RMK AO2 SLP034 P0001 60006 70007 T10501072 11050 21094 55003,M
ALO,2022-01-24 12:54,25.00,19.90,80.66,290.00,7.00,T,29.59,1003.50,10.00,M,OVC,M,M,M,11000.00,M,M,M,M,M,M,M,M,M,M,16.25,KALO 241254Z 29007KT 10SM OVC110 M04/M07 A2959 RMK AO2 SNE28 SLP035 P0000 T10391067,M
ALO,2022-01-24 13:01,25.00,21.00,84.53,290.00,8.00,0.00,29.60,M,10.00,M,SCT,OVC,M,M,900.00,11000.00,M,M,M,M,M,M,M,M,M,15.49,KALO 241301Z 29008KT 10SM SCT009 OVC110 M04/M06 A2960 RMK AO2 T10391061,M
ALO,2022-01-24 13:10,26.10,21.00,80.75,300.00,7.00,0.00,29.60,M,10.00,M,BKN,OVC,M,M,1000.00,11000.00,M,M,M,M,M,M,M,M,M,17.59,KALO 241310Z 30007KT 10SM BKN010 OVC110 M03/M06 A2960 RMK AO2 T10331061,M
ALO,2022-01-24 13:44,27.00,21.90,80.83,330.00,11.00,0.00,29.60,M,10.00,M,SCT,OVC,M,M,1100.00,1900.00,M,M,M,M,M,M,M,M,M,16.15,KALO 241344Z 33011KT 10SM SCT011 OVC019 M03/M06 A2960 RMK AO2 T10281056,M
ALO,2022-01-24 13:54,28.00,23.00,81.25,330.00,16.00,0.00,29.60,1003.70,10.00,M,OVC,M,M,M,1900.00,M,M,M,M,M,M,M,M,M,M,15.20,KALO 241354Z 33016KT 10SM OVC019 M02/M05 A2960 RMK AO2 SLP037 T10221050,M
ALO,2022-01-24 14:20,28.00,21.90,77.57,330.00,15.00,0.00,29.62,M,10.00,23.00,OVC,M,M,M,1300.00,M,M,M,M,M,M,M,M,M,M,15.59,KALO 241420Z 33015G23KT 10SM OVC013 M02/M06 A2962 RMK AO2 T10221056,M
ALO,2022-01-24 14:28,27.00,21.90,80.83,330.00,16.00,0.00,29.63,M,10.00,26.00,BKN,OVC,M,M,1500.00,2000.00,M,M,M,M,M,M,26.00,330.00,2022-01-24 14:25,13.90,KALO 241428Z 33016G26KT 10SM BKN015 OVC020 M03/M06 A2963 RMK AO2 PK WND 33026/1425 T10281056,M
ALO,2022-01-24 14:54,26.10,21.00,80.75,320.00,15.00,0.00,29.65,1005.50,8.00,M,BKN,OVC,M,M,1700.00,2400.00,M,M,M,M,M,M,26.00,330.00,2022-01-24 14:25,13.13,KALO 241454Z 32015KT 8SM BKN017 OVC024 M03/M06 A2965 RMK AO2 PK WND 33026/1425 SLP055 60000 T10331061 53021,M
ALO,2022-01-24 15:20,25.00,19.90,80.66,320.00,16.00,0.00,29.68,M,10.00,M,OVC,M,M,M,1300.00,M,M,M,M,M,M,M,M,M,M,11.29,KALO 241520Z 32016KT 10SM OVC013 M04/M07 A2968 RMK AO2 T10391067,M
ALO,2022-01-24 15:54,21.90,17.10,81.46,330.00,17.00,0.00,29.71,1007.70,10.00,M,OVC,M,M,M,1500.00,M,M,M,M,M,M,M,M,M,M,6.84,KALO 241554Z 33017KT 10SM OVC015 M06/M08 A2971 RMK AO2 SLP077 T10561083,M
ALO,2022-01-24 16:34,19.90,14.00,77.48,330.00,16.00,0.00,29.75,M,6.00,25.00,OVC,M,M,M,1400.00,M,M,M,HZ,M,M,M,26.00,320.00,2022-01-24 16:24,4.65,KALO 241634Z 33016G25KT 6SM HZ OVC014 M07/M10 A2975 RMK AO2 PK WND 32026/1624 PRESRR T10671100,M
ALO,2022-01-24 16:49,19.40,12.20,73.13,320.00,19.00,0.00,29.77,M,7.00,M,OVC,M,M,M,1500.00,M,M,M,M,M,M,M,26.00,320.00,2022-01-24 16:24,2.77,KALO 241649Z 32019KT 7SM OVC015 M07/M11 A2977 RMK AO2 PK WND 32026/1624 PRESRR,M
ALO,2022-01-24 16:54,19.90,12.90,73.83,320.00,19.00,0.00,29.77,1009.70,7.00,M,OVC,M,M,M,1500.00,M,M,M,M,M,M,M,26.00,320.00,2022-01-24 16:24,3.44,KALO 241654Z 32019KT 7SM OVC015 M07/M11 A2977 RMK AO2 PK WND 32026/1624 SLP097 T10671106,M
ALO,2022-01-24 17:54,17.10,9.00,69.99,320.00,17.00,T,29.81,1010.80,8.00,M,OVC,M,M,M,2800.00,M,M,M,M,M,M,M,27.00,320.00,2022-01-24 17:07,0.56,KALO 241754Z 32017KT 8SM OVC028 M08/M13 A2981 RMK AO2 PK WND 32027/1707 SNB09E47 SLP108 P0000 60000 T10831128 11022 21083 51030,M
ALO,2022-01-24 18:54,15.10,7.00,69.75,320.00,19.00,T,29.84,1011.90,4.00,M,OVC,M,M,M,2300.00,M,M,M,-SN,M,M,M,26.00,320.00,2022-01-24 18:52,-2.91,KALO 241854Z 32019KT 4SM -SN OVC023 M09/M14 A2984 RMK AO2 PK WND 32026/1852 SNB09E27B45 SLP119 P0000 T10941139,M
ALO,2022-01-24 19:54,14.00,6.10,70.26,330.00,19.00,T,29.86,1012.70,6.00,M,BKN,M,M,M,1600.00,M,M,M,HZ,M,M,M,27.00,340.00,2022-01-24 19:45,-4.37,KALO 241954Z 33019KT 6SM HZ BKN016 M10/M14 A2986 RMK AO2 PK WND 34027/1945 SNE1859 SLP127 P0000 T11001144,M
ALO,2022-01-24 20:24,12.90,5.00,70.13,340.00,21.00,0.00,29.88,M,8.00,M,SCT,M,M,M,1600.00,M,M,M,M,M,M,M,27.00,310.00,2022-01-24 20:10,-6.62,KALO 242024Z 34021KT 8SM SCT016 M11/M15 A2988 RMK AO2 PK WND 31027/2010 T11061150,M
ALO,2022-01-24 20:54,12.90,3.90,66.67,330.00,22.00,0.00,29.89,1013.70,6.00,29.00,FEW,M,M,M,1500.00,M,M,M,HZ,M,M,M,29.00,330.00,2022-01-24 20:51,-7.00,KALO 242054Z 33022G29KT 6SM HZ FEW015 M11/M16 A2989 RMK AO2 PK WND 33029/2051 SLP137 60000 T11061156 51028,M
ALO,2022-01-24 21:54,10.90,3.00,69.89,320.00,20.00,0.00,29.94,1015.50,7.00,29.00,CLR,M,M,M,M,M,M,M,M,M,M,M,29.00,330.00,2022-01-24 21:47,-8.89,KALO 242154Z 32020G29KT 7SM CLR M12/M16 A2994 RMK AO2 PK WND 33029/2147 SLP155 T11171161,M
ALO,2022-01-24 22:54,9.00,1.00,69.33,320.00,14.00,0.00,29.98,1016.80,10.00,M,CLR,M,M,M,M,M,M,M,M,M,M,M,26.00,320.00,2022-01-24 22:13,-8.48,KALO 242254Z 32014KT 10SM CLR M13/M17 A2998 RMK AO2 PK WND 32026/2213 SLP168 T11281172,M
ALO,2022-01-24 23:54,8.10,-0.90,66.04,310.00,11.00,0.00,30.02,1018.30,10.00,M,CLR,M,M,M,M,M,M,M,M,M,M,M,M,M,M,-7.74,KALO 242354Z 31011KT 10SM CLR M13/M18 A3002 RMK AO2 SLP183 60000 T11331183 11083 21133 51044,M
ALO,2022-01-25 00:54,5.00,-2.90,69.16,290.00,7.00,0.00,30.06,1019.60,10.00,M,CLR,M,M,M,M,M,M,M,M,M,M,M,M,M,M,-8.13,KALO 250054Z 29007KT 10SM CLR M15/M19 A3006 RMK AO2 SLP196 T11501194,M
ALO,2022-01-25 01:54,3.90,-2.90,72.74,290.00,7.00,0.00,30.08,1020.30,10.00,17.00,CLR,M,M,M,M,M,M,M,M,M,M,M,M,M,M,-9.47,KALO 250154Z 29007G17KT 10SM CLR M16/M19 A3008 RMK AO2 SLP203 T11561194,M
ALO,2022-01-25 02:54,1.90,-5.10,71.82,310.00,10.00,0.00,30.10,1021.00,10.00,M,CLR,M,M,M,M,M,M,M,M,M,M,M,M,M,M,-14.78,KALO 250254Z AUTO 31010KT 10SM CLR M17/M21 A3010 RMK AO2 SLP210 T11671206 51025,M
ALO,2022-01-25 03:54,0.00,-7.10,71.25,310.00,10.00,0.00,30.11,1021.70,10.00,M,CLR,M,M,M,M,M,M,M,M,M,M,M,M,M,M,-17.16,KALO 250354Z AUTO 31010KT 10SM CLR M18/M22 A3011 RMK AO2 SLP217 T11781217,M
ALO,2022-01-25 04:54,-2.00,-8.00,74.93,320.00,10.00,0.00,30.14,1022.50,10.00,M,CLR,M,M,M,M,M,M,M,M,M,M,M,M,M,M,-19.67,KALO 250454Z AUTO 32010KT 10SM CLR M19/M22 A3014 RMK AO2 SLP225 T11891222,M
ALO,2022-01-25 05:54,-2.00,-9.00,71.35,320.00,14.00,0.00,30.15,1023.10,10.00,M,CLR,M,M,M,M,M,M,M,M,M,M,M,M,M,M,-22.66,KALO 250554Z AUTO 32014KT 10SM CLR M19/M23 A3015 RMK AO2 SLP231 T11891228 11139 21189 410221189 53018,M
ALO,2022-01-25 06:54,-4.00,-9.90,75.09,320.00,10.00,0.00,30.17,1023.70,10.00,M,CLR,M,M,M,M,M,M,M,M,M,M,M,M,M,M,-22.18,KALO 250654Z AUTO 32010KT 10SM CLR M20/M23 A3017 RMK AO2 SLP237 T12001233,M
ALO,2022-01-25 07:54,-5.10,-11.90,71.69,320.00,9.00,0.00,30.19,1024.40,10.00,M,CLR,M,M,M,M,M,M,M,M,M,M,M,M,M,M,-22.62,KALO 250754Z AUTO 32009KT 10SM CLR M21/M24 A3019 RMK AO2 SLP244 T12061244,M
ALO,2022-01-25 08:54,-7.10,-14.10,70.73,300.00,4.00,0.00,30.23,1026.00,10.00,M,CLR,M,M,M,M,M,M,M,M,M,M,M,M,M,M,-18.24,KALO 250854Z AUTO 30004KT 10SM CLR M22/M26 A3023 RMK AO2 SLP260 T12171256 53026,M
ALO,2022-01-25 09:54,-9.00,-15.00,74.16,280.00,6.00,0.00,30.25,1026.60,10.00,M,CLR,M,M,M,M,M,M,M,M,M,M,M,M,M,M,-23.85,KALO 250954Z AUTO 28006KT 10SM CLR M23/M26 A3025 RMK AO2 SLP266 T12281261,M
ALO,2022-01-25 10:54,-9.00,-16.10,70.14,290.00,5.00,0.00,30.27,1027.50,10.00,M,CLR,M,M,M,M,M,M,M,M,M,M,M,M,M,M,-22.30,KALO 251054Z AUTO 29005KT 10SM CLR M23/M27 A3027 RMK AO2 SLP275 T12281267,M
ALO,2022-01-25 11:54,-9.90,-17.00,70.02,280.00,6.00,0.00,30.30,1028.30,10.00,M,CLR,M,M,M,M,M,M,M,M,M,M,M,M,M,M,-24.93,KALO 251154Z 28006KT 10SM CLR M23/M27 A3030 RMK AO2 SLP283 T12331272 11189 21239 53020,M
ALO,2022-01-25 12:54,-11.00,-18.00,70.24,300.00,5.00,0.00,30.32,1029.20,10.00,M,CLR,M,M,M,M,M,M,M,M,M,M,M,M,M,M,-24.67,KALO 251254Z 30005KT 10SM CLR M24/M28 A3032 RMK AO2 SLP292 T12391278,M
ALO,2022-01-25 13:54,-11.00,-18.00,70.24,290.00,5.00,0.00,30.34,1030.10,10.00,M,CLR,M,M,M,M,M,M,M,M,M,M,M,M,M,M,-24.67,KALO 251354Z 29005KT 10SM CLR M24/M28 A3034 RMK AO2 SLP301 T12391278,M
ALO,2022-01-25 14:54,-8.00,-16.10,66.79,310.00,10.00,0.00,30.37,1030.90,10.00,M,CLR,M,M,M,M,M,M,M,M,M,M,M,M,M,M,-27.19,KALO 251454Z 31010KT 10SM CLR M22/M27 A3037 RMK AO2 SLP309 T12221267 53024,M
ALO,2022-01-25 15:54,-6.00,-15.00,64.08,290.00,8.00,0.00,30.40,1032.00,10.00,M,CLR,M,M,M,M,M,M,M,M,M,M,M,M,M,M,-22.70,KALO 251554Z 29008KT 10SM CLR M21/M26 A3040 RMK AO2 SLP320 T12111261,M
ALO,2022-01-25 16:54,-4.00,-13.00,64.37,300.00,8.00,0.00,30.42,1032.70,10.00,M,CLR,M,M,M,M,M,M,M,M,M,M,M,M,M,M,-20.23,KALO 251654Z 30008KT 10SM CLR M20/M25 A3042 RMK AO2 SLP327 T12001250,M
ALO,2022-01-25 17:54,-2.00,-11.90,61.83,310.00,8.00,0.00,30.41,1032.40,10.00,M,CLR,M,M,M,M,M,M,M,M,M,M,M,M,M,M,-17.77,KALO 251754Z 31008KT 10SM CLR M19/M24 A3041 RMK AO2 SLP324 T11891244 11189 21244 50015,M
ALO,2022-01-25 18:54,1.00,-9.90,59.28,300.00,6.00,0.00,30.39,1031.70,10.00,M,CLR,M,M,M,M,M,M,M,M,M,M,M,M,M,M,-11.81,KALO 251854Z 30006KT 10SM CLR M17/M23 A3039 RMK AO2 SLP317 T11721233,M
ALO,2022-01-25 19:54,3.90,-8.00,56.89,300.00,8.00,0.00,30.39,1031.50,10.00,M,CLR,M,M,M,M,M,M,M,M,M,M,M,M,M,M,-10.50,KALO 251954Z 30008KT 10SM CLR M16/M22 A3039 RMK AO2 SLP315 T11561222,M
ALO,2022-01-25 20:54,3.90,-7.10,59.44,290.00,9.00,0.00,30.40,1031.80,10.00,M,CLR,M,M,M,M,M,M,M,M,M,M,M,M,M,M,-11.43,KALO 252054Z 29009KT 10SM CLR M16/M22 A3040 RMK AO2 SLP318 T11561217 55005,M
ALO,2022-01-25 21:54,3.00,-7.10,61.96,300.00,9.00,0.00,30.42,1032.80,10.00,M,CLR,M,M,M,M,M,M,M,M,M,M,M,M,M,M,-12.55,KALO 252154Z 30009KT 10SM CLR M16/M22 A3042 RMK AO2 SLP328 T11611217,M
ALO,2022-01-25 22:54,1.90,-9.00,59.42,300.00,9.00,0.00,30.44,1033.40,10.00,M,CLR,M,M,M,M,M,M,M,M,M,M,M,M,M,M,-13.91,KALO 252254Z 30009KT 10SM CLR M17/M23 A3044 RMK AO2 SLP334 T11671228,M
ALO,2022-01-25 23:54,0.00,-9.90,62.12,290.00,7.00,0.00,30.46,1034.20,10.00,M,CLR,M,M,M,M,M,M,M,M,M,M,M,M,M,M,-14.23,KALO 252354Z 29007KT 10SM CLR M18/M23 A3046 RMK AO2 SLP342 T11781233 11156 21189 51022,M
ALO,2022-01-26 00:54,-2.90,-11.90,64.53,290.00,5.00,0.00,30.48,1034.90,10.00,M,CLR,M,M,M,M,M,M,M,M,M,M,M,M,M,M,-15.05,KALO 260054Z 29005KT 10SM CLR M19/M24 A3048 RMK AO2 SLP349 T11941244,M
ALO,2022-01-26 01:54,-5.10,-11.90,71.69,300.00,4.00,0.00,30.49,1035.40,10.00,M,CLR,M,M,M,M,M,M,M,M,M,M,M,M,M,M,-15.90,KALO 260154Z 30004KT 10SM CLR M21/M24 A3049 RMK AO2 SLP354 T12061244,M
ALO,2022-01-26 02:54,-4.00,-11.90,68.00,290.00,9.00,0.00,30.49,1035.20,10.00,M,CLR,M,M,M,M,M,M,M,M,M,M,M,M,M,M,-21.25,KALO 260254Z AUTO 29009KT 10SM CLR M20/M24 A3049 RMK AO2 SLP352 T12001244 50009,M
ALO,2022-01-26 03:54,-7.10,-14.10,70.73,310.00,6.00,0.00,30.49,1035.40,10.00,M,CLR,M,M,M,M,M,M,M,M,M,M,M,M,M,M,-21.56,KALO 260354Z AUTO 31006KT 10SM CLR M22/M26 A3049 RMK AO2 SLP354 T12171256,M
ALO,2022-01-26 04:54,-9.00,-16.10,70.14,310.00,6.00,0.00,30.49,1035.20,10.00,M,CLR,M,M,M,M,M,M,M,M,M,M,M,M,M,M,-23.85,KALO 260454Z AUTO 31006KT 10SM CLR M23/M27 A3049 RMK AO2 SLP352 T12281267,M
ALO,2022-01-26 05:54,-9.00,-16.10,70.14,300.00,5.00,0.00,30.49,1035.10,10.00,M,CLR,M,M,M,M,M,M,M,M,M,M,M,M,M,M,-22.30,KALO 260554Z AUTO 30005KT 10SM CLR M23/M27 A3049 RMK AO2 SLP351 T12281267 11178 21228 411561244 50000,M
ALO,2022-01-26 06:54,-9.90,-18.00,66.53,0.00,0.00,0.00,30.48,1035.00,10.00,M,CLR,M,M,M,M,M,M,M,M,M,M,M,M,M,M,-9.90,KALO 260654Z AUTO 00000KT 10SM CLR M23/M28 A3048 RMK AO2 SLP350 T12331278,M
ALO,2022-01-26 07:54,-11.00,-18.00,70.24,310.00,4.00,0.00,30.48,1034.90,10.00,M,CLR,M,M,M,M,M,M,M,M,M,M,M,M,M,M,-22.79,KALO 260754Z AUTO 31004KT 10SM CLR M24/M28 A3048 RMK AO2 SLP349 T12391278,M
ALO,2022-01-26 08:54,-15.00,-20.90,73.86,240.00,4.00,0.00,30.48,1034.90,10.00,M,CLR,M,M,M,M,M,M,M,M,M,M,M,M,M,M,-27.46,KALO 260854Z AUTO 24004KT 10SM CLR M26/M29 A3048 RMK AO2 SLP349 T12611294 56002,M
ALO,2022-01-26 09:54,-14.10,-20.90,70.58,260.00,3.00,0.00,30.48,1034.80,10.00,M,CLR,M,M,M,M,M,M,M,M,M,M,M,M,M,M,-24.01,KALO 260954Z AUTO 26003KT 10SM CLR M26/M29 A3048 RMK AO2 SLP348 T12561294,M
ALO,2022-01-26 10:54,-16.10,-24.00,66.36,0.00,0.00,0.00,30.47,1034.50,10.00,M,CLR,M,M,M,M,M,M,M,M,M,M,M,M,M,M,-16.10,KALO 261054Z AUTO 00000KT 10SM CLR M27/M31 A3047 RMK AO2 SLP345 T12671311,M
ALO,2022-01-26 11:54,-18.00,-24.00,73.12,0.00,0.00,0.00,30.45,1034.10,10.00,M,CLR,M,M,M,M,M,M,M,M,M,M,M,M,M,M,-18.00,KALO 261154Z 00000KT 10SM CLR M28/M31 A3045 RMK AO2 SLP341 T12781311 11228 21278 58010,M
ALO,2022-01-26 12:54,-16.10,-24.00,66.36,160.00,3.00,0.00,30.44,1033.80,10.00,M,CLR,M,M,M,M,M,M,M,M,T,M,M,M,M,M,-26.30,KALO 261254Z 16003KT 10SM CLR M27/M31 A3044 RMK AO2 SLP338 I1000 T12671311,M
ALO,2022-01-26 13:54,-14.10,-20.00,73.96,140.00,4.00,0.00,30.42,1033.10,10.00,M,CLR,M,M,M,M,M,M,M,M,M,M,M,M,M,M,-26.41,KALO 261354Z 14004KT 10SM CLR M26/M29 A3042 RMK AO2 SLP331 T12561289,M
ALO,2022-01-26 14:54,-9.00,-13.00,82.02,180.00,6.00,0.00,30.40,1032.30,10.00,M,CLR,M,M,M,M,M,M,M,M,M,T,M,M,M,M,-23.85,KALO 261454Z 18006KT 10SM CLR M23/M25 A3040 RMK AO2 SLP323 I3000 T12281250 58016,M
ALO,2022-01-26 15:54,-2.90,-11.90,64.53,180.00,9.00,0.00,30.38,1031.50,10.00,M,CLR,M,M,M,M,M,M,M,M,M,M,M,M,M,M,-19.88,KALO 261554Z 18009KT 10SM CLR M19/M24 A3038 RMK AO2 SLP315 T11941244,M
ALO,2022-01-26 16:54,1.00,-9.00,61.96,190.00,12.00,0.00,30.36,1030.70,10.00,M,CLR,M,M,M,M,M,M,M,M,M,M,M,M,M,M,-17.45,KALO 261654Z 19012KT 10SM CLR M17/M23 A3036 RMK AO2 SLP307 T11721228,M
ALO,2022-01-26 17:54,5.00,-6.00,59.60,190.00,14.00,0.00,30.32,1029.20,10.00,M,CLR,M,M,M,M,M,M,M,M,M,M,T,M,M,M,-13.64,KALO 261754Z 19014KT 10SM CLR M15/M21 A3032 RMK AO2 SLP292 I6000 T11501211 11150 21278 58028,M
ALO,2022-01-26 18:54,9.00,-2.00,60.21,170.00,11.00,0.00,30.27,1027.40,10.00,M,CLR,M,M,M,M,M,M,M,M,M,M,M,M,M,M,-6.60,KALO 261854Z 17011KT 10SM CLR M13/M19 A3027 RMK AO2 SLP274 T11281189,M
ALO,2022-01-26 19:54,12.00,0.00,57.88,170.00,16.00,0.00,30.21,1025.30,10.00,23.00,CLR,M,M,M,M,M,M,M,M,M,M,M,M,M,M,-5.65,KALO 261954Z 17016G23KT 10SM CLR M11/M18 A3021 RMK AO2 SLP253 T11111178,M
ALO,2022-01-26 20:54,14.00,3.00,60.94,170.00,15.00,0.00,30.17,1024.10,10.00,23.00,CLR,M,M,M,M,M,M,M,M,M,M,M,26.00,190.00,2022-01-26 20:19,-2.56,KALO 262054Z 17015G23KT 10SM CLR M10/M16 A3017 RMK AO2 PK WND 19026/2019 SLP241 T11001161 56048,M
ALO,2022-01-26 21:54,16.00,3.90,58.22,180.00,15.00,0.00,30.15,1023.30,10.00,M,CLR,M,M,M,M,M,M,M,M,M,M,M,26.00,170.00,2022-01-26 21:23,0.04,KALO 262154Z 18015KT 10SM CLR M09/M16 A3015 RMK AO2 PK WND 17026/2123 SLP233 T10891156,M
ALO,2022-01-26 22:54,16.00,5.00,61.23,180.00,12.00,0.00,30.12,1022.50,10.00,21.00,CLR,M,M,M,M,M,M,M,M,M,M,M,M,M,M,1.64,KALO 262254Z 18012G21KT 10SM CLR M09/M15 A3012 RMK AO2 SLP225 T10891150,M
ALO,2022-01-26 23:54,16.00,5.00,61.23,170.00,9.00,0.00,30.12,1022.40,10.00,M,CLR,M,M,M,M,M,M,M,M,M,M,M,M,M,M,3.62,KALO 262354Z 17009KT 10SM CLR M09/M15 A3012 RMK AO2 SLP224 T10891150 11089 21150 56016,M
ALO,2022-01-27 00:54,16.00,5.00,61.23,170.00,12.00,0.00,30.09,1021.40,10.00,M,CLR,M,M,M,M,M,M,M,M,M,M,M,M,M,M,1.64,KALO 270054Z 17012KT 10SM CLR M09/M15 A3009 RMK AO2 SLP214 T10891150,M
ALO,2022-01-27 01:54,16.00,5.00,61.23,180.00,13.00,0.00,30.08,1021.00,10.00,M,CLR,M,M,M,M,M,M,M,M,M,M,M,M,M,M,1.07,KALO 270154Z 18013KT 10SM CLR M09/M15 A3008 RMK AO2 SLP210 T10891150,M
ALO,2022-01-27 02:54,16.00,6.10,64.39,170.00,10.00,0.00,30.07,1020.30,10.00,M,CLR,M,M,M,M,M,M,M,M,M,M,M,M,M,M,2.90,KALO 270254Z AUTO 17010KT 10SM CLR M09/M14 A3007 RMK AO2 SLP203 T10891144 56018,M
ALO,2022-01-27 03:54,17.10,7.00,63.95,180.00,10.00,0.00,30.05,1019.60,10.00,M,CLR,M,M,M,M,M,M,M,M,M,M,M,M,M,M,4.28,KALO 270354Z AUTO 18010KT 10SM CLR M08/M14 A3005 RMK AO2 SLP196 T10831139,M
ALO,2022-01-27 04:54,19.00,8.10,61.94,180.00,12.00,0.00,30.02,1018.50,10.00,M,CLR,M,M,M,M,M,M,M,M,M,M,M,M,M,M,5.46,KALO 270454Z AUTO 18012KT 10SM CLR M07/M13 A3002 RMK AO2 SLP185 T10721133,M
ALO,2022-01-27 05:54,21.90,10.00,59.63,180.00,11.00,0.00,30.01,1017.70,10.00,M,SCT,M,M,M,5500.00,M,M,M,M,M,M,M,M,M,M,9.70,KALO 270554Z AUTO 18011KT 10SM SCT055 M06/M12 A3001 RMK AO2 SLP177 T10561122 11056 21094 410561278 56020,M
ALO,2022-01-27 06:54,24.10,10.90,56.59,210.00,12.00,0.00,29.99,1017.20,10.00,M,BKN,OVC,M,M,6000.00,11000.00,M,M,M,M,M,M,M,M,M,11.95,KALO 270654Z AUTO 21012KT 10SM BKN060 OVC110 M04/M12 A2999 RMK AO2 SLP172 T10441117,M
ALO,2022-01-27 07:54,25.00,12.90,59.55,220.00,12.00,0.00,29.98,1016.60,10.00,M,OVC,M,M,M,6500.00,M,M,M,M,M,M,M,M,M,M,13.09,KALO 270754Z AUTO 22012KT 10SM OVC065 M04/M11 A2998 RMK AO2 SLP166 T10391106,M
ALO,2022-01-27 08:54,24.10,12.90,61.83,230.00,10.00,0.00,29.98,1016.70,10.00,M,FEW,M,M,M,11000.00,M,M,M,M,M,M,M,M,M,M,13.06,KALO 270854Z AUTO 23010KT 10SM FEW110 M04/M11 A2998 RMK AO2 SLP167 T10441106 55008,M
ALO,2022-01-27 09:54,24.10,14.00,64.89,230.00,9.00,0.00,29.98,1016.80,10.00,M,CLR,M,M,M,M,M,M,M,M,M,M,M,M,M,M,13.69,KALO 270954Z AUTO 23009KT 10SM CLR M04/M10 A2998 RMK AO2 SLP168 T10441100,M
ALO,2022-01-27 10:54,26.10,16.00,65.16,240.00,8.00,0.00,29.99,1016.90,10.00,M,FEW,OVC,M,M,4200.00,5500.00,M,M,M,M,M,M,M,M,M,16.85,KALO 271054Z AUTO 24008KT 10SM FEW042 OVC055 M03/M09 A2999 RMK AO2 SLP169 T10331089,M
ALO,2022-01-27 11:54,27.00,17.10,65.84,250.00,9.00,0.00,30.01,1017.60,10.00,M,OVC,M,M,M,4400.00,M,M,M,M,M,M,M,M,M,M,17.30,KALO 271154Z 25009KT 10SM OVC044 M03/M08 A3001 RMK AO2 SLP176 T10281083 11028 21056 53010,M
ALO,2022-01-27 12:54,27.00,19.00,71.45,260.00,9.00,0.00,30.03,1018.30,10.00,M,OVC,M,M,M,4500.00,M,M,M,M,M,M,M,M,M,M,17.30,KALO 271254Z 26009KT 10SM OVC045 M03/M07 A3003 RMK AO2 SLP183 T10281072,M
ALO,2022-01-27 13:54,28.00,19.90,71.25,260.00,7.00,0.00,30.04,1018.80,10.00,M,OVC,M,M,M,4600.00,M,M,M,M,M,M,M,M,M,M,19.90,KALO 271354Z 26007KT 10SM OVC046 M02/M07 A3004 RMK AO2 SLP188 T10221067,M
ALO,2022-01-27 14:54,30.90,24.10,75.59,280.00,7.00,0.00,30.08,1019.80,10.00,M,OVC,M,M,M,4600.00,M,M,M,M,M,M,M,M,M,M,23.44,KALO 271454Z 28007KT 10SM OVC046 M01/M04 A3008 RMK AO2 SLP198 T10061044 53022,M
ALO,2022-01-27 15:54,33.10,26.10,75.18,310.00,11.00,0.00,30.09,1020.30,10.00,M,OVC,M,M,M,4500.00,M,M,M,M,M,M,M,M,M,M,23.86,KALO 271554Z 31011KT 10SM OVC045 01/M03 A3009 RMK AO2 SLP203 T00061033,M
ALO,2022-01-27 16:54,34.00,27.00,75.26,310.00,12.00,0.00,30.13,1021.50,10.00,M,OVC,M,M,M,4300.00,M,M,M,M,M,M,M,M,M,M,24.55,KALO 271654Z 31012KT 10SM OVC043 01/M03 A3013 RMK AO2 SLP215 T00111028,M
ALO,2022-01-27 17:54,34.00,27.00,75.26,300.00,13.00,0.00,30.13,1021.60,10.00,M,OVC,M,M,M,4200.00,M,M,M,M,M,M,M,M,M,M,24.13,KALO 271754Z 30013KT 10SM OVC042 01/M03 A3013 RMK AO2 SLP216 T00111028 10011 21028 51019,M
ALO,2022-01-27 18:54,35.10,26.10,69.41,320.00,12.00,0.00,30.13,1021.30,10.00,21.00,OVC,M,M,M,4200.00,M,M,M,M,M,M,M,M,M,M,25.95,KALO 271854Z 32012G21KT 10SM OVC042 02/M03 A3013 RMK AO2 SLP213 T00171033,M
ALO,2022-01-27 19:54,34.00,25.00,69.28,320.00,17.00,0.00,30.14,1021.50,10.00,M,FEW,OVC,M,M,2900.00,4100.00,M,M,M,M,M,M,M,M,M,22.70,KALO 271954Z 32017KT 10SM FEW029 OVC041 01/M04 A3014 RMK AO2 SLP215 T00111039,M
ALO,2022-01-27 20:54,34.00,24.10,66.72,310.00,15.00,0.00,30.15,1022.20,10.00,24.00,FEW,SCT,BKN,M,2800.00,3400.00,4700.00,M,M,M,M,M,M,M,M,23.37,KALO 272054Z 31015G24KT 10SM FEW028 SCT034 BKN047 01/M04 A3015 RMK AO2 SLP222 T00111044 53006,M
ALO,2022-01-27 21:54,33.10,21.00,60.71,320.00,17.00,0.00,30.17,1022.80,10.00,M,SCT,SCT,BKN,M,3000.00,3600.00,4400.00,M,M,M,M,M,28.00,330.00,2022-01-27 21:34,21.52,KALO 272154Z 32017KT 10SM SCT030 SCT036 BKN044 01/M06 A3017 RMK AO2 PK WND 33028/2134 SLP228 T00061061,M
ALO,2022-01-27 22:54,30.00,19.00,63.18,330.00,15.00,0.00,30.21,1024.10,10.00,25.00,SCT,M,M,M,4400.00,M,M,M,M,M,M,M,28.00,330.00,2022-01-27 22:16,18.19,KALO 272254Z 33015G25KT 10SM SCT044 M01/M07 A3021 RMK AO2 PK WND 33028/2216 SLP241 T10111072,M
ALO,2022-01-27 23:54,26.10,18.00,71.04,310.00,15.00,0.00,30.24,1025.20,10.00,M,FEW,M,M,M,2400.00,M,M,M,M,M,M,M,M,M,M,13.13,KALO 272354Z 31015KT 10SM FEW024 M03/M08 A3024 RMK AO2 SLP252 T10331078 10017 21033 53028,M
ALO,2022-01-28 00:54,21.90,15.10,74.69,320.00,10.00,0.00,30.27,1026.40,10.00,19.00,SCT,M,M,M,4500.00,M,M,M,M,M,M,M,M,M,M,10.30,KALO 280054Z 32010G19KT 10SM SCT045 M06/M09 A3027 RMK AO2 SLP264 T10561094,M
ALO,2022-01-28 01:27,21.00,12.90,70.45,310.00,13.00,0.00,30.29,M,10.00,M,BKN,M,M,M,2800.00,M,M,M,M,M,M,M,M,M,M,7.48,KALO 280127Z 31013KT 10SM BKN028 M06/M11 A3029 RMK AO2 T10611106,M
ALO,2022-01-28 01:45,19.90,10.90,67.57,320.00,15.00,0.00,30.29,M,10.00,M,SCT,M,M,M,2900.00,M,M,M,M,M,M,M,M,M,M,5.09,KALO 280145Z 32015KT 10SM SCT029 M07/M12 A3029 RMK AO2 T10671117,M
ALO,2022-01-28 01:54,19.00,10.90,70.22,320.00,17.00,0.00,30.29,1027.20,10.00,25.00,FEW,M,M,M,2900.00,M,M,M,M,M,M,M,M,M,M,3.04,KALO 280154Z 32017G25KT 10SM FEW029 M07/M12 A3029 RMK AO2 SLP272 T10721117,M
ALO,2022-01-28 02:54,15.10,8.10,73.31,320.00,12.00,0.00,30.30,1027.60,10.00,M,CLR,M,M,M,M,M,M,M,M,M,M,M,M,M,M,0.49,KALO 280254Z AUTO 32012KT 10SM CLR M09/M13 A3030 RMK AO2 SLP276 T10941133 51022,M
ALO,2022-01-28 03:54,12.90,6.10,73.74,320.00,12.00,0.00,30.32,1028.20,10.00,M,CLR,M,M,M,M,M,M,M,M,M,M,M,M,M,M,-2.31,KALO 280354Z AUTO 32012KT 10SM CLR M11/M14 A3032 RMK AO2 SLP282 T11061144,M
ALO,2022-01-28 04:54,10.90,3.00,69.89,330.00,11.00,0.00,30.34,1028.90,10.00,M,CLR,M,M,M,M,M,M,M,M,M,M,M,M,M,M,-4.20,KALO 280454Z AUTO 33011KT 10SM CLR M12/M16 A3034 RMK AO2 SLP289 T11171161,M
ALO,2022-01-28 05:54,9.00,1.00,69.33,330.00,11.00,0.00,30.36,1029.40,10.00,M,FEW,M,M,M,3900.00,M,M,M,M,M,M,M,M,M,M,-6.60,KALO 280554Z AUTO 33011KT 10SM FEW039 M13/M17 A3036 RMK AO2 SLP294 T11281172 11033 21128 400171128 51017,M
ALO,2022-01-28 06:54,7.00,0.00,72.41,330.00,11.00,0.00,30.36,1029.70,10.00,M,OVC,M,M,M,4000.00,M,M,M,M,M,M,M,M,M,M,-9.13,KALO 280654Z AUTO 33011KT 10SM OVC040 M14/M18 A3036 RMK AO2 SLP297 T11391178,M
ALO,2022-01-28 07:54,5.00,-2.00,72.18,320.00,11.00,0.00,30.37,1030.10,10.00,M,FEW,M,M,M,4300.00,M,M,M,M,M,M,M,M,M,M,-11.65,KALO 280754Z AUTO 32011KT 10SM FEW043 M15/M19 A3037 RMK AO2 SLP301 T11501189,M
ALO,2022-01-28 08:54,3.00,-4.00,71.95,320.00,11.00,0.00,30.39,1030.60,10.00,M,CLR,M,M,M,M,M,M,M,M,M,M,M,M,M,M,-14.18,KALO 280854Z AUTO 32011KT 10SM CLR M16/M20 A3039 RMK AO2 SLP306 T11611200 53010,M
ALO,2022-01-28 09:54,1.00,-6.00,71.71,320.00,6.00,0.00,30.38,1030.60,10.00,M,CLR,M,M,M,M,M,M,M,M,M,M,M,M,M,M,-11.81,KALO 280954Z AUTO 32006KT 10SM CLR M17/M21 A3038 RMK AO2 SLP306 T11721211,M
ALO,2022-01-28 10:54,0.00,-7.10,71.25,310.00,7.00,0.00,30.40,1031.20,10.00,M,CLR,M,M,M,M,M,M,M,M,M,M,M,M,M,M,-14.23,KALO 281054Z AUTO 31007KT 10SM CLR M18/M22 A3040 RMK AO2 SLP312 T11781217,M
ALO,2022-01-28 11:54,-2.90,-9.00,74.47,300.00,6.00,0.00,30.41,1031.50,10.00,M,CLR,M,M,M,M,M,M,M,M,M,M,M,M,M,M,-16.50,KALO 281154Z 30006KT 10SM CLR M19/M23 A3041 RMK AO2 SLP315 T11941228 11128 21194 53006,M
ALO,2022-01-28 12:54,-4.00,-9.90,75.09,310.00,5.00,0.00,30.42,1032.10,10.00,M,CLR,M,M,M,M,M,M,M,M,M,M,M,M,M,M,-16.36,KALO 281254Z 31005KT 10SM CLR M20/M23 A3042 RMK AO2 SLP321 T12001233,M
ALO,2022-01-28 13:54,-5.10,-11.00,74.97,300.00,5.00,0.00,30.43,1032.60,10.00,M,CLR,M,M,M,M,M,M,M,M,M,M,M,M,M,M,-17.67,KALO 281354Z 30005KT 10SM CLR M21/M24 A3043 RMK AO2 SLP326 T12061239,M
ALO,2022-01-28 14:54,-2.90,-9.00,74.47,320.00,4.00,0.00,30.43,1032.70,10.00,M,CLR,M,M,M,M,M,M,M,M,M,M,M,M,M,M,-13.33,KALO 281454Z 32004KT 10SM CLR M19/M23 A3043 RMK AO2 SLP327 T11941228 51009,M
ALO,2022-01-28 15:54,1.00,-7.10,67.99,310.00,5.00,0.00,30.43,1032.70,10.00,M,CLR,M,M,M,M,M,M,M,M,M,M,M,M,M,M,-10.42,KALO 281554Z 31005KT 10SM CLR M17/M22 A3043 RMK AO2 SLP327 T11721217,M
ALO,2022-01-28 16:54,3.90,-6.00,62.69,290.00,6.00,0.00,30.45,1033.30,10.00,M,CLR,M,M,M,M,M,M,M,M,M,M,M,M,M,M,-8.31,KALO 281654Z 29006KT 10SM CLR M16/M21 A3045 RMK AO2 SLP333 T11561211,M
ALO,2022-01-28 17:54,7.00,-5.10,56.83,M,M,0.00,30.44,1032.80,10.00,M,CLR,M,M,M,M,M,M,M,M,M,M,M,M,M,M,M,KALO 281754Z 10SM CLR M14/M21 A3044 RMK AO2 SLP328 T11391206 11139 21211 50002,M
ALO,2022-01-28 18:54,10.90,-2.00,55.30,330.00,5.00,0.00,30.41,1031.70,10.00,M,CLR,M,M,M,M,M,M,M,M,M,M,M,M,M,M,1.34,KALO 281854Z 33005KT 10SM CLR M12/M19 A3041 RMK AO2 SLP317 T11171189,M
ALO,2022-01-28 19:54,14.00,-2.00,48.23,310.00,7.00,0.00,30.39,1030.90,10.00,M,FEW,M,M,M,10000.00,M,M,M,M,M,M,M,M,M,M,2.84,KALO 281954Z 31007KT 10SM FEW100 M10/M19 A3039 RMK AO2 SLP309 T11001189,M
ALO,2022-01-28 20:54,12.90,-0.90,53.32,270.00,4.00,0.00,30.37,1030.40,10.00,M,CLR,M,M,M,M,M,M,M,M,M,M,M,M,M,M,5.12,KALO 282054Z 27004KT 10SM CLR M11/M18 A3037 RMK AO2 SLP304 T11061183 56024,M
ALO,2022-01-28 21:54,12.00,0.00,57.88,250.00,7.00,0.00,30.37,1030.50,10.00,M,CLR,M,M,M,M,M,M,M,M,M,M,M,M,M,M,0.40,KALO 282154Z 25007KT 10SM CLR M11/M18 A3037 RMK AO2 SLP305 T11111178,M
ALO,2022-01-28 22:54,10.90,-0.90,58.26,250.00,6.00,0.00,30.35,1029.90,10.00,M,CLR,M,M,M,M,M,M,M,M,M,M,M,M,M,M,0.12,KALO 282254Z 25006KT 10SM CLR M12/M18 A3035 RMK AO2 SLP299 T11171183,M
ALO,2022-01-28 23:54,9.00,-2.00,60.21,250.00,5.00,0.00,30.35,1029.90,10.00,M,CLR,M,M,M,M,M,M,M,M,M,M,M,M,M,M,-0.92,KALO 282354Z 25005KT 10SM CLR M13/M19 A3035 RMK AO2 SLP299 T11281189 11100 21139 58006,M
ALO,2022-01-29 00:54,8.10,-2.00,62.70,250.00,3.00,0.00,30.34,1029.90,10.00,M,CLR,M,M,M,M,M,M,M,M,M,M,M,M,M,M,1.37,KALO 290054Z 25003KT 10SM CLR M13/M19 A3034 RMK AO2 SLP299 T11331189,M
ALO,2022-01-29 01:54,5.00,-2.90,69.16,220.00,5.00,0.00,30.33,1029.60,10.00,M,BKN,M,M,M,2500.00,M,M,M,M,M,M,M,M,M,M,-5.67,KALO 290154Z 22005KT 10SM BKN025 M15/M19 A3033 RMK AO2 SLP296 T11501194,M
ALO,2022-01-29 02:21,6.10,-2.00,68.64,200.00,3.00,0.00,30.32,M,9.00,M,SCT,M,M,M,2500.00,M,M,M,M,M,M,M,M,M,M,-0.92,KALO 290221Z 20003KT 9SM SCT025 M14/M19 A3032 RMK AO2 T11441189,M
ALO,2022-01-29 02:54,3.90,-2.90,72.74,0.00,0.00,0.00,30.31,1028.90,10.00,M,CLR,M,M,M,M,M,M,M,M,M,M,M,M,M,M,3.90,KALO 290254Z 00000KT 10SM CLR M16/M19 A3031 RMK AO2 SLP289 T11561194 58010,M
ALO,2022-01-29 03:44,1.90,-5.10,71.82,150.00,3.00,0.00,30.30,M,10.00,M,BKN,M,M,M,2800.00,M,M,M,M,M,M,M,M,M,M,-5.72,KALO 290344Z 15003KT 10SM BKN028 M17/M21 A3030 RMK AO2 T11671206,M
ALO,2022-01-29 03:54,3.90,-2.90,72.74,150.00,4.00,0.00,30.30,1028.30,10.00,M,SCT,M,M,M,2800.00,M,M,M,M,M,M,M,M,M,M,-5.39,KALO 290354Z 15004KT 10SM SCT028 M16/M19 A3030 RMK AO2 SLP283 T11561194,M
ALO,2022-01-29 04:54,3.90,-2.90,72.74,160.00,5.00,0.00,30.27,1027.40,10.00,M,BKN,M,M,M,3500.00,M,M,M,M,M,M,M,M,M,M,-6.98,KALO 290454Z 16005KT 10SM BKN035 M16/M19 A3027 RMK AO2 SLP274 T11561194,M
ALO,2022-01-29 05:54,6.10,-2.00,68.64,160.00,6.00,0.00,30.25,1026.40,10.00,M,BKN,M,M,M,3400.00,M,M,M,M,M,M,M,M,M,M,-5.66,KALO 290554Z 16006KT 10SM BKN034 M14/M19 A3025 RMK AO2 SLP264 T11441189 11122 21167 411001211 58022,M
ALO,2022-01-29 06:54,8.10,-0.90,66.04,160.00,6.00,0.00,30.24,1025.80,10.00,M,OVC,M,M,M,3400.00,M,M,M,M,M,M,M,M,M,M,-3.25,KALO 290654Z 16006KT 10SM OVC034 M13/M18 A3024 RMK AO2 SLP258 T11331183,M
ALO,2022-01-29 07:54,7.00,-2.00,65.89,150.00,5.00,0.00,30.21,1024.90,10.00,M,CLR,M,M,M,M,M,M,M,M,M,M,M,M,M,M,-3.29,KALO 290754Z 15005KT 10SM CLR M14/M19 A3021 RMK AO2 SLP249 T11391189,M
ALO,2022-01-29 08:54,7.00,-2.00,65.89,160.00,5.00,0.00,30.18,1023.80,10.00,M,CLR,M,M,M,M,M,M,M,M,M,M,M,M,M,M,-3.29,KALO 290854Z 16005KT 10SM CLR M14/M19 A3018 RMK AO2 SLP238 T11391189 58023,M
ALO,2022-01-29 09:54,7.00,-0.90,69.41,110.00,4.00,0.00,30.16,1023.10,10.00,M,CLR,M,M,M,M,M,M,M,M,M,M,M,M,M,M,-1.77,KALO 290954Z 11004KT 10SM CLR M14/M18 A3016 RMK AO2 SLP231 T11391183,M
ALO,2022-01-29 10:54,7.00,-0.90,69.41,130.00,5.00,0.00,30.13,1022.50,10.00,M,CLR,M,M,M,M,M,M,M,M,M,M,M,M,M,M,-3.29,KALO 291054Z 13005KT 10SM CLR M14/M18 A3013 RMK AO2 SLP225 T11391183,M
ALO,2022-01-29 11:54,7.00,-0.90,69.41,140.00,4.00,0.00,30.11,1021.50,10.00,M,CLR,M,M,M,M,M,M,M,M,M,M,M,M,M,M,-1.77,KALO 291154Z 14004KT 10SM CLR M14/M18 A3011 RMK AO2 SLP215 T11391183 11133 21150 58023,M
ALO,2022-01-29 12:54,7.00,-0.90,69.41,150.00,7.00,0.00,30.08,1020.70,10.00,M,CLR,M,M,M,M,M,M,M,M,M,M,M,M,M,M,-5.69,KALO 291254Z 15007KT 10SM CLR M14/M18 A3008 RMK AO2 SLP207 T11391183,M
ALO,2022-01-29 13:54,8.10,0.00,68.90,140.00,7.00,0.00,30.08,1020.60,10.00,M,CLR,M,M,M,M,M,M,M,M,M,M,M,M,M,M,-4.35,KALO 291354Z 14007KT 10SM CLR M13/M18 A3008 RMK AO2 SLP206 T11331178,M
ALO,2022-01-29 14:54,10.90,1.00,63.69,150.00,8.00,0.00,30.06,1019.90,10.00,M,CLR,M,M,M,M,M,M,M,M,M,M,M,M,M,M,-1.88,KALO 291454Z 15008KT 10SM CLR M12/M17 A3006 RMK AO2 SLP199 T11171172 56016,M
ALO,2022-01-29 15:54,17.10,3.00,53.25,160.00,9.00,0.00,30.05,1019.40,10.00,M,CLR,M,M,M,M,M,M,M,M,M,M,M,M,M,M,4.99,KALO 291554Z 16009KT 10SM CLR M08/M16 A3005 RMK AO2 SLP194 T10831161,M
ALO,2022-01-29 16:54,19.90,6.10,54.44,170.00,11.00,0.00,30.02,1018.40,10.00,M,CLR,M,M,M,M,M,M,M,M,M,M,M,M,M,M,7.18,KALO 291654Z 17011KT 10SM CLR M07/M14 A3002 RMK AO2 SLP184 T10671144,M
ALO,2022-01-29 17:54,21.00,9.00,59.23,170.00,14.00,0.00,29.97,1016.40,10.00,M,CLR,M,M,M,M,M,M,M,M,M,M,M,M,M,M,6.98,KALO 291754Z 17014KT 10SM CLR M06/M13 A2997 RMK AO2 PRESFR SLP164 T10611128 11061 21139 58030,M
ALO,2022-01-29 18:54,24.10,10.90,56.59,180.00,12.00,0.00,29.95,1015.70,10.00,M,CLR,M,M,M,M,M,M,M,M,M,M,M,M,M,M,11.95,KALO 291854Z 18012KT 10SM CLR M04/M12 A2995 RMK AO2 SLP157 T10441117,M
ALO,2022-01-29 19:54,26.10,12.90,56.89,190.00,10.00,0.00,29.92,1014.70,10.00,M,CLR,M,M,M,M,M,M,M,M,M,M,M,M,M,M,15.57,KALO 291954Z 19010KT 10SM CLR M03/M11 A2992 RMK AO2 SLP147 T10331106,M
ALO,2022-01-29 20:54,26.10,14.00,59.71,180.00,10.00,0.00,29.88,1013.50,10.00,M,CLR,M,M,M,M,M,M,M,M,M,M,M,M,M,M,15.57,KALO 292054Z 18010KT 10SM CLR M03/M10 A2988 RMK AO2 SLP135 T10331100 58028,M
ALO,2022-01-29 21:54,26.10,16.00,65.16,190.00,9.00,0.00,29.88,1013.50,10.00,M,CLR,M,M,M,M,M,M,M,M,M,M,M,M,M,M,16.18,KALO 292154Z 19009KT 10SM CLR M03/M09 A2988 RMK AO2 SLP135 T10331089,M
ALO,2022-01-29 22:54,26.10,16.00,65.16,220.00,10.00,0.00,29.89,1013.60,10.00,M,FEW,M,M,M,12000.00,M,M,M,M,M,M,M,M,M,M,15.57,KALO 292254Z 22010KT 10SM FEW120 M03/M09 A2989 RMK AO2 SLP136 T10331089,M
ALO,2022-01-29 23:54,26.10,17.10,68.34,220.00,6.00,0.00,29.87,1013.10,10.00,M,CLR,M,M,M,M,M,M,M,M,M,M,M,M,M,M,18.42,KALO 292354Z 22006KT 10SM CLR M03/M08 A2987 RMK AO2 SLP131 T10331083 11028 21061 58003,M
ALO,2022-01-30 00:54,25.00,17.10,71.53,230.00,4.00,0.00,29.87,1012.90,10.00,M,CLR,M,M,M,M,M,M,M,M,M,M,M,M,M,M,19.25,KALO 300054Z 23004KT 10SM CLR M04/M08 A2987 RMK AO2 SLP129 T10391083,M
ALO,2022-01-30 01:54,23.00,16.00,74.15,0.00,0.00,0.00,29.86,1012.60,10.00,M,CLR,M,M,M,M,M,M,M,M,M,M,M,M,M,M,23.00,KALO 300154Z 00000KT 10SM CLR M05/M09 A2986 RMK AO2 SLP126 T10501089,M
ALO,2022-01-30 02:54,26.10,18.00,71.04,290.00,11.00,0.00,29.85,1012.30,10.00,M,CLR,M,M,M,M,M,M,M,M,M,M,M,M,M,M,15.01,KALO 300254Z AUTO 29011KT 10SM CLR M03/M08 A2985 RMK AO2 SLP123 T10331078 58007,M
ALO,2022-01-30 03:54,24.10,17.10,74.27,330.00,11.00,0.00,29.87,1012.70,10.00,M,CLR,M,M,M,M,M,M,M,M,M,M,M,M,M,M,12.48,KALO 300354Z AUTO 33011KT 10SM CLR M04/M08 A2987 RMK AO2 SLP127 T10441083,M
ALO,2022-01-30 04:54,23.00,16.00,74.15,310.00,14.00,0.00,29.88,1013.20,10.00,20.00,CLR,M,M,M,M,M,M,M,M,M,M,M,M,M,M,9.56,KALO 300454Z AUTO 31014G20KT 10SM CLR M05/M09 A2988 RMK AO2 SLP132 T10501089,M
ALO,2022-01-30 05:54,21.00,14.00,73.94,320.00,11.00,0.00,29.88,1013.30,10.00,M,CLR,M,M,M,M,M,M,M,M,M,M,M,M,M,M,8.57,KALO 300554Z AUTO 32011KT 10SM CLR M06/M10 A2988 RMK AO2 SLP133 T10611100 11028 21061 410281150 51011,M
ALO,2022-01-30 06:54,19.90,12.90,73.83,310.00,11.00,0.00,29.92,1014.40,10.00,20.00,CLR,M,M,M,M,M,M,M,M,M,M,M,M,M,M,7.18,KALO 300654Z AUTO 31011G20KT 10SM CLR M07/M11 A2992 RMK AO2 SLP144 T10671106,M
ALO,2022-01-30 07:54,18.00,12.00,76.97,320.00,12.00,0.00,29.91,1014.30,10.00,M,CLR,M,M,M,M,M,M,M,M,M,M,M,M,M,M,4.18,KALO 300754Z AUTO 32012KT 10SM CLR M08/M11 A2991 RMK AO2 SLP143 T10781111,M
ALO,2022-01-30 08:54,17.10,10.90,76.20,320.00,13.00,0.00,29.94,1015.30,10.00,M,CLR,M,M,M,M,M,M,M,M,M,M,M,M,M,M,2.48,KALO 300854Z AUTO 32013KT 10SM CLR M08/M12 A2994 RMK AO2 SLP153 T10831117 51019,M
ALO,2022-01-30 09:54,15.10,9.00,76.34,310.00,14.00,0.00,29.95,1015.60,10.00,M,CLR,M,M,M,M,M,M,M,M,M,M,M,M,M,M,-0.62,KALO 300954Z AUTO 31014KT 10SM CLR M09/M13 A2995 RMK AO2 SLP156 T10941128,M
ALO,2022-01-30 10:54,14.00,8.10,76.92,320.00,12.00,0.00,29.97,1016.50,10.00,M,CLR,M,M,M,M,M,M,M,M,M,M,M,M,M,M,-0.91,KALO 301054Z AUTO 32012KT 10SM CLR M10/M13 A2997 RMK AO2 SLP165 T11001133,M
ALO,2022-01-30 11:37,12.90,8.10,80.74,320.00,13.00,0.00,29.99,M,10.00,M,BKN,M,M,M,2500.00,M,M,M,M,M,M,M,M,M,M,-2.90,KALO 301137Z AUTO 32013KT 10SM BKN025 M11/M13 A2999 RMK AO2 T11061133,M
ALO,2022-01-30 11:54,14.00,8.10,76.92,320.00,12.00,0.00,30.00,1017.40,10.00,M,OVC,M,M,M,2600.00,M,M,M,M,M,M,M,M,M,M,-0.91,KALO 301154Z 32012KT 10SM OVC026 M10/M13 A3000 RMK AO2 SLP174 T11001133 11061 21106 53020,M
ALO,2022-01-30 12:54,16.00,9.00,73.41,320.00,13.00,0.00,30.03,1018.10,10.00,M,OVC,M,M,M,2600.00,M,M,M,M,M,M,M,M,M,M,1.07,KALO 301254Z 32013KT 10SM OVC026 M09/M13 A3003 RMK AO2 SLP181 T10891128,M
ALO,2022-01-30 13:54,17.10,10.00,73.20,320.00,12.00,0.00,30.03,1018.40,9.00,M,OVC,M,M,M,2500.00,M,M,M,M,M,M,M,M,M,M,3.04,KALO 301354Z 32012KT 9SM OVC025 M08/M12 A3003 RMK AO2 SLP184 T10831122,M
ALO,2022-01-30 14:54,17.10,10.90,76.20,310.00,8.00,0.00,30.05,1018.90,9.00,M,OVC,M,M,M,2900.00,M,M,M,M,M,M,M,M,M,M,5.76,KALO 301454Z 31008KT 9SM OVC029 M08/M12 A3005 RMK AO2 SLP189 T10831117 51015,M
ALO,2022-01-30 15:54,18.00,12.00,76.97,300.00,10.00,0.00,30.08,1020.00,10.00,M,OVC,M,M,M,2800.00,M,M,M,M,M,M,M,M,M,M,5.41,KALO 301554Z 30010KT 10SM OVC028 M08/M11 A3008 RMK AO2 SLP200 T10781111,M
ALO,2022-01-30 16:54,19.90,12.90,73.83,310.00,9.00,0.00,30.09,1020.40,10.00,M,OVC,M,M,M,2700.00,M,M,M,M,M,M,M,M,M,M,8.47,KALO 301654Z 31009KT 10SM OVC027 M07/M11 A3009 RMK AO2 SLP204 T10671106,M
ALO,2022-01-30 17:54,21.00,12.90,70.45,310.00,8.00,0.00,30.09,1020.40,10.00,M,OVC,M,M,M,2700.00,M,M,M,M,M,M,M,M,M,M,10.56,KALO 301754Z 31008KT 10SM OVC027 M06/M11 A3009 RMK AO2 SLP204 T10611106 11056 21100 51014,M
ALO,2022-01-30 18:54,21.90,12.90,67.82,330.00,8.00,0.00,30.09,1020.40,10.00,M,OVC,M,M,M,2800.00,M,M,M,M,M,M,M,M,M,M,11.67,KALO 301854Z 33008KT 10SM OVC028 M06/M11 A3009 RMK AO2 SLP204 T10561106,M
ALO,2022-01-30 19:54,21.90,14.00,71.18,340.00,6.00,0.00,30.05,1019.10,10.00,M,OVC,M,M,M,2800.00,M,M,M,M,M,M,M,M,M,M,13.37,KALO 301954Z 34006KT 10SM OVC028 M06/M10 A3005 RMK AO2 SLP191 T10561100,M
ALO,2022-01-30 20:54,21.90,14.00,71.18,310.00,5.00,0.00,30.06,1019.50,10.00,M,OVC,M,M,M,2900.00,M,M,M,M,M,M,M,M,M,M,14.40,KALO 302054Z 31005KT 10SM OVC029 M06/M10 A3006 RMK AO2 SLP195 T10561100 55010,M
ALO,2022-01-30 21:54,21.90,12.90,67.82,350.00,7.00,0.00,30.07,1019.70,10.00,M,OVC,M,M,M,2900.00,M,M,M,M,M,M,M,M,M,M,12.47,KALO 302154Z 35007KT 10SM OVC029 M06/M11 A3007 RMK AO2 SLP197 T10561106,M
ALO,2022-01-30 22:31,21.00,12.90,70.45,330.00,3.00,0.00,30.08,M,10.00,M,SCT,SCT,M,M,2800.00,11000.00,M,M,M,M,M,M,M,M,M,16.11,KALO 302231Z 33003KT 10SM SCT028 SCT110 M06/M11 A3008 RMK AO2 T10611106,M
ALO,2022-01-30 22:54,19.90,12.90,73.83,310.00,4.00,0.00,30.09,1020.60,10.00,M,BKN,M,M,M,10000.00,M,M,M,M,M,M,M,M,M,M,13.29,KALO 302254Z 31004KT 10SM BKN100 M07/M11 A3009 RMK AO2 SLP206 T10671106,M
ALO,2022-01-30 23:54,19.90,12.90,73.83,0.00,0.00,0.00,30.07,1020.00,10.00,M,SCT,M,M,M,11000.00,M,M,M,M,M,M,M,M,M,M,19.90,KALO 302354Z 00000KT 10SM SCT110 M07/M11 A3007 RMK AO2 SLP200 T10671106 11050 21067 50004,M
ALO,2022-01-31 00:54,17.10,10.90,76.20,0.00,0.00,0.00,30.09,1020.40,10.00,M,CLR,M,M,M,M,M,M,M,M,M,M,M,M,M,M,17.10,KALO 310054Z 00000KT 10SM CLR M08/M12 A3009 RMK AO2 SLP204 T10831117,M
ALO,2022-01-31 01:54,14.00,9.00,80.10,0.00,0.00,0.00,30.09,1020.50,7.00,M,CLR,M,M,M,M,M,M,M,M,M,M,M,M,M,M,14.00,KALO 310154Z AUTO 00000KT 7SM CLR M10/M13 A3009 RMK AO2 SLP205 T11001128,M
ALO,2022-01-31 02:54,12.00,7.00,79.93,100.00,4.00,0.00,30.07,1020.10,8.00,M,CLR,M,M,M,M,M,M,M,M,M,M,M,M,M,M,4.07,KALO 310254Z AUTO 10004KT 8SM CLR M11/M14 A3007 RMK AO2 SLP201 T11111139 50000,M
ALO,2022-01-31 03:54,10.90,6.10,80.57,0.00,0.00,0.00,30.08,1020.30,7.00,M,CLR,M,M,M,M,M,M,M,M,M,M,M,M,M,M,10.90,KALO 310354Z AUTO 00000KT 7SM CLR M12/M14 A3008 RMK AO2 SLP203 T11171144,M
ALO,2022-01-31 04:54,9.00,3.90,79.31,140.00,3.00,0.00,30.08,1020.20,5.00,M,CLR,M,M,M,M,M,M,M,HZ,T,M,M,M,M,M,2.40,KALO 310454Z AUTO 14003KT 5SM HZ CLR M13/M16 A3008 RMK AO2 SLP202 I1000 T11281156,M
ALO,2022-01-31 05:54,8.10,3.00,79.23,0.00,0.00,0.00,30.07,1019.90,5.00,M,CLR,M,M,M,M,M,M,M,HZ,T,M,T,M,M,M,8.10,KALO 310554Z AUTO 00000KT 5SM HZ CLR M13/M16 A3007 RMK AO2 SLP199 I1000 I6000 T11331161 11067 21133 410501133 58001,M
ALO,2022-01-31 06:54,10.90,5.00,76.62,140.00,5.00,0.00,30.05,1019.10,6.00,M,CLR,M,M,M,M,M,M,M,HZ,T,M,M,M,M,M,1.34,KALO 310654Z AUTO 14005KT 6SM HZ CLR M12/M15 A3005 RMK AO2 SLP191 I1000 T11171150,M
ALO,2022-01-31 07:54,10.90,7.00,83.93,130.00,6.00,0.00,30.02,1018.20,7.00,M,CLR,M,M,M,M,M,M,M,M,T,M,M,M,M,M,0.12,KALO 310754Z AUTO 13006KT 7SM CLR M12/M14 A3002 RMK AO2 SLP182 I1000 T11171139,M
ALO,2022-01-31 08:54,12.90,9.00,84.07,140.00,7.00,0.00,30.01,1017.80,7.00,M,CLR,M,M,M,M,M,M,M,M,M,T,M,M,M,M,1.50,KALO 310854Z AUTO 14007KT 7SM CLR M11/M13 A3001 RMK AO2 SLP178 I3000 T11061128 56019,M
ALO,2022-01-31 09:54,15.10,10.90,83.11,140.00,8.00,0.00,29.99,1017.00,8.00,M,CLR,M,M,M,M,M,M,M,M,M,M,M,M,M,M,3.30,KALO 310954Z AUTO 14008KT 8SM CLR M09/M12 A2999 RMK AO2 SLP170 T10941117,M
ALO,2022-01-31 10:54,15.10,10.00,79.84,140.00,7.00,0.00,29.98,1016.90,8.00,M,CLR,M,M,M,M,M,M,M,M,M,M,M,M,M,M,4.18,KALO 311054Z AUTO 14007KT 8SM CLR M09/M12 A2998 RMK AO2 SLP169 T10941122,M
ALO,2022-01-31 11:54,16.00,10.90,79.92,140.00,10.00,0.00,29.97,1016.50,8.00,M,CLR,M,M,M,M,M,M,M,M,M,M,T,M,M,M,2.90,KALO 311154Z 14010KT 8SM CLR M09/M12 A2997 RMK AO2 SLP165 I6000 T10891117 11089 21150 56013,M
ALO,2022-01-31 12:54,18.00,12.90,80.09,150.00,12.00,0.00,29.96,1016.20,8.00,20.00,CLR,M,M,M,M,M,M,M,M,M,M,M,M,M,M,4.18,KALO 311254Z 15012G20KT 8SM CLR M08/M11 A2996 RMK AO2 SLP162 T10781106,M
ALO,2022-01-31 13:54,19.00,12.90,76.72,150.00,13.00,0.00,29.95,1015.80,7.00,M,CLR,M,M,M,M,M,M,M,M,M,M,M,M,M,M,4.91,KALO 311354Z 15013KT 7SM CLR M07/M11 A2995 RMK AO2 SLP158 T10721106,M
ALO,2022-01-31 14:54,19.90,14.00,77.48,150.00,15.00,0.00,29.94,1015.50,7.00,22.00,CLR,M,M,M,M,M,M,M,M,M,M,M,M,M,M,5.09,KALO 311454Z 15015G22KT 7SM CLR M07/M10 A2994 RMK AO2 SLP155 T10671100 56010,M
ALO,2022-01-31 15:54,23.00,15.10,71.30,160.00,15.00,0.00,29.94,1015.30,9.00,23.00,CLR,M,M,M,M,M,M,M,M,M,M,M,M,M,M,9.11,KALO 311554Z 16015G23KT 9SM CLR M05/M09 A2994 RMK AO2 SLP153 T10501094,M
ALO,2022-01-31 16:54,26.10,17.10,68.34,160.00,15.00,0.00,29.93,1015.00,9.00,26.00,CLR,M,M,M,M,M,M,M,M,M,M,M,26.00,170.00,2022-01-31 16:50,13.13,KALO 311654Z 16015G26KT 9SM CLR M03/M08 A2993 RMK AO2 PK WND 17026/1650 SLP150 T10331083,M
ALO,2022-01-31 17:54,28.00,19.00,68.57,160.00,13.00,0.00,29.89,1013.80,9.00,22.00,CLR,M,M,M,M,M,M,M,M,M,M,M,M,M,M,16.44,KALO 311754Z 16013G22KT 9SM CLR M02/M07 A2989 RMK AO2 SLP138 T10221072 11022 21094 58016,M
ALO,2022-01-31 18:54,30.00,19.90,65.66,160.00,18.00,0.00,29.86,1012.50,9.00,25.00,CLR,M,M,M,M,M,M,M,M,M,M,M,M,M,M,17.12,KALO 311854Z 16018G25KT 9SM CLR M01/M07 A2986 RMK AO2 SLP125 T10111067,M
ALO,2022-01-31 19:54,32.00,21.90,65.92,150.00,12.00,0.00,29.84,1011.80,9.00,21.00,FEW,M,M,M,12000.00,M,M,M,M,M,M,M,M,M,M,22.00,KALO 311954Z 15012G21KT 9SM FEW120 00/M06 A2984 RMK AO2 SLP118 T00001056,M
ALO,2022-01-31 20:54,33.10,23.00,66.06,140.00,16.00,0.00,29.81,1010.80,9.00,21.00,CLR,M,M,M,M,M,M,M,M,M,M,M,M,M,M,21.85,KALO 312054Z 14016G21KT 9SM CLR 01/M05 A2981 RMK AO2 SLP108 T00061050 56026,M
ALO,2022-01-31 21:54,35.10,24.10,63.86,140.00,13.00,0.00,29.79,1010.10,10.00,M,CLR,M,M,M,M,M,M,M,M,M,M,M,M,M,M,25.54,KALO 312154Z 14013KT 10SM CLR 02/M04 A2979 RMK AO2 SLP101 T00171044,M
