ALO,2022-02-28 23:54,48.90,34.00,56.23,230.00,6.00,0.00,29.93,1014.10,10.00,M,CLR,M,M,M,M,M,M,M,M,M,M,M,M,M,M,45.88,KALO 282354Z 23006KT 10SM CLR 09/01 A2993 RMK AO2 SLP141 T00940011 10133 20094 56013,M
ALO,2022-03-01 00:54,48.00,34.00,58.16,250.00,5.00,0.00,29.94,1014.70,10.00,M,CLR,M,M,M,M,M,M,M,M,M,M,M,M,M,M,45.40,KALO 010054Z 25005KT 10SM CLR 09/01 A2994 RMK AO2 SLP147 T00890011,M
ALO,2022-03-01 01:54,46.00,33.10,60.49,230.00,6.00,0.00,29.93,1014.10,10.00,M,CLR,M,M,M,M,M,M,M,M,M,M,M,M,M,M,42.39,KALO 010154Z AUTO 23006KT 10SM CLR 08/01 A2993 RMK AO2 SLP141 T00780006,M
ALO,2022-03-01 02:54,44.10,33.10,65.02,230.00,7.00,0.00,29.92,1014.00,10.00,M,CLR,M,M,M,M,M,M,M,M,M,M,M,M,M,M,39.53,KALO 010254Z AUTO 23007KT 10SM CLR 07/01 A2992 RMK AO2 SLP140 T00670006 58001,M
ALO,2022-03-01 03:54,46.00,33.10,60.49,230.00,5.00,0.00,29.92,1013.60,10.00,M,BKN,M,M,M,12000.00,M,M,M,M,M,M,M,M,M,M,43.02,KALO 010354Z AUTO 23005KT 10SM BKN120 08/01 A2992 RMK AO2 SLP136 T00780006,M
ALO,2022-03-01 04:54,39.00,32.00,75.75,0.00,0.00,0.00,29.90,1013.10,10.00,M,CLR,M,M,M,M,M,M,M,M,M,M,M,M,M,M,39.00,KALO 010454Z AUTO 00000KT 10SM CLR 04/00 A2990 RMK AO2 SLP131 T00390000,M
ALO,2022-03-01 05:54,39.00,32.00,75.75,230.00,3.00,0.00,29.91,1013.20,10.00,M,BKN,M,M,M,11000.00,M,M,M,M,M,M,M,M,M,M,36.69,KALO 010554Z AUTO 23003KT 10SM BKN110 04/00 A2991 RMK AO2 SLP132 T00390000 10094 20033 401331056 55006,M
ALO,2022-03-01 06:54,39.00,32.00,75.75,0.00,0.00,0.00,29.91,1013.40,10.00,M,OVC,M,M,M,11000.00,M,M,M,M,M,M,M,M,M,M,39.00,KALO 010654Z AUTO 00000KT 10SM OVC110 04/00 A2991 RMK AO2 SLP134 T00390000,M
ALO,2022-03-01 07:54,37.90,32.00,79.08,10.00,3.00,0.00,29.91,1013.30,10.00,M,OVC,M,M,M,10000.00,M,M,M,M,M,M,M,M,M,M,35.43,KALO 010754Z AUTO 01003KT 10SM OVC100 03/00 A2991 RMK AO2 SLP133 T00330000,M
ALO,2022-03-01 08:54,39.00,32.00,75.75,0.00,0.00,0.00,29.91,1013.20,10.00,M,OVC,M,M,M,10000.00,M,M,M,M,M,M,M,M,M,M,39.00,KALO 010854Z AUTO 00000KT 10SM OVC100 04/00 A2991 RMK AO2 SLP132 T00390000 50001,M
ALO,2022-03-01 09:54,39.00,32.00,75.75,320.00,4.00,0.00,29.91,1013.10,10.00,M,OVC,M,M,M,10000.00,M,M,M,M,M,M,M,M,M,M,35.59,KALO 010954Z AUTO 32004KT 10SM OVC100 04/00 A2991 RMK AO2 SLP131 T00390000,M
ALO,2022-03-01 10:54,36.00,30.90,81.53,360.00,4.00,0.00,29.90,1013.10,10.00,M,FEW,M,M,M,11000.00,M,M,M,M,M,M,M,M,M,M,32.09,KALO 011054Z AUTO 36004KT 10SM FEW110 02/M01 A2990 RMK AO2 SLP131 T00221006,M
ALO,2022-03-01 11:54,34.00,30.00,85.11,0.00,0.00,0.00,29.92,1013.80,10.00,M,CLR,M,M,M,M,M,M,M,M,M,M,M,M,M,M,34.00,KALO 011154Z 00000KT 10SM CLR 01/M01 A2992 RMK AO2 SLP138 T00111011 10056 20011 53004,M
ALO,2022-03-01 12:54,34.00,30.00,85.11,320.00,4.00,0.00,29.94,1014.30,10.00,M,SCT,M,M,M,11000.00,M,M,M,M,M,M,M,M,M,M,29.76,KALO 011254Z 32004KT 10SM SCT110 01/M01 A2994 RMK AO2 SLP143 T00111011,M
ALO,2022-03-01 13:54,39.00,34.00,82.08,310.00,3.00,0.00,29.96,1015.00,10.00,M,BKN,M,M,M,11000.00,M,M,M,M,M,M,M,M,M,M,36.69,KALO 011354Z 31003KT 10SM BKN110 04/01 A2996 RMK AO2 SLP150 T00390011,M
ALO,2022-03-01 14:54,43.00,33.10,67.82,350.00,7.00,0.00,29.98,1015.70,10.00,M,BKN,M,M,M,10000.00,M,M,M,M,M,M,M,M,M,M,38.19,KALO 011454Z 35007KT 10SM BKN100 06/01 A2998 RMK AO2 SLP157 T00610006 53019,M
ALO,2022-03-01 15:54,46.00,33.10,60.49,50.00,6.00,0.00,29.97,1015.30,10.00,M,BKN,BKN,M,M,10000.00,12000.00,M,M,M,M,M,M,M,M,M,42.39,KALO 011554Z 05006KT 10SM BKN100 BKN120 08/01 A2997 RMK AO2 SLP153 T00780006,M
ALO,2022-03-01 16:54,44.10,33.10,65.02,10.00,5.00,0.00,29.99,1016.10,10.00,M,BKN,M,M,M,9000.00,M,M,M,M,M,M,M,M,M,M,40.77,KALO 011654Z 01005KT 10SM BKN090 07/01 A2999 RMK AO2 SLP161 T00670006,M
ALO,2022-03-01 17:54,46.90,34.00,60.61,M,3.00,0.00,29.99,1016.10,10.00,M,FEW,M,M,M,9000.00,M,M,M,M,M,M,M,M,M,M,45.72,KALO 011754Z VRB03KT 10SM FEW090 08/01 A2999 RMK AO2 SLP161 T00830011 10089 20006 53003,M
ALO,2022-03-01 18:54,51.10,35.10,54.13,0.00,0.00,0.00,29.98,1015.80,10.00,M,CLR,M,M,M,M,M,M,M,M,M,M,M,M,M,M,51.10,KALO 011854Z 00000KT 10SM CLR 11/02 A2998 RMK AO2 SLP158 T01060017,M
ALO,2022-03-01 19:54,54.00,35.10,48.65,330.00,3.00,0.00,29.98,1015.60,10.00,M,FEW,M,M,M,6500.00,M,M,M,M,M,M,M,M,M,M,54.00,KALO 011954Z 33003KT 10SM FEW065 12/02 A2998 RMK AO2 SLP156 T01220017,M
ALO,2022-03-01 20:54,54.00,37.90,54.34,360.00,10.00,0.00,30.00,1016.20,10.00,M,CLR,M,M,M,M,M,M,M,M,M,M,M,M,M,M,54.00,KALO 012054Z 36010KT 10SM CLR 12/03 A3000 RMK AO2 SLP162 T01220033 53002,M
ALO,2022-03-01 21:54,52.00,39.00,61.06,360.00,11.00,0.00,30.02,1017.10,10.00,M,CLR,M,M,M,M,M,M,M,M,M,M,M,M,M,M,52.00,KALO 012154Z 36011KT 10SM CLR 11/04 A3002 RMK AO2 SLP171 T01110039,M
ALO,2022-03-01 22:54,48.00,36.00,62.97,20.00,8.00,0.00,30.04,1017.70,10.00,M,OVC,M,M,M,9000.00,M,M,M,M,M,M,M,M,M,M,43.82,KALO 012254Z 02008KT 10SM OVC090 09/02 A3004 RMK AO2 SLP177 T00890022 $,M
ALO,2022-03-01 23:54,45.00,35.10,68.05,30.00,4.00,0.00,30.06,1018.50,10.00,M,OVC,M,M,M,8000.00,M,M,M,M,M,M,M,M,M,M,42.60,KALO 012354Z 03004KT 10SM OVC080 07/02 A3006 RMK AO2 SLP185 T00720017 10133 20072 $,M
ALO,2022-03-02 00:54,39.90,33.10,76.44,40.00,5.00,0.00,30.08,1019.30,10.00,M,BKN,M,M,M,7000.00,M,M,M,M,M,M,M,M,M,M,35.78,KALO 020054Z 04005KT 10SM BKN070 04/01 A3008 RMK AO2 SLP193 T00440006 $,M
ALO,2022-03-02 01:54,34.00,28.90,81.37,40.00,4.00,0.00,30.07,1019.10,9.00,M,CLR,M,M,M,M,M,M,M,M,M,M,M,M,M,M,29.76,KALO 020154Z 04004KT 9SM CLR 01/M02 A3007 RMK AO2 SLP191 T00111017 $,M
ALO,2022-03-02 02:54,36.00,30.90,81.53,20.00,4.00,0.00,30.08,1019.40,9.00,M,CLR,M,M,M,M,M,M,M,M,M,M,M,M,M,M,32.09,KALO 020254Z AUTO 02004KT 9SM CLR 02/M01 A3008 RMK AO2 SLP194 T00221006 51008 $,M
ALO,2022-03-02 03:54,37.00,30.90,78.37,20.00,3.00,0.00,30.09,1019.60,10.00,M,CLR,M,M,M,M,M,M,M,M,M,M,M,M,M,M,34.40,KALO 020354Z AUTO 02003KT 10SM CLR 03/M01 A3009 RMK AO2 SLP196 T00281006 $,M
ALO,2022-03-02 04:54,35.10,30.90,84.49,0.00,0.00,0.00,30.09,1019.60,9.00,M,SCT,M,M,M,11000.00,M,M,M,M,M,M,M,M,M,M,35.10,KALO 020454Z AUTO 00000KT 9SM SCT110 02/M01 A3009 RMK AO2 SLP196 T00171006 $,M
ALO,2022-03-02 05:54,35.10,30.00,81.46,0.00,0.00,0.00,30.09,1019.60,10.00,M,OVC,M,M,M,10000.00,M,M,M,M,M,M,M,M,M,M,35.10,KALO 020554Z AUTO 00000KT 10SM OVC100 02/M01 A3009 RMK AO2 SLP196 T00171011 10072 20011 401330006 51003 $,M
ALO,2022-03-02 06:54,35.10,30.00,81.46,0.00,0.00,0.00,30.09,1019.40,10.00,M,BKN,M,M,M,9500.00,M,M,M,M,M,M,M,M,M,M,35.10,KALO 020654Z AUTO 00000KT 10SM BKN095 02/M01 A3009 RMK AO2 SLP194 T00171011 $,M
ALO,2022-03-02 07:54,34.00,28.90,81.37,0.00,0.00,0.00,30.07,1018.90,10.00,M,FEW,BKN,M,M,7000.00,10000.00,M,M,M,M,M,M,M,M,M,34.00,KALO 020754Z AUTO 00000KT 10SM FEW070 BKN100 01/M02 A3007 RMK AO2 SLP189 T00111017 $,M
ALO,2022-03-02 08:54,34.00,30.00,85.11,230.00,3.00,0.00,30.06,1018.50,8.00,M,BKN,OVC,M,M,8500.00,11000.00,M,M,M,M,M,M,M,M,M,30.97,KALO 020854Z AUTO 23003KT 8SM BKN085 OVC110 01/M01 A3006 RMK AO2 SLP185 T00111011 58009 $,M
ALO,2022-03-02 09:54,33.10,28.90,84.36,0.00,0.00,0.00,30.04,1017.90,8.00,M,BKN,OVC,M,M,8000.00,10000.00,M,M,M,M,M,M,M,M,M,33.10,KALO 020954Z AUTO 00000KT 8SM BKN080 OVC100 01/M02 A3004 RMK AO2 SLP179 T00061017 $,M
ALO,2022-03-02 10:54,32.00,28.00,84.98,0.00,0.00,0.00,30.03,1017.40,7.00,M,FEW,M,M,M,7000.00,M,M,M,M,M,M,M,M,M,M,32.00,KALO 021054Z AUTO 00000KT 7SM FEW070 00/M02 A3003 RMK AO2 SLP174 T00001022 $,M
ALO,2022-03-02 11:54,30.00,27.00,88.44,0.00,0.00,0.00,30.03,1017.60,6.00,M,FEW,M,M,M,8500.00,M,M,M,BR,M,M,M,M,M,M,30.00,KALO 021154Z 00000KT 6SM BR FEW085 M01/M03 A3003 RMK AO2 SLP176 T10111028 10017 21011 55011 $,M
ALO,2022-03-02 12:54,30.00,26.10,85.21,360.00,3.00,0.00,30.02,1017.50,4.00,M,CLR,M,M,M,M,M,M,M,BR,M,M,M,M,M,M,26.40,KALO 021254Z 36003KT 4SM BR CLR M01/M03 A3002 RMK AO2 SLP175 T10111033 $,M
ALO,2022-03-02 13:54,35.10,30.90,84.49,0.00,0.00,0.00,30.03,1017.70,5.00,M,CLR,M,M,M,M,M,M,M,BR,M,M,M,M,M,M,35.10,KALO 021354Z 00000KT 5SM BR CLR 02/M01 A3003 RMK AO2 SLP177 T00171006,M
ALO,2022-03-02 14:54,39.00,34.00,82.08,0.00,0.00,0.00,30.02,1017.40,9.00,M,CLR,M,M,M,M,M,M,M,M,M,M,M,M,M,M,39.00,KALO 021454Z 00000KT 9SM CLR 04/01 A3002 RMK AO2 SLP174 T00390011 58002,M
ALO,2022-03-02 15:54,44.10,34.00,67.41,0.00,0.00,0.00,30.02,1017.20,10.00,M,CLR,M,M,M,M,M,M,M,M,M,M,M,M,M,M,44.10,KALO 021554Z 00000KT 10SM CLR 07/01 A3002 RMK AO2 SLP172 T00670011,M
ALO,2022-03-02 16:54,46.90,35.10,63.33,0.00,0.00,0.00,30.02,1017.10,10.00,M,CLR,M,M,M,M,M,M,M,M,M,M,M,M,M,M,46.90,KALO 021654Z 00000KT 10SM CLR 08/02 A3002 RMK AO2 SLP171 T00830017,M
ALO,2022-03-02 17:54,53.10,37.00,54.21,M,3.00,0.00,30.01,1016.60,10.00,M,CLR,M,M,M,M,M,M,M,M,M,M,M,M,M,M,53.10,KALO 021754Z VRB03KT 10SM CLR 12/03 A3001 RMK AO2 SLP166 T01170028 10117 21017 58006,M
ALO,2022-03-02 18:54,55.90,39.00,52.94,320.00,7.00,0.00,29.99,1016.10,10.00,M,CLR,M,M,M,M,M,M,M,M,M,M,M,M,M,M,55.90,KALO 021854Z 32007KT 10SM CLR 13/04 A2999 RMK AO2 SLP161 T01330039,M
ALO,2022-03-02 19:54,55.90,39.00,52.94,350.00,7.00,0.00,29.98,1015.70,10.00,M,CLR,M,M,M,M,M,M,M,M,M,M,M,M,M,M,55.90,KALO 021954Z 35007KT 10SM CLR 13/04 A2998 RMK AO2 SLP157 T01330039,M
ALO,2022-03-02 20:54,55.90,39.90,54.83,350.00,10.00,0.00,29.99,1016.10,10.00,M,CLR,M,M,M,M,M,M,M,M,M,M,M,M,M,M,55.90,KALO 022054Z 35010KT 10SM CLR 13/04 A2999 RMK AO2 SLP161 T01330044 55005,M
ALO,2022-03-02 21:54,53.10,39.90,60.73,10.00,14.00,0.00,30.02,1017.00,10.00,M,FEW,M,M,M,8000.00,M,M,M,M,M,M,M,M,M,M,53.10,KALO 022154Z 01014KT 10SM FEW080 12/04 A3002 RMK AO2 SLP170 T01170044,M
ALO,2022-03-02 22:34,46.90,37.00,68.27,M,M,0.00,30.04,M,9.00,M,BKN,M,M,M,2400.00,M,M,M,M,M,M,M,M,M,M,M,KALO 022234Z 9SM BKN024 08/03 A3004 RMK AO2 T00830028,M
ALO,2022-03-02 22:54,46.00,36.00,67.90,M,M,0.00,30.06,1018.70,7.00,M,OVC,M,M,M,2400.00,M,M,M,M,M,M,M,M,M,M,M,KALO 022254Z 7SM OVC024 08/02 A3006 RMK AO2 SLP187 T00780022,M
ALO,2022-03-02 23:22,43.00,35.10,73.45,M,M,0.00,30.08,M,7.00,M,SCT,M,M,M,2400.00,M,M,M,M,M,M,M,M,M,M,M,KALO 022322Z 7SM SCT024 06/02 A3008 RMK AO2 T00610017,M
ALO,2022-03-02 23:54,39.00,33.10,79.17,M,M,0.00,30.10,1020.20,5.00,M,CLR,M,M,M,M,M,M,M,HZ,M,M,M,M,M,M,M,KALO 022354Z 5SM HZ CLR 04/01 A3010 RMK AO2 SLP202 T00390006 10139 20039 53037,M
ALO,2022-03-03 00:54,35.10,28.90,77.88,350.00,10.00,0.00,30.15,1021.90,10.00,M,CLR,M,M,M,M,M,M,M,M,M,M,M,M,M,M,26.86,KALO 030054Z 35010KT 10SM CLR 02/M02 A3015 RMK AO2 SLP219 T00171017,M
ALO,2022-03-03 01:54,34.00,27.00,75.26,360.00,13.00,0.00,30.17,1022.50,10.00,M,CLR,M,M,M,M,M,M,M,M,M,M,M,M,M,M,24.13,KALO 030154Z 36013KT 10SM CLR 01/M03 A3017 RMK AO2 SLP225 T00111028,M
ALO,2022-03-03 02:54,32.00,26.10,78.58,340.00,10.00,0.00,30.20,1023.60,10.00,M,CLR,M,M,M,M,M,M,M,M,M,M,M,M,M,M,22.97,KALO 030254Z AUTO 34010KT 10SM CLR 00/M03 A3020 RMK AO2 SLP236 T00001033 51033,M
ALO,2022-03-03 03:54,32.00,26.10,78.58,360.00,10.00,0.00,30.21,1023.80,10.00,M,CLR,M,M,M,M,M,M,M,M,M,M,M,M,M,M,22.97,KALO 030354Z AUTO 36010KT 10SM CLR 00/M03 A3021 RMK AO2 SLP238 T00001033,M
ALO,2022-03-03 04:54,30.90,23.00,72.18,10.00,10.00,0.00,30.22,1024.10,10.00,M,CLR,M,M,M,M,M,M,M,M,M,M,M,M,M,M,21.59,KALO 030454Z AUTO 01010KT 10SM CLR M01/M05 A3022 RMK AO2 SLP241 T10061050,M
ALO,2022-03-03 05:54,30.90,21.90,68.91,10.00,10.00,0.00,30.26,1025.20,10.00,M,BKN,M,M,M,11000.00,M,M,M,M,M,M,M,M,M,M,21.59,KALO 030554Z AUTO 01010KT 10SM BKN110 M01/M06 A3026 RMK AO2 SLP252 T10061056 10039 21011 401391017 53018,M
ALO,2022-03-03 06:54,30.90,21.90,68.91,20.00,11.00,0.00,30.26,1025.30,10.00,M,CLR,M,M,M,M,M,M,M,M,M,M,M,M,M,M,21.08,KALO 030654Z AUTO 02011KT 10SM CLR M01/M06 A3026 RMK AO2 SLP253 T10061056,M
ALO,2022-03-03 07:54,30.90,19.90,63.31,20.00,9.00,0.00,30.29,1026.20,10.00,M,FEW,BKN,M,M,9000.00,12000.00,M,M,M,M,M,M,M,M,M,22.15,KALO 030754Z AUTO 02009KT 10SM FEW090 BKN120 M01/M07 A3029 RMK AO2 SLP262 T10061067,M
ALO,2022-03-03 08:54,30.00,17.10,58.23,10.00,11.00,0.00,30.31,1027.00,10.00,M,BKN,M,M,M,11000.00,M,M,M,M,M,M,M,M,M,M,19.94,KALO 030854Z AUTO 01011KT 10SM BKN110 M01/M08 A3031 RMK AO2 SLP270 T10111083 53018,M
ALO,2022-03-03 09:54,30.00,18.00,60.53,10.00,8.00,0.00,30.31,1027.00,10.00,M,BKN,OVC,M,M,7000.00,10000.00,M,M,M,M,M,M,M,M,M,21.65,KALO 030954Z AUTO 01008KT 10SM BKN070 OVC100 M01/M08 A3031 RMK AO2 SLP270 T10111078,M
ALO,2022-03-03 10:54,30.00,18.00,60.53,30.00,8.00,0.00,30.33,1027.70,10.00,M,BKN,OVC,M,M,10000.00,11000.00,M,M,M,M,M,M,M,M,M,21.65,KALO 031054Z AUTO 03008KT 10SM BKN100 OVC110 M01/M08 A3033 RMK AO2 SLP277 T10111078,M
ALO,2022-03-03 11:54,28.90,17.10,60.90,30.00,10.00,0.00,30.36,1028.90,10.00,M,OVC,M,M,M,9000.00,M,M,M,M,M,M,M,M,M,M,19.08,KALO 031154Z 03010KT 10SM OVC090 M02/M08 A3036 RMK AO2 SLP289 T10171083 11006 21017 53015,M
ALO,2022-03-03 12:54,28.90,18.00,63.31,30.00,8.00,0.00,30.38,1029.80,10.00,M,OVC,M,M,M,9000.00,M,M,M,M,M,M,M,M,M,M,20.29,KALO 031254Z 03008KT 10SM OVC090 M02/M08 A3038 RMK AO2 SLP298 T10171078,M
ALO,2022-03-03 13:54,28.90,18.00,63.31,40.00,9.00,0.00,30.40,1030.50,10.00,M,BKN,OVC,M,M,7000.00,9000.00,M,M,M,M,M,M,M,M,M,19.66,KALO 031354Z 04009KT 10SM BKN070 OVC090 M02/M08 A3040 RMK AO2 SLP305 T10171078,M
ALO,2022-03-03 14:54,30.00,18.00,60.53,40.00,8.00,0.00,30.43,1031.50,10.00,M,SCT,BKN,OVC,M,4600.00,6500.00,8000.00,M,M,M,M,M,M,M,M,21.65,KALO 031454Z 04008KT 10SM SCT046 BKN065 OVC080 M01/M08 A3043 RMK AO2 SLP315 T10111078 53024,M
ALO,2022-03-03 15:54,30.00,18.00,60.53,60.00,8.00,0.00,30.44,1031.80,10.00,M,SCT,BKN,OVC,M,6500.00,8000.00,9500.00,M,M,M,M,M,M,M,M,21.65,KALO 031554Z 06008KT 10SM SCT065 BKN080 OVC095 M01/M08 A3044 RMK AO2 SLP318 T10111078,M
ALO,2022-03-03 16:54,30.00,16.00,55.52,50.00,9.00,0.00,30.44,1031.90,10.00,M,OVC,M,M,M,9000.00,M,M,M,M,M,M,M,M,M,M,21.03,KALO 031654Z 05009KT 10SM OVC090 M01/M09 A3044 RMK AO2 SLP319 T10111089,M
ALO,2022-03-03 17:54,30.90,16.00,53.53,70.00,7.00,0.00,30.45,1032.10,10.00,M,OVC,M,M,M,9000.00,M,M,M,M,M,M,M,M,M,M,23.44,KALO 031754Z 07007KT 10SM OVC090 M01/M09 A3045 RMK AO2 SLP321 T10061089 11006 21017 51006,M
ALO,2022-03-03 18:54,32.00,15.10,49.23,70.00,8.00,0.00,30.43,1031.50,10.00,M,OVC,M,M,M,10000.00,M,M,M,M,M,M,M,M,M,M,24.11,KALO 031854Z 07008KT 10SM OVC100 00/M09 A3043 RMK AO2 SLP315 T00001094,M
ALO,2022-03-03 19:54,32.00,15.10,49.23,60.00,7.00,0.00,30.42,1031.10,10.00,M,OVC,M,M,M,9500.00,M,M,M,M,M,M,M,M,M,M,24.78,KALO 031954Z 06007KT 10SM OVC095 00/M09 A3042 RMK AO2 SLP311 T00001094,M
ALO,2022-03-03 20:54,32.00,12.00,42.96,80.00,7.00,0.00,30.40,1030.40,10.00,M,OVC,M,M,M,9000.00,M,M,M,M,M,M,M,M,M,M,24.78,KALO 032054Z 08007KT 10SM OVC090 00/M11 A3040 RMK AO2 SLP304 T00001111 58016,M
ALO,2022-03-03 21:54,32.00,12.90,44.70,60.00,8.00,0.00,30.41,1031.00,10.00,M,BKN,OVC,M,M,6500.00,8000.00,M,M,M,M,M,M,M,M,M,24.11,KALO 032154Z 06008KT 10SM BKN065 OVC080 00/M11 A3041 RMK AO2 SLP310 T00001106,M
ALO,2022-03-03 22:54,32.00,12.90,44.70,80.00,7.00,0.00,30.40,1030.50,10.00,M,CLR,M,M,M,M,M,M,M,M,M,M,M,M,M,M,24.78,KALO 032254Z 08007KT 10SM CLR 00/M11 A3040 RMK AO2 SLP305 T00001106,M
ALO,2022-03-03 23:54,30.90,12.90,46.74,80.00,7.00,0.00,30.40,1030.40,10.00,M,BKN,M,M,M,8500.00,M,M,M,M,M,M,M,M,M,M,23.44,KALO 032354Z 08007KT 10SM BKN085 M01/M11 A3040 RMK AO2 SLP304 T10061106 10006 21006 58000,M
ALO,2022-03-04 00:54,30.90,14.00,49.05,100.00,7.00,0.00,30.40,1030.40,10.00,M,OVC,M,M,M,8500.00,M,M,M,M,M,M,M,M,M,M,23.44,KALO 040054Z 10007KT 10SM OVC085 M01/M10 A3040 RMK AO2 SLP304 T10061100,M
ALO,2022-03-04 01:54,30.00,15.10,53.38,110.00,6.00,0.00,30.39,1030.20,10.00,M,OVC,M,M,M,8000.00,M,M,M,M,M,M,M,M,M,M,23.12,KALO 040154Z 11006KT 10SM OVC080 M01/M09 A3039 RMK AO2 SLP302 T10111094,M
ALO,2022-03-04 02:54,30.00,14.00,50.88,110.00,6.00,0.00,30.39,1030.00,10.00,M,OVC,M,M,M,8000.00,M,M,M,M,M,M,M,M,M,M,23.12,KALO 040254Z AUTO 11006KT 10SM OVC080 M01/M10 A3039 RMK AO2 SLP300 T10111100 58004,M
ALO,2022-03-04 03:54,30.90,14.00,49.05,100.00,6.00,0.00,30.39,1030.10,10.00,M,OVC,M,M,M,7500.00,M,M,M,M,M,M,M,M,M,M,24.21,KALO 040354Z AUTO 10006KT 10SM OVC075 M01/M10 A3039 RMK AO2 SLP301 T10061100,M
ALO,2022-03-04 04:54,30.90,15.10,51.47,120.00,6.00,0.00,30.38,1029.70,10.00,M,OVC,M,M,M,7500.00,M,M,M,M,M,M,M,M,M,M,24.21,KALO 040454Z AUTO 12006KT 10SM OVC075 M01/M09 A3038 RMK AO2 SLP297 T10061094,M
ALO,2022-03-04 05:54,30.90,16.00,53.53,120.00,6.00,0.00,30.37,1029.60,10.00,M,OVC,M,M,M,7500.00,M,M,M,M,M,M,M,M,M,M,24.21,KALO 040554Z AUTO 12006KT 10SM OVC075 M01/M09 A3037 RMK AO2 SLP296 T10061089 11006 21011 400061017 58004,M
ALO,2022-03-04 06:54,30.90,17.10,56.14,110.00,8.00,0.00,30.36,1029.00,10.00,M,OVC,M,M,M,7500.00,M,M,M,M,M,M,M,M,M,M,22.76,KALO 040654Z AUTO 11008KT 10SM OVC075 M01/M08 A3036 RMK AO2 SLP290 T10061083,M
ALO,2022-03-04 07:54,30.00,18.00,60.53,110.00,7.00,0.00,30.35,1028.90,10.00,M,OVC,M,M,M,7000.00,M,M,M,M,M,M,M,M,M,M,22.34,KALO 040754Z AUTO 11007KT 10SM OVC070 M01/M08 A3035 RMK AO2 SLP289 T10111078,M
ALO,2022-03-04 08:54,30.90,17.10,56.14,120.00,8.00,0.00,30.34,1028.40,10.00,M,OVC,M,M,M,7000.00,M,M,M,M,M,M,M,M,M,M,22.76,KALO 040854Z AUTO 12008KT 10SM OVC070 M01/M08 A3034 RMK AO2 SLP284 T10061083 56011,M
ALO,2022-03-04 09:54,28.00,17.10,63.19,110.00,7.00,0.00,30.33,1028.10,10.00,M,FEW,M,M,M,7000.00,M,M,M,M,M,M,M,M,M,M,19.90,KALO 040954Z AUTO 11007KT 10SM FEW070 M02/M08 A3033 RMK AO2 SLP281 T10221083,M
ALO,2022-03-04 10:54,27.00,17.10,65.84,110.00,7.00,0.00,30.32,1027.80,10.00,M,CLR,M,M,M,M,M,M,M,M,M,M,M,M,M,M,18.68,KALO 041054Z AUTO 11007KT 10SM CLR M03/M08 A3032 RMK AO2 SLP278 T10281083,M
ALO,2022-03-04 11:54,28.00,18.00,65.69,110.00,9.00,0.00,30.32,1027.80,10.00,M,CLR,M,M,M,M,M,M,M,M,M,M,M,M,M,M,18.54,KALO 041154Z 11009KT 10SM CLR M02/M08 A3032 RMK AO2 SLP278 T10221078 11006 21028 56006,M
ALO,2022-03-04 12:54,28.00,19.00,68.57,110.00,11.00,0.00,30.31,1027.40,10.00,M,CLR,M,M,M,M,M,M,M,M,M,M,M,M,M,M,17.41,KALO 041254Z 11011KT 10SM CLR M02/M07 A3031 RMK AO2 SLP274 T10221072,M
ALO,2022-03-04 13:54,30.00,19.90,65.66,110.00,13.00,0.00,30.31,1027.50,10.00,21.00,CLR,M,M,M,M,M,M,M,M,M,M,M,M,M,M,19.01,KALO 041354Z 11013G21KT 10SM CLR M01/M07 A3031 RMK AO2 SLP275 T10111067,M
ALO,2022-03-04 14:54,32.00,19.90,60.55,120.00,15.00,0.00,30.29,1026.60,10.00,M,CLR,M,M,M,M,M,M,M,M,M,M,M,M,M,M,20.78,KALO 041454Z 12015KT 10SM CLR 00/M07 A3029 RMK AO2 SLP266 T00001067 58011,M
ALO,2022-03-04 15:54,35.10,21.00,56.05,120.00,14.00,0.00,30.26,1025.50,10.00,21.00,CLR,M,M,M,M,M,M,M,M,M,M,M,M,M,M,25.16,KALO 041554Z 12014G21KT 10SM CLR 02/M06 A3026 RMK AO2 SLP255 T00171061,M
ALO,2022-03-04 16:54,37.00,21.90,54.01,120.00,15.00,0.00,30.23,1024.50,10.00,M,CLR,M,M,M,M,M,M,M,M,M,M,M,M,M,M,27.26,KALO 041654Z 12015KT 10SM CLR 03/M06 A3023 RMK AO2 SLP245 T00281056,M
ALO,2022-03-04 17:54,39.00,23.00,52.30,110.00,17.00,0.00,30.18,1022.90,10.00,26.00,CLR,M,M,M,M,M,M,M,M,M,M,M,26.00,110.00,2022-03-04 17:49,29.25,KALO 041754Z 11017G26KT 10SM CLR 04/M05 A3018 RMK AO2 PK WND 11026/1749 SLP229 T00391050 10039 21028 58034,M
ALO,2022-03-04 18:54,42.10,23.00,46.37,120.00,17.00,0.00,30.13,1021.30,10.00,25.00,CLR,M,M,M,M,M,M,M,M,M,M,M,29.00,100.00,2022-03-04 18:13,33.31,KALO 041854Z 12017G25KT 10SM CLR 06/M05 A3013 RMK AO2 PK WND 10029/1813 SLP213 T00561050,M
ALO,2022-03-04 19:54,43.00,25.00,48.70,120.00,14.00,0.00,30.08,1019.50,10.00,27.00,CLR,M,M,M,M,M,M,M,M,M,M,M,29.00,110.00,2022-03-04 19:20,35.34,KALO 041954Z 12014G27KT 10SM CLR 06/M04 A3008 RMK AO2 PK WND 11029/1920 SLP195 T00611039,M
ALO,2022-03-04 20:54,44.10,26.10,48.88,110.00,19.00,0.00,30.07,1019.00,10.00,26.00,CLR,M,M,M,M,M,M,M,M,M,M,M,27.00,120.00,2022-03-04 20:39,35.44,KALO 042054Z 11019G26KT 10SM CLR 07/M03 A3007 RMK AO2 PK WND 12027/2039 SLP190 T00671033 56037,M
ALO,2022-03-04 21:54,43.00,28.00,55.14,130.00,20.00,0.00,30.05,1018.30,10.00,30.00,CLR,M,M,M,M,M,M,M,M,M,M,M,30.00,130.00,2022-03-04 21:51,33.75,KALO 042154Z 13020G30KT 10SM CLR 06/M02 A3005 RMK AO2 PK WND 13030/2151 SLP183 T00611022,M
ALO,2022-03-04 22:54,42.10,28.90,59.22,130.00,18.00,0.00,30.02,1017.30,10.00,27.00,CLR,M,M,M,M,M,M,M,M,M,M,M,33.00,120.00,2022-03-04 22:08,33.04,KALO 042254Z 13018G27KT 10SM CLR 06/M02 A3002 RMK AO2 PK WND 12033/2208 SLP173 T00561017,M
ALO,2022-03-04 23:54,39.90,28.00,62.15,120.00,18.00,0.00,30.00,1016.70,10.00,27.00,CLR,M,M,M,M,M,M,M,M,M,M,M,31.00,120.00,2022-03-04 23:30,30.15,KALO 042354Z 12018G27KT 10SM CLR 04/M02 A3000 RMK AO2 PK WND 12031/2330 SLP167 T00441022 10072 20039 57024,M
ALO,2022-03-05 00:54,39.00,28.00,64.37,120.00,18.00,0.00,29.98,1016.20,10.00,27.00,CLR,M,M,M,M,M,M,M,M,M,M,M,32.00,120.00,2022-03-05 00:19,28.96,KALO 050054Z 12018G27KT 10SM CLR 04/M02 A2998 RMK AO2 PK WND 12032/0019 SLP162 T00391022,M
ALO,2022-03-05 01:54,39.00,28.00,64.37,120.00,17.00,0.00,29.96,1015.20,10.00,26.00,CLR,M,M,M,M,M,M,M,M,M,M,M,29.00,120.00,2022-03-05 01:42,29.25,KALO 050154Z AUTO 12017G26KT 10SM CLR 04/M02 A2996 RMK AO2 PK WND 12029/0142 SLP152 T00391022,M
ALO,2022-03-05 02:54,39.90,28.90,64.49,130.00,15.00,0.00,29.94,1014.80,10.00,25.00,CLR,M,M,M,M,M,M,M,M,M,M,M,29.00,130.00,2022-03-05 02:26,31.02,KALO 050254Z AUTO 13015G25KT 10SM CLR 04/M02 A2994 RMK AO2 PK WND 13029/0226 SLP148 T00441017 56017,M
ALO,2022-03-05 03:54,39.00,30.00,69.85,130.00,11.00,0.00,29.93,1014.40,10.00,M,BKN,M,M,M,11000.00,M,M,M,M,M,M,M,M,M,M,31.31,KALO 050354Z AUTO 13011KT 10SM BKN110 04/M01 A2993 RMK AO2 SLP144 T00391011,M
ALO,2022-03-05 04:54,39.00,32.00,75.75,120.00,6.00,T,29.95,1014.90,10.00,M,BKN,OVC,M,M,8000.00,10000.00,M,M,M,M,M,M,M,M,M,33.96,KALO 050454Z AUTO 12006KT 10SM BKN080 OVC100 04/00 A2995 RMK AO2 RAB38E53 SLP149 P0000 T00390000,M
ALO,2022-03-05 05:54,37.90,33.10,82.66,10.00,3.00,0.01,29.95,1014.90,8.00,M,SCT,OVC,M,M,6000.00,7500.00,M,M,UP,M,M,M,M,M,M,35.43,KALO 050554Z AUTO 01003KT 8SM UP SCT060 OVC075 03/01 A2995 RMK AO2 LTG DSNT SW AND W RAB0457E15B40E54UPB54 SLP149 P0001 60001 T00330006 10044 20028 400721028 53002,M
ALO,2022-03-05 06:23,37.00,34.00,88.78,350.00,3.00,0.05,29.95,M,2.50,M,FEW,BKN,OVC,M,2000.00,4700.00,7000.00,M,TSRA BR,M,M,M,M,M,M,34.40,KALO 050623Z AUTO 35003KT 2 1/2SM TSRA BR FEW020 BKN047 OVC070 03/01 A2995 RMK AO2 LTG DSNT SW AND W UPE0558RAB0558 TSB17 P0005 T00280011,M
ALO,2022-03-05 06:34,37.00,34.00,88.78,70.00,7.00,0.15,29.93,M,3.00,M,BKN,OVC,M,M,4700.00,7000.00,M,M,RA BR,M,M,M,M,M,M,30.87,KALO 050634Z AUTO 07007KT 3SM RA BR BKN047 OVC070 03/01 A2993 RMK AO2 UPE0558RAB0558 TSB17E31 P0015 T00280011,M
ALO,2022-03-05 06:54,37.90,35.10,89.53,90.00,10.00,0.18,29.91,1013.70,7.00,M,BKN,OVC,M,M,5500.00,7000.00,M,M,-RA,M,M,M,M,M,M,30.37,KALO 050654Z AUTO 09010KT 7SM -RA BKN055 OVC070 03/02 A2991 RMK AO2 LTG DSNT SW UPE0558RAB0558 TSB17E31 SLP137 P0018 T00330017,M
ALO,2022-03-05 07:54,39.90,35.10,82.80,120.00,15.00,0.11,29.86,1011.70,4.00,M,FEW,BKN,OVC,M,2800.00,5500.00,8500.00,M,TSRA,M,M,M,M,M,M,31.02,KALO 050754Z AUTO 12015KT 4SM TSRA FEW028 BKN055 OVC085 04/02 A2986 RMK AO2 TSB54 PRESFR SLP117 P0011 T00440017,M
ALO,2022-03-05 08:15,39.90,35.10,82.80,110.00,11.00,0.06,29.85,M,9.00,M,BKN,OVC,M,M,5500.00,8000.00,M,M,M,M,M,M,M,M,M,32.45,KALO 050815Z AUTO 11011KT 9SM BKN055 OVC080 04/02 A2985 RMK AO2 RAE06 TSE09 P0006 T00440017,M
ALO,2022-03-05 08:54,39.00,34.00,82.08,120.00,12.00,0.06,29.82,1010.40,10.00,M,FEW,M,M,M,6000.00,M,M,M,M,M,M,M,M,M,M,30.91,KALO 050854Z AUTO 12012KT 10SM FEW060 04/01 A2982 RMK AO2 RAE06 TSE09 SLP104 P0006 60035 T00390011 58042,M
ALO,2022-03-05 09:54,39.00,35.10,85.76,130.00,9.00,0.02,29.81,1010.00,4.00,M,FEW,BKN,OVC,M,4200.00,5500.00,7500.00,M,RA BR,M,M,M,M,M,M,32.22,KALO 050954Z AUTO 13009KT 4SM RA BR FEW042 BKN055 OVC075 04/02 A2981 RMK AO2 RAB37 SLP100 P0002 T00390017,M
ALO,2022-03-05 10:54,39.90,36.00,85.81,130.00,12.00,0.12,29.75,1008.10,8.00,M,BKN,OVC,M,M,6500.00,8000.00,M,M,M,M,M,M,M,M,M,32.06,KALO 051054Z AUTO 13012KT 8SM BKN065 OVC080 04/02 A2975 RMK AO2 LTG DSNT SE RAE50 SLP081 P0012 T00440022,M
ALO,2022-03-05 11:54,41.00,37.00,85.54,130.00,9.00,0.00,29.74,1007.60,8.00,M,BKN,M,M,M,4500.00,M,M,M,M,M,M,M,M,M,M,34.70,KALO 051154Z 13009KT 8SM BKN045 05/03 A2974 RMK AO2 SLP076 60049 70050 T00500028 10050 20028 58027,M
ALO,2022-03-05 12:54,42.10,37.90,84.93,150.00,5.00,0.01,29.77,1008.60,5.00,M,FEW,OVC,M,M,4100.00,8500.00,M,M,-RA BR,M,M,M,M,M,M,38.39,KALO 051254Z 15005KT 5SM -RA BR FEW041 OVC085 06/03 A2977 RMK AO2 RAB38 SLP086 P0001 T00560033,M
ALO,2022-03-05 13:54,42.10,39.00,88.67,150.00,8.00,0.06,29.74,1007.70,4.00,M,FEW,SCT,BKN,M,4000.00,9500.00,12000.00,M,BR,M,M,M,M,M,M,36.55,KALO 051354Z 15008KT 4SM BR FEW040 SCT095 BKN120 06/04 A2974 RMK AO2 RAE47 SLP077 P0006 T00560039,M
ALO,2022-03-05 14:54,45.00,42.10,89.49,140.00,8.00,0.00,29.70,1006.10,5.00,M,CLR,M,M,M,M,M,M,M,BR,M,M,M,M,M,M,40.13,KALO 051454Z 14008KT 5SM BR CLR 07/06 A2970 RMK AO2 SLP061 60007 T00720056 58014,M
ALO,2022-03-05 15:54,48.90,44.10,83.42,M,M,0.00,29.69,1005.90,7.00,M,CLR,M,M,M,M,M,M,M,M,M,M,M,M,M,M,M,KALO 051554Z 7SM CLR 09/07 A2969 RMK AO2 SLP059 T00940067,M
ALO,2022-03-05 16:54,51.10,46.00,82.62,180.00,6.00,0.00,29.71,1006.50,7.00,M,SCT,BKN,M,M,2300.00,11000.00,M,M,VCTS,M,M,M,M,M,M,51.10,KALO 051654Z 18006KT 7SM VCTS SCT023 BKN110 11/08 A2971 RMK AO2 LTG DSNT SW SLP065 T01060078,M
ALO,2022-03-05 17:02,52.00,46.90,82.68,190.00,8.00,T,29.71,M,6.00,M,BKN,OVC,M,M,2300.00,11000.00,M,M,VCTS -RA,M,M,M,M,M,M,52.00,KALO 051702Z 19008KT 6SM VCTS -RA BKN023 OVC110 11/08 A2971 RMK AO2 LTG DSNT SW RAB02 P0000 T01110083,M
ALO,2022-03-05 17:19,52.00,46.90,82.68,180.00,10.00,0.01,29.70,M,5.00,M,SCT,OVC,M,M,2300.00,6000.00,M,M,VCTS -RA,M,M,M,M,M,M,52.00,KALO 051719Z 18010KT 5SM VCTS -RA SCT023 OVC060 11/08 A2970 RMK AO2 LTG DSNT E-S RAB02 P0001 T01110083,M
ALO,2022-03-05 17:54,53.10,48.90,85.59,170.00,8.00,0.02,29.66,1004.70,5.00,M,FEW,SCT,OVC,M,3000.00,5000.00,10000.00,M,-RA BR,M,M,M,M,M,M,53.10,KALO 051754Z 17008KT 5SM -RA BR FEW030 SCT050 OVC100 12/09 A2966 RMK AO2 RAB02 PRESFR SLP047 P0002 60009 T01170094 10117 20050 58013,M
ALO,2022-03-05 18:54,55.00,52.00,89.59,160.00,9.00,T,29.62,1003.40,5.00,M,BKN,BKN,OVC,M,1900.00,3900.00,7000.00,M,BR,M,M,M,M,M,M,55.00,KALO 051854Z 16009KT 5SM BR BKN019 BKN039 OVC070 13/11 A2962 RMK AO2 RAE07 SLP034 P0000 T01280111,M
ALO,2022-03-05 19:37,57.00,53.10,86.77,200.00,11.00,0.00,29.62,M,6.00,19.00,BKN,OVC,M,M,1200.00,2400.00,M,M,VCTS BR,M,M,M,M,M,M,57.00,KALO 051937Z 20011G19KT 6SM VCTS BR BKN012 OVC024 14/12 A2962 RMK AO2 LTG DSNT SW-N T01390117,M
ALO,2022-03-05 19:54,57.00,54.00,89.68,170.00,7.00,0.03,29.59,1002.10,3.00,M,BKN,OVC,M,M,1200.00,2700.00,M,M,VCTS -RA BR,M,M,M,M,M,M,57.00,KALO 051954Z 17007KT 3SM VCTS -RA BR BKN012 OVC027 14/12 A2959 RMK AO2 LTG DSNT N AND NE RAB38 SLP021 P0003 T01390122,M
ALO,2022-03-05 20:05,57.00,53.10,86.77,150.00,7.00,T,29.58,M,5.00,M,OVC,M,M,M,1300.00,M,M,M,BR,M,M,M,M,M,M,57.00,KALO 052005Z 15007KT 5SM BR OVC013 14/12 A2958 RMK AO2 LTG DSNT ALQDS RAE1959 P0000 T01390117,M
ALO,2022-03-05 20:27,55.90,53.10,90.29,170.00,8.00,T,29.59,M,6.00,M,BKN,OVC,M,M,1300.00,3200.00,M,M,VCTS BR,M,M,M,M,M,M,55.90,KALO 052027Z 17008KT 6SM VCTS BR BKN013 OVC032 13/12 A2959 RMK AO2 LTG DSNT S AND SW RAE1959 P0000 T01330117,M
ALO,2022-03-05 20:37,55.90,53.10,90.29,240.00,5.00,T,29.59,M,5.00,M,BKN,BKN,OVC,M,1400.00,2800.00,4000.00,M,TS BR,M,M,M,M,M,M,55.90,KALO 052037Z 24005KT 5SM TS BR BKN014 BKN028 OVC040 13/12 A2959 RMK AO2 LTG DSNT ALQDS RAE1959 TSB31 P0000 T01330117,M
ALO,2022-03-05 20:54,54.00,51.10,89.88,20.00,3.00,0.01,29.58,1002.20,2.50,M,BKN,BKN,OVC,M,1100.00,1700.00,3700.00,M,VCTS -RA BR,M,M,M,M,M,M,54.00,KALO 052054Z 02003KT 2 1/2SM VCTS -RA BR BKN011 BKN017 OVC037 12/11 A2958 RMK AO2 LTG DSNT ALQDS RAE1959B45 TSB31E51 CIG 008V014 SLP022 P0001 60004 T01220106 56024,M
ALO,2022-03-05 20:59,54.00,51.10,89.88,0.00,0.00,T,29.57,M,1.75,M,SCT,OVC,M,M,900.00,1200.00,M,M,VCTS -RA BR,M,M,M,M,M,M,54.00,KALO 052059Z 00000KT 1 3/4SM R12/5000VP6000FT VCTS -RA BR SCT009 OVC012 12/11 A2957 RMK AO2 LTG DSNT ALQDS P0000 T01220106,M
ALO,2022-03-05 21:05,54.00,51.10,89.88,330.00,3.00,0.02,29.59,M,0.75,M,BKN,OVC,M,M,600.00,1300.00,M,M,+TSRA BR,M,M,M,M,M,M,54.00,KALO 052105Z 33003KT 3/4SM R12/3500VP6000FT +TSRA BR BKN006 OVC013 12/11 A2959 RMK AO2 LTG DSNT ALQDS TSB05 CIG 005V010 P0002 T01220106,M
ALO,2022-03-05 21:20,53.10,50.00,89.18,120.00,5.00,0.05,29.58,M,0.25,M,BKN,OVC,M,M,800.00,1500.00,M,M,-RA FG,M,M,M,M,M,M,53.10,KALO 052120Z 12005KT 1/4SM R12/1200V3000FT -RA FG BKN008 OVC015 12/10 A2958 RMK AO2 LTG DSNT ALQDS TSB05E20 P0005 T01170100,M
ALO,2022-03-05 21:35,55.00,53.10,93.29,110.00,7.00,0.09,29.56,M,1.00,M,BKN,BKN,OVC,M,1100.00,4600.00,9500.00,M,-RA BR,M,M,M,M,M,M,55.00,KALO 052135Z 11007KT 1SM R12/1800V6000FT -RA BR BKN011 BKN046 OVC095 13/12 A2956 RMK AO2 LTG DSNT NE-S TSB05E20 PRESFR P0009 T01280117,M
ALO,2022-03-05 21:49,55.40,51.80,87.65,130.00,4.00,0.11,29.56,M,1.00,M,SCT,BKN,OVC,M,900.00,1500.00,9500.00,M,-RA BR,M,M,M,M,M,M,55.40,KALO 052149Z 13004KT 1SM R12/4000VP6000FT -RA BR SCT009 BKN015 OVC095 13/11 A2956 RMK AO2 LTG DSNT NE-SE TSB05E20 P0011,M
ALO,2022-03-05 21:54,55.90,53.10,90.29,140.00,5.00,0.12,29.56,1001.20,1.00,M,BKN,BKN,OVC,M,1100.00,5000.00,7000.00,M,-RA BR,M,M,M,M,M,M,55.90,KALO 052154Z 14005KT 1SM R12/3000V5000FT -RA BR BKN011 BKN050 OVC070 13/12 A2956 RMK AO2 LTG DSNT NE-SE TSB05E20 SLP012 P0012 T01330117,M
ALO,2022-03-05 21:57,55.90,53.10,90.29,140.00,6.00,0.01,29.56,M,1.00,M,BKN,BKN,OVC,M,800.00,1400.00,9500.00,M,RA BR,M,M,M,M,M,M,55.90,KALO 052157Z 14006KT 1SM R12/3000V4500FT RA BR BKN008 BKN014 OVC095 13/12 A2956 RMK AO2 LTG DSNT NE-SE P0001 T01330117,M
ALO,2022-03-05 22:28,55.90,54.00,93.32,170.00,7.00,0.09,29.54,M,1.00,M,BKN,BKN,OVC,M,400.00,1900.00,3800.00,M,-RA BR,M,M,M,M,M,M,55.90,KALO 052228Z 17007KT 1SM R12/4000VP6000FT -RA BR BKN004 BKN019 OVC038 13/12 A2954 RMK AO2 LTG DSNT NE CIG 003V008 P0009 T01330122,M
ALO,2022-03-05 22:47,57.00,54.00,89.68,160.00,8.00,0.10,29.54,M,2.00,M,SCT,BKN,OVC,M,400.00,1800.00,2400.00,M,BR,M,M,M,M,M,M,57.00,KALO 052247Z 16008KT 2SM R12/6000VP6000FT BR SCT004 BKN018 OVC024 14/12 A2954 RMK AO2 LTG DSNT N RAE43 P0010 T01390122,M
ALO,2022-03-05 22:54,57.00,54.00,89.68,160.00,8.00,0.10,29.54,1000.50,3.00,M,FEW,SCT,OVC,M,400.00,1800.00,2600.00,M,BR,M,M,M,M,M,M,57.00,KALO 052254Z 16008KT 3SM BR FEW004 SCT018 OVC026 14/12 A2954 RMK AO2 LTG DSNT N RAE43 SLP005 P0010 T01390122,M
ALO,2022-03-05 23:46,55.90,53.10,90.29,160.00,8.00,0.00,29.52,M,2.50,M,SCT,BKN,OVC,M,600.00,1800.00,3100.00,M,BR,M,M,M,M,M,M,55.90,KALO 052346Z 16008KT 2 1/2SM BR SCT006 BKN018 OVC031 13/12 A2952 RMK AO2 LTG DSNT W T01330117,M
ALO,2022-03-05 23:54,55.90,53.10,90.29,170.00,8.00,0.00,29.52,999.80,3.00,M,SCT,BKN,M,M,600.00,2200.00,M,M,BR,M,M,M,M,M,M,55.90,KALO 052354Z 17008KT 3SM BR SCT006 BKN022 13/12 A2952 RMK AO2 LTG DSNT SW AND W SLP998 60026 T01330117 10139 20117 58015,M
ALO,2022-03-06 00:03,55.90,53.10,90.29,160.00,8.00,0.00,29.51,M,4.00,M,FEW,SCT,M,M,600.00,2200.00,M,M,BR,M,M,M,M,M,M,55.90,KALO 060003Z 16008KT 4SM BR FEW006 SCT022 13/12 A2951 RMK AO2 LTG DSNT SW AND W T01330117,M
ALO,2022-03-06 00:25,55.90,53.10,90.29,170.00,7.00,T,29.51,M,6.00,M,SCT,BKN,M,M,8500.00,11000.00,M,M,VCTS -RA BR,M,M,M,M,M,M,55.90,KALO 060025Z 17007KT 6SM VCTS -RA BR SCT085 BKN110 13/12 A2951 RMK AO2 LTG DSNT SW-N RAB25 P0000 T01330117,M
ALO,2022-03-06 00:34,55.00,53.10,93.29,270.00,20.00,T,29.55,M,3.00,33.00,FEW,SCT,BKN,M,2200.00,6500.00,8000.00,M,-TSRA BR,M,M,M,33.00,270.00,2022-03-06 00:32,55.00,KALO 060034Z 27020G33KT 3SM R12/5000VP6000FT -TSRA BR FEW022 SCT065 BKN080 13/12 A2955 RMK AO2 PK WND 27033/0032 LTG DSNT ALQDS RAB25 TSB28 PRESRR P0000 T01280117,M
ALO,2022-03-06 00:39,52.00,48.90,89.13,270.00,15.00,0.05,29.53,M,1.75,33.00,SCT,BKN,OVC,M,2900.00,6500.00,12000.00,M,+TSRA BR,M,M,M,33.00,270.00,2022-03-06 00:32,52.00,KALO 060039Z 27015G33KT 1 3/4SM R12/5000VP6000FT +TSRA BR SCT029 BKN065 OVC120 11/09 A2953 RMK AO2 PK WND 27033/0032 LTG DSNT ALQDS RAB25 TSB28 P0005 T01110094,M
ALO,2022-03-06 00:51,51.80,46.40,81.74,M,M,0.24,29.53,M,1.50,M,BKN,BKN,OVC,M,3100.00,6500.00,8000.00,M,+TSRA,M,M,M,33.00,270.00,2022-03-06 00:32,51.80,KALO 060051Z 1 1/2SM R12/3500VP6000FT +TSRA BKN031 BKN065 OVC080 11/08 A2953 RMK AO2 PK WND 27033/0032 WSHFT 0031 LTG DSNT ALQDS RAB25 TSB28 P0024,M
ALO,2022-03-06 00:54,51.10,46.90,85.48,M,4.00,0.31,29.50,999.30,1.75,16.00,BKN,BKN,OVC,M,3600.00,6500.00,8000.00,M,TSRA BR,M,M,M,33.00,270.00,2022-03-06 00:32,51.10,KALO 060054Z VRB04G16KT 1 3/4SM R12/3500VP6000FT TSRA BR BKN036 BKN065 OVC080 11/08 A2950 RMK AO2 PK WND 27033/0032 WSHFT 0031 LTG DSNT ALQDS RAB25 TSB28 PRESFR SLP993 P0031 T01060083,M
ALO,2022-03-06 00:58,51.10,46.90,85.48,140.00,6.00,0.05,29.49,M,3.00,M,BKN,BKN,OVC,M,3800.00,6500.00,8000.00,M,-TSRA BR,M,M,M,M,M,M,51.10,KALO 060058Z 14006KT 3SM R12/3500VP6000FT -TSRA BR BKN038 BKN065 OVC080 11/08 A2949 RMK AO2 LTG DSNT ALQDS PRESFR P0005 T01060083,M
ALO,2022-03-06 01:17,50.00,46.00,86.06,260.00,5.00,0.07,29.53,M,10.00,M,FEW,BKN,OVC,M,4200.00,7000.00,10000.00,M,VCTS -RA,M,M,M,M,M,M,50.00,KALO 060117Z 26005KT 10SM VCTS -RA FEW042 BKN070 OVC100 10/08 A2953 RMK AO2 LTG DSNT NE-S TSE11 PRESRR P0007 T01000078,M
ALO,2022-03-06 01:29,51.10,46.90,85.48,230.00,13.00,0.08,29.54,M,5.00,M,FEW,BKN,OVC,M,3000.00,5000.00,10000.00,M,RA BR,M,M,M,M,M,M,51.10,KALO 060129Z 23013KT 5SM RA BR FEW030 BKN050 OVC100 11/08 A2954 RMK AO2 LTG DSNT NE-S TSE11 P0008 T01060083,M
ALO,2022-03-06 01:38,53.10,48.00,82.76,0.00,0.00,0.11,29.46,M,7.00,M,FEW,BKN,OVC,M,2900.00,5000.00,9500.00,M,VCTS -RA,M,M,M,M,M,M,53.10,KALO 060138Z 00000KT 7SM VCTS -RA FEW029 BKN050 OVC095 12/09 A2946 RMK AO2 LTG DSNT NE-SE TSE11 PRESFR P0011 T01170089,M
ALO,2022-03-06 01:54,51.10,46.90,85.48,120.00,7.00,0.11,29.46,998.00,10.00,M,FEW,SCT,M,M,5500.00,9000.00,M,M,M,M,M,M,M,M,M,51.10,KALO 060154Z 12007KT 10SM FEW055 SCT090 11/08 A2946 RMK AO2 LTG DSNT NE-SE RAE46 TSE11 SLP980 P0011 T01060083,M
ALO,2022-03-06 02:32,46.00,44.10,93.03,100.00,5.00,0.00,29.47,M,0.75,M,CLR,M,M,M,M,M,M,M,BR,M,M,M,M,M,M,43.02,KALO 060232Z 10005KT 3/4SM R12/P6000FT BR CLR 08/07 A2947 RMK AO2 T00780067,M
ALO,2022-03-06 02:54,48.90,45.00,86.33,0.00,0.00,0.00,29.48,998.50,8.00,M,CLR,M,M,M,M,M,M,M,M,M,M,M,M,M,M,48.90,KALO 060254Z 00000KT 8SM CLR 09/07 A2948 RMK AO2 SLP985 60042 T00940072 55017,M
ALO,2022-03-06 03:54,50.00,46.00,86.06,200.00,20.00,0.00,29.46,997.80,10.00,28.00,CLR,M,M,M,M,M,M,M,M,M,M,M,28.00,220.00,2022-03-06 03:54,50.00,KALO 060354Z 20020G28KT 10SM CLR 10/08 A2946 RMK AO2 PK WND 22028/0354 SLP978 T01000078,M
ALO,2022-03-06 04:02,50.00,45.00,82.86,220.00,31.00,0.00,29.47,M,10.00,42.00,FEW,SCT,M,M,900.00,1400.00,M,M,M,M,M,M,42.00,220.00,2022-03-06 04:02,50.00,KALO 060402Z 22031G42KT 10SM FEW009 SCT014 10/07 A2947 RMK AO2 PK WND 22042/0402 WSHFT 0344 PRESRR T01000072,M
ALO,2022-03-06 04:10,48.90,45.00,86.33,220.00,25.00,0.00,29.48,M,8.00,42.00,BKN,BKN,M,M,700.00,1400.00,M,M,M,M,M,M,42.00,220.00,2022-03-06 04:02,40.69,KALO 060410Z 22025G42KT 8SM BKN007 BKN014 09/07 A2948 RMK AO2 PK WND 22042/0402 WSHFT 0344 CIG 005V009 PRESRR T00940072,M
ALO,2022-03-06 04:31,41.00,37.90,88.62,230.00,30.00,0.00,29.52,M,2.50,47.00,OVC,M,M,M,500.00,M,M,M,BR,M,M,M,47.00,220.00,2022-03-06 04:26,29.07,KALO 060431Z 23030G47KT 2 1/2SM BR OVC005 05/03 A2952 RMK AO2 PK WND 22047/0426 WSHFT 0344 PRESRR T00500033,M
ALO,2022-03-06 04:41,39.90,36.00,85.81,240.00,25.00,0.00,29.53,M,2.50,41.00,OVC,M,M,M,400.00,M,M,M,BR,M,M,M,47.00,220.00,2022-03-06 04:26,28.51,KALO 060441Z 24025G41KT 2 1/2SM BR OVC004 04/02 A2953 RMK AO2 PK WND 22047/0426 WSHFT 0344 PRESRR T00440022,M
ALO,2022-03-06 04:54,37.90,35.10,89.53,250.00,26.00,0.00,29.55,1001.00,2.50,35.00,OVC,M,M,M,400.00,M,M,M,BR,M,M,M,47.00,220.00,2022-03-06 04:26,25.59,KALO 060454Z 25026G35KT 2 1/2SM BR OVC004 03/02 A2955 RMK AO2 PK WND 22047/0426 WSHFT 0344 SLP010 T00330017,M
ALO,2022-03-06 05:03,37.00,34.00,88.78,250.00,26.00,0.00,29.55,M,3.00,38.00,OVC,M,M,M,500.00,M,M,M,BR,M,M,M,38.00,260.00,2022-03-06 05:00,24.37,KALO 060503Z 25026G38KT 3SM BR OVC005 03/01 A2955 RMK AO2 PK WND 26038/0500 CIG 004V007 T00280011,M
ALO,2022-03-06 05:54,35.10,30.90,84.49,270.00,25.00,0.00,29.63,1003.70,10.00,39.00,OVC,M,M,M,900.00,M,M,M,M,M,M,M,40.00,250.00,2022-03-06 05:17,22.01,KALO 060554Z 27025G39KT 10SM OVC009 02/M01 A2963 RMK AO2 PK WND 25040/0517 CIG 006V014 PRESRR SLP037 60042 T00171006 10117 20017 401390017 53050,M
ALO,2022-03-06 06:23,35.10,30.90,84.49,280.00,21.00,0.00,29.66,M,5.00,33.00,OVC,M,M,M,1000.00,M,M,M,BR,M,M,M,34.00,260.00,2022-03-06 06:13,22.99,KALO 060623Z 28021G33KT 5SM BR OVC010 02/M01 A2966 RMK AO2 PK WND 26034/0613 CIG 008V014 T00171006,M
ALO,2022-03-06 06:54,34.00,30.00,85.11,260.00,18.00,T,29.70,1006.10,5.00,32.00,OVC,M,M,M,1200.00,M,M,M,-SN BR,M,M,M,37.00,270.00,2022-03-06 06:27,22.38,KALO 060654Z 26018G32KT 5SM -SN BR OVC012 01/M01 A2970 RMK AO2 PK WND 27037/0627 SNB42 SLP061 P0000 T00111011,M
ALO,2022-03-06 07:54,33.10,28.00,81.30,280.00,21.00,T,29.75,1008.00,10.00,33.00,OVC,M,M,M,1500.00,M,M,M,M,M,M,M,34.00,270.00,2022-03-06 06:57,20.32,KALO 060754Z 28021G33KT 10SM OVC015 01/M02 A2975 RMK AO2 PK WND 27034/0657 SNE46 SLP080 P0000 T00061022,M
ALO,2022-03-06 08:54,33.10,27.00,78.03,280.00,19.00,0.00,29.80,1009.60,10.00,31.00,OVC,M,M,M,1500.00,M,M,M,M,M,M,M,36.00,280.00,2022-03-06 08:35,20.89,KALO 060854Z 28019G31KT 10SM OVC015 01/M03 A2980 RMK AO2 PK WND 28036/0835 SLP096 60000 T00061028 51057,M
ALO,2022-03-06 09:54,32.00,26.10,78.58,290.00,19.00,0.00,29.84,1010.90,10.00,29.00,OVC,M,M,M,1500.00,M,M,M,M,M,M,M,31.00,280.00,2022-03-06 09:26,19.44,KALO 060954Z 29019G29KT 10SM OVC015 00/M03 A2984 RMK AO2 PK WND 28031/0926 SLP109 T00001033,M
ALO,2022-03-06 10:54,30.90,24.10,75.59,280.00,14.00,0.00,29.87,1012.10,10.00,27.00,OVC,M,M,M,1800.00,M,M,M,M,M,M,M,33.00,280.00,2022-03-06 09:58,19.74,KALO 061054Z 28014G27KT 10SM OVC018 M01/M04 A2987 RMK AO2 PK WND 28033/0958 SLP121 T10061044,M
ALO,2022-03-06 11:54,30.90,24.10,75.59,290.00,10.00,0.00,29.91,1013.50,10.00,25.00,OVC,M,M,M,2200.00,M,M,M,M,M,M,M,28.00,260.00,2022-03-06 11:08,21.59,KALO 061154Z 29010G25KT 10SM OVC022 M01/M04 A2991 RMK AO2 PK WND 26028/1108 SLP135 60000 70077 T10061044 10011 21006 53037,M
ALO,2022-03-06 12:54,30.00,23.00,74.87,270.00,12.00,0.00,29.96,1015.00,10.00,M,OVC,M,M,M,2000.00,M,M,M,M,M,M,M,27.00,300.00,2022-03-06 12:18,19.46,KALO 061254Z 27012KT 10SM OVC020 M01/M05 A2996 RMK AO2 PK WND 30027/1218 SLP150 T10111050,M
ALO,2022-03-06 13:43,30.00,21.90,71.48,280.00,15.00,0.00,29.99,M,10.00,21.00,SCT,M,M,M,2100.00,M,M,M,M,M,M,M,M,M,M,18.19,KALO 061343Z 28015G21KT 10SM SCT021 M01/M06 A2999 RMK AO2 T10111056,M
ALO,2022-03-06 13:54,30.00,21.90,71.48,290.00,11.00,0.00,29.99,1016.20,10.00,20.00,SCT,M,M,M,2100.00,M,M,M,M,M,M,M,M,M,M,19.94,KALO 061354Z 29011G20KT 10SM SCT021 M01/M06 A2999 RMK AO2 SLP162 T10111056,M
ALO,2022-03-06 14:02,30.00,21.90,71.48,290.00,14.00,0.00,30.00,M,10.00,26.00,BKN,M,M,M,1900.00,M,M,M,M,M,M,M,26.00,300.00,2022-03-06 13:59,18.58,KALO 061402Z 29014G26KT 10SM BKN019 M01/M06 A3000 RMK AO2 PK WND 30026/1359 T10111056,M
ALO,2022-03-06 14:37,30.90,23.00,72.18,280.00,17.00,0.00,30.01,M,10.00,23.00,SCT,M,M,M,2000.00,M,M,M,M,M,M,M,26.00,300.00,2022-03-06 13:59,18.63,KALO 061437Z 28017G23KT 10SM SCT020 M01/M05 A3001 RMK AO2 PK WND 30026/1359 T10061050,M
ALO,2022-03-06 14:54,30.90,21.90,68.91,280.00,14.00,0.00,30.02,1017.40,10.00,23.00,SCT,M,M,M,1900.00,M,M,M,M,M,M,M,26.00,300.00,2022-03-06 13:59,19.74,KALO 061454Z 28014G23KT 10SM SCT019 M01/M06 A3002 RMK AO2 PK WND 30026/1359 SLP174 T10061056 51036,M
ALO,2022-03-06 15:54,33.10,24.10,69.17,280.00,15.00,0.00,30.04,1017.70,10.00,21.00,CLR,M,M,M,M,M,M,M,M,M,M,M,M,M,M,22.21,KALO 061554Z 28015G21KT 10SM CLR 01/M04 A3004 RMK AO2 SLP177 T00061044,M
ALO,2022-03-06 16:51,33.80,24.80,69.25,290.00,14.00,0.00,30.06,M,10.00,21.00,BKN,M,M,M,2400.00,M,M,M,M,M,M,M,M,M,M,23.48,KALO 061651Z 29014G21KT 10SM BKN024 01/M04 A3006 RMK AO2,M
ALO,2022-03-06 16:54,33.10,23.00,66.06,290.00,12.00,0.00,30.06,1018.70,10.00,21.00,BKN,M,M,M,2400.00,M,M,M,M,M,M,M,M,M,M,23.40,KALO 061654Z 29012G21KT 10SM BKN024 01/M05 A3006 RMK AO2 SLP187 T00061050,M
ALO,2022-03-06 17:54,35.10,25.00,66.31,320.00,13.00,0.00,30.07,1019.20,10.00,19.00,BKN,M,M,M,2300.00,M,M,M,M,M,M,M,M,M,M,25.54,KALO 061754Z 32013G19KT 290V010 10SM BKN023 02/M04 A3007 RMK AO2 SLP192 T00171039 10022 21017 51013,M
ALO,2022-03-06 18:54,35.10,25.00,66.31,310.00,11.00,0.00,30.08,1019.50,10.00,M,OVC,M,M,M,2400.00,M,M,M,M,M,M,M,M,M,M,26.38,KALO 061854Z 31011KT 10SM OVC024 02/M04 A3008 RMK AO2 SLP195 T00171039,M
ALO,2022-03-06 19:54,35.10,25.00,66.31,300.00,12.00,0.00,30.09,1019.80,10.00,M,OVC,M,M,M,2500.00,M,M,M,M,M,M,M,M,M,M,25.95,KALO 061954Z 30012KT 10SM OVC025 02/M04 A3009 RMK AO2 SLP198 T00171039,M
ALO,2022-03-06 20:54,34.00,25.00,69.28,320.00,10.00,0.00,30.07,1019.20,10.00,M,OVC,M,M,M,2200.00,M,M,M,M,M,M,M,M,M,M,25.48,KALO 062054Z 32010KT 10SM OVC022 01/M04 A3007 RMK AO2 SLP192 T00111039 58001,M
ALO,2022-03-06 21:54,34.00,24.10,66.72,320.00,15.00,0.00,30.04,1018.10,10.00,20.00,OVC,M,M,M,2300.00,M,M,M,M,M,M,M,M,M,M,23.37,KALO 062154Z 32015G20KT 10SM OVC023 01/M04 A3004 RMK AO2 SLP181 T00111044,M
ALO,2022-03-06 22:54,34.00,24.10,66.72,310.00,9.00,0.00,30.08,1019.60,10.00,M,OVC,M,M,M,2500.00,M,M,M,M,M,M,M,M,M,M,26.00,KALO 062254Z 31009KT 10SM OVC025 01/M04 A3008 RMK AO2 SLP196 T00111044,M
ALO,2022-03-06 23:54,32.00,24.10,72.30,310.00,10.00,0.00,30.07,1019.30,10.00,M,OVC,M,M,M,2400.00,M,M,M,M,M,M,M,M,M,M,22.97,KALO 062354Z 31010KT 10SM OVC024 00/M04 A3007 RMK AO2 SLP193 T00001044 10017 20000 55000,M
ALO,2022-03-07 00:54,30.90,24.10,75.59,340.00,13.00,0.00,30.04,1018.10,10.00,M,OVC,M,M,M,2100.00,M,M,M,M,M,M,M,M,M,M,20.16,KALO 070054Z 34013KT 10SM OVC021 M01/M04 A3004 RMK AO2 SLP181 T10061044,M
ALO,2022-03-07 01:54,30.90,24.10,75.59,340.00,11.00,0.00,30.02,1017.60,10.00,M,OVC,M,M,M,1800.00,M,M,M,M,M,M,M,M,M,M,21.08,KALO 070154Z AUTO 34011KT 10SM OVC018 M01/M04 A3002 RMK AO2 SLP176 T10061044,M
ALO,2022-03-07 02:54,30.90,24.10,75.59,340.00,8.00,0.00,30.06,1018.80,10.00,M,OVC,M,M,M,1700.00,M,M,M,M,M,M,M,M,M,M,22.76,KALO 070254Z AUTO 34008KT 10SM OVC017 M01/M04 A3006 RMK AO2 SLP188 T10061044 55005,M
ALO,2022-03-07 03:54,30.90,24.10,75.59,350.00,10.00,0.00,30.06,1018.80,10.00,M,OVC,M,M,M,1700.00,M,M,M,M,M,M,M,M,M,M,21.59,KALO 070354Z AUTO 35010KT 10SM OVC017 M01/M04 A3006 RMK AO2 SLP188 T10061044,M
ALO,2022-03-07 04:54,30.00,24.10,78.40,350.00,11.00,0.00,30.04,1018.40,10.00,M,OVC,M,M,M,1600.00,M,M,M,M,M,M,M,M,M,M,19.94,KALO 070454Z AUTO 35011KT 10SM OVC016 M01/M04 A3004 RMK AO2 SLP184 T10111044,M
ALO,2022-03-07 05:26,28.90,25.00,85.14,330.00,7.00,T,30.06,M,1.75,M,OVC,M,M,M,1800.00,M,M,M,-SN BR,M,M,M,M,M,M,21.00,KALO 070526Z AUTO 33007KT 1 3/4SM -SN BR OVC018 M02/M04 A3006 RMK AO2 SNB15 P0000 T10171039,M
ALO,2022-03-07 05:54,28.90,25.00,85.14,330.00,7.00,0.02,30.04,1018.30,1.25,M,OVC,M,M,M,1500.00,M,M,M,-SN BR,M,M,M,M,M,M,21.00,KALO 070554Z AUTO 33007KT 1 1/4SM -SN BR OVC015 M02/M04 A3004 RMK AO2 SNB15 SLP183 P0002 60002 T10171039 10000 21017 400221017 58005,M
ALO,2022-03-07 06:54,28.90,25.00,85.14,350.00,8.00,0.04,30.01,1017.20,1.50,M,OVC,M,M,M,1900.00,M,M,M,-SN BR,M,M,M,M,M,M,20.29,KALO 070654Z AUTO 35008KT 1 1/2SM -SN BR OVC019 M02/M04 A3001 RMK AO2 SLP172 P0004 T10171039,M
ALO,2022-03-07 07:03,28.90,25.00,85.14,340.00,8.00,T,30.01,M,2.00,M,FEW,FEW,OVC,M,900.00,1400.00,2100.00,M,-SN BR,M,M,M,M,M,M,20.29,KALO 070703Z AUTO 34008KT 2SM -SN BR FEW009 FEW014 OVC021 M02/M04 A3001 RMK AO2 P0000 T10171039,M
ALO,2022-03-07 07:19,28.90,25.00,85.14,340.00,10.00,0.01,30.00,M,1.50,M,FEW,SCT,OVC,M,800.00,1400.00,1900.00,M,-SN BR,M,M,M,M,M,M,19.08,KALO 070719Z AUTO 34010KT 1 1/2SM -SN BR FEW008 SCT014 OVC019 M02/M04 A3000 RMK AO2 P0001 T10171039,M
ALO,2022-03-07 07:35,28.90,25.00,85.14,350.00,10.00,0.02,29.99,M,1.00,M,VV ,M,M,M,1300.00,M,M,M,-SN BR,M,M,M,M,M,M,19.08,KALO 070735Z AUTO 35010KT 1SM R12/5500VP6000FT -SN BR VV013 M02/M04 A2999 RMK AO2 P0002 T10171039,M
ALO,2022-03-07 07:54,28.90,25.00,85.14,350.00,11.00,0.03,30.00,1016.70,1.25,M,OVC,M,M,M,1300.00,M,M,M,-SN BR,M,M,M,M,M,M,18.55,KALO 070754Z AUTO 35011KT 1 1/4SM -SN BR OVC013 M02/M04 A3000 RMK AO2 SLP167 P0003 T10171039,M
ALO,2022-03-07 08:04,28.00,25.00,88.33,340.00,11.00,0.01,29.99,M,1.50,M,FEW,OVC,M,M,1200.00,1700.00,M,M,-SN BR,M,M,M,M,M,M,17.41,KALO 070804Z AUTO 34011KT 1 1/2SM -SN BR FEW012 OVC017 M02/M04 A2999 RMK AO2 P0001 T10221039,M
ALO,2022-03-07 08:15,28.00,25.00,88.33,340.00,9.00,0.01,29.99,M,0.75,M,VV ,M,M,M,1300.00,M,M,M,-SN BR,M,M,M,M,M,M,18.54,KALO 070815Z AUTO 34009KT 3/4SM R12/4500VP6000FT -SN BR VV013 M02/M04 A2999 RMK AO2 P0001 T10221039,M
ALO,2022-03-07 08:43,28.00,25.00,88.33,330.00,9.00,0.05,29.99,M,1.00,M,VV ,M,M,M,1100.00,M,M,M,-SN BR,M,M,M,M,M,M,18.54,KALO 070843Z AUTO 33009KT 1SM R12/4500VP6000FT -SN BR VV011 M02/M04 A2999 RMK AO2 P0005 T10221039,M
ALO,2022-03-07 08:54,28.00,25.00,88.33,320.00,10.00,0.06,30.00,1016.80,0.75,M,VV ,M,M,M,1100.00,M,M,M,-SN BR,M,M,M,M,M,M,17.95,KALO 070854Z AUTO 32010KT 3/4SM R12/4500V6000FT -SN BR VV011 M02/M04 A3000 RMK AO2 SLP168 P0006 60013 T10221039 55015,M
ALO,2022-03-07 09:12,28.00,25.00,88.33,330.00,11.00,0.02,29.99,M,0.75,M,FEW,OVC,M,M,500.00,900.00,M,M,-SN BR,M,M,M,M,M,M,17.41,KALO 070912Z AUTO 33011KT 3/4SM R12/4000V6000FT -SN BR FEW005 OVC009 M02/M04 A2999 RMK AO2 P0002 T10221039,M
ALO,2022-03-07 09:54,27.00,23.00,84.66,320.00,15.00,0.06,30.00,1016.90,0.75,M,VV ,M,M,M,800.00,M,M,M,-SN BR,M,M,M,M,M,M,14.30,KALO 070954Z AUTO 32015KT 3/4SM R12/3500V4500FT -SN BR VV008 M03/M05 A3000 RMK AO2 SLP169 P0006 T10281050,M
ALO,2022-03-07 10:06,26.10,23.00,87.87,320.00,13.00,0.02,30.00,M,1.00,M,VV ,M,M,M,1100.00,M,M,M,-SN BR,M,M,M,M,M,M,14.01,KALO 071006Z AUTO 32013KT 1SM R12/5000VP6000FT -SN BR VV011 M03/M05 A3000 RMK AO2 P0002 T10331050,M
ALO,2022-03-07 10:23,26.10,23.00,87.87,320.00,16.00,0.03,30.01,M,1.50,M,FEW,OVC,M,M,900.00,1600.00,M,M,-SN BR,M,M,M,M,M,M,12.73,KALO 071023Z AUTO 32016KT 1 1/2SM -SN BR FEW009 OVC016 M03/M05 A3001 RMK AO2 P0003 T10331050,M
ALO,2022-03-07 10:50,26.60,21.20,79.77,320.00,18.00,0.03,30.01,M,0.75,M,VV ,M,M,M,1400.00,M,M,M,-SN BR,M,M,M,M,M,M,12.64,KALO 071050Z AUTO 32018KT 3/4SM R12/5000VP6000FT -SN BR VV014 M03/M06 A3001 RMK AO2 P0003,M
ALO,2022-03-07 10:54,26.10,21.90,83.89,320.00,15.00,0.04,30.01,1017.30,0.75,M,VV ,M,M,M,1400.00,M,M,M,-SN BR,M,M,M,M,M,M,13.13,KALO 071054Z AUTO 32015KT 3/4SM R12/5000VP6000FT -SN BR VV014 M03/M06 A3001 RMK AO2 SLP173 P0004 T10331056,M
ALO,2022-03-07 11:02,26.10,21.90,83.89,320.00,14.00,T,30.01,M,1.00,M,VV ,M,M,M,1400.00,M,M,M,-SN BR,M,M,M,M,M,M,13.56,KALO 071102Z AUTO 32014KT 1SM R12/P6000FT -SN BR VV014 M03/M06 A3001 RMK AO2 P0000 T10331056,M
ALO,2022-03-07 11:15,26.10,21.90,83.89,330.00,18.00,T,30.02,M,0.75,M,VV ,M,M,M,1200.00,M,M,M,-SN BR,M,M,M,M,M,M,11.98,KALO 071115Z AUTO 33018KT 3/4SM R12/5500VP6000FT -SN BR VV012 M03/M06 A3002 RMK AO2 P0000 T10331056,M
ALO,2022-03-07 11:26,26.10,21.90,83.89,330.00,16.00,0.01,30.02,M,1.00,M,VV ,M,M,M,1300.00,M,M,M,-SN BR,M,M,M,M,M,M,12.73,KALO 071126Z AUTO 33016KT 1SM R12/P6000FT -SN BR VV013 M03/M06 A3002 RMK AO2 P0001 T10331056,M
ALO,2022-03-07 11:45,26.10,21.90,83.89,330.00,18.00,0.01,30.02,M,1.25,25.00,OVC,M,M,M,1600.00,M,M,M,-SN BR,M,M,M,M,M,M,11.98,KALO 071145Z AUTO 33018G25KT 1 1/4SM -SN BR OVC016 M03/M06 A3002 RMK AO2 P0001 T10331056,M
ALO,2022-03-07 11:54,26.10,21.90,83.89,320.00,18.00,0.01,30.03,1017.90,1.50,M,OVC,M,M,M,1800.00,M,M,M,-SN BR,M,M,M,M,M,M,11.98,KALO 071154Z AUTO 32018KT 1 1/2SM -SN BR OVC018 M03/M06 A3003 RMK AO2 SLP179 P0001 60024 70026 T10331056 11017 21033 53010,M
ALO,2022-03-07 12:16,25.00,21.00,84.53,330.00,16.00,T,30.03,M,1.25,M,FEW,OVC,M,M,900.00,2200.00,M,M,-SN BR,M,M,M,M,M,M,11.29,KALO 071216Z AUTO 33016KT 1 1/4SM -SN BR FEW009 OVC022 M04/M06 A3003 RMK AO2 P0000 T10391061,M
ALO,2022-03-07 12:54,25.00,21.00,84.53,320.00,13.00,0.01,30.05,1018.60,2.00,M,SCT,OVC,M,M,1400.00,2800.00,M,M,-SN BR,M,M,M,M,M,M,12.60,KALO 071254Z 32013KT 2SM -SN BR SCT014 OVC028 M04/M06 A3005 RMK AO2 SLP186 P0001 T10391061,M
ALO,2022-03-07 12:59,25.00,21.00,84.53,320.00,13.00,0.01,30.05,M,1.75,M,BKN,BKN,OVC,M,1200.00,1700.00,2800.00,M,-SN BR,M,M,M,M,M,M,12.60,KALO 071259Z 32013KT 1 3/4SM R12/5500VP6000FT -SN BR BKN012 BKN017 OVC028 M04/M06 A3005 RMK AO2 P0001 T10391061,M
ALO,2022-03-07 13:13,25.00,21.00,84.53,320.00,16.00,0.02,30.05,M,2.50,22.00,SCT,OVC,M,M,1400.00,1800.00,M,M,-SN BR,M,M,M,M,M,M,11.29,KALO 071313Z 32016G22KT 2 1/2SM -SN BR SCT014 OVC018 M04/M06 A3005 RMK AO2 P0002 T10391061,M
ALO,2022-03-07 13:20,26.10,21.00,80.75,320.00,16.00,0.02,30.05,M,7.00,M,SCT,OVC,M,M,1200.00,1800.00,M,M,-SN,M,M,M,M,M,M,12.73,KALO 071320Z 32016KT 7SM -SN SCT012 OVC018 M03/M06 A3005 RMK AO2 P0002 T10331061,M
ALO,2022-03-07 13:54,26.10,19.00,74.16,320.00,14.00,0.02,30.07,1019.50,10.00,M,OVC,M,M,M,1800.00,M,M,M,M,M,M,M,M,M,M,13.56,KALO 071354Z 32014KT 10SM OVC018 M03/M07 A3007 RMK AO2 SNE23 SLP195 P0002 T10331072,M
ALO,2022-03-07 14:54,26.10,19.00,74.16,320.00,14.00,0.00,30.09,1019.90,10.00,23.00,OVC,M,M,M,1800.00,M,M,M,M,M,M,M,27.00,320.00,2022-03-07 14:43,13.56,KALO 071454Z 32014G23KT 10SM OVC018 M03/M07 A3009 RMK AO2 PK WND 32027/1443 SLP199 60003 T10331072 51020,M
ALO,2022-03-07 15:54,27.00,18.00,68.45,320.00,13.00,0.00,30.11,1020.70,10.00,M,BKN,M,M,M,2000.00,M,M,M,M,M,M,M,26.00,330.00,2022-03-07 15:02,15.16,KALO 071554Z 32013KT 10SM BKN020 M03/M08 A3011 RMK AO2 PK WND 33026/1502 SLP207 T10281078,M
ALO,2022-03-07 16:54,27.00,17.10,65.84,310.00,12.00,0.00,30.12,1021.00,10.00,M,SCT,M,M,M,2200.00,M,M,M,M,M,M,M,M,M,M,15.64,KALO 071654Z 31012KT 10SM SCT022 M03/M08 A3012 RMK AO2 SLP210 T10281083,M
ALO,2022-03-07 17:52,28.40,17.60,63.51,310.00,14.00,0.00,30.13,M,10.00,M,BKN,M,M,M,2600.00,M,M,M,M,M,M,M,M,M,M,16.52,KALO 071752Z 31014KT 10SM BKN026 M02/M08 A3013 RMK AO2,M
ALO,2022-03-07 17:54,28.90,17.10,60.90,310.00,15.00,0.00,30.13,1021.50,10.00,M,BKN,M,M,M,2600.00,M,M,M,M,M,M,M,M,M,M,16.76,KALO 071754Z 31015KT 10SM BKN026 M02/M08 A3013 RMK AO2 SLP215 60003 T10171083 11017 21039 51007,M
ALO,2022-03-07 18:42,30.00,18.00,60.53,320.00,15.00,0.00,30.14,M,10.00,M,SCT,M,M,M,2800.00,M,M,M,M,M,M,M,M,M,M,18.19,KALO 071842Z 32015KT 10SM SCT028 M01/M08 A3014 RMK AO2 T10111078,M
ALO,2022-03-07 18:54,28.90,19.00,66.08,340.00,16.00,0.00,30.13,1021.40,10.00,M,BKN,M,M,M,2800.00,M,M,M,M,M,M,M,M,M,M,16.38,KALO 071854Z 34016KT 10SM BKN028 M02/M07 A3013 RMK AO2 SLP214 T10171072,M
ALO,2022-03-07 19:24,28.90,18.00,63.31,330.00,15.00,0.00,30.13,M,10.00,M,SCT,M,M,M,2900.00,M,M,M,M,M,M,M,M,M,M,16.76,KALO 071924Z 33015KT 10SM SCT029 M02/M08 A3013 RMK AO2 T10171078,M
ALO,2022-03-07 20:09,30.90,19.00,60.92,330.00,14.00,0.00,30.14,M,10.00,M,M,M,M,M,M,M,M,M,M,M,M,M,M,M,M,19.74,KALO 072009Z 33014KT 10SM M01/M07 A3014 RMK AO2 T10061072 $,M
ALO,2022-03-07 20:54,32.00,19.00,58.27,300.00,12.00,0.00,30.13,1021.40,10.00,M,BKN,M,M,M,3100.00,M,M,M,M,M,M,M,M,M,M,22.00,KALO 072054Z 30012KT 10SM BKN031 00/M07 A3013 RMK AO2 SLP214 T00001072 $,M
ALO,2022-03-07 21:54,32.00,17.10,53.70,310.00,15.00,0.00,30.15,1022.00,10.00,20.00,CLR,M,M,M,M,M,M,M,M,M,M,M,M,M,M,20.78,KALO 072154Z 31015G20KT 10SM CLR 00/M08 A3015 RMK AO2 SLP220 T00001083 $,M
ALO,2022-03-07 22:54,32.00,16.00,51.20,320.00,13.00,0.00,30.15,1022.10,10.00,M,CLR,M,M,M,M,M,M,M,M,M,M,M,M,M,M,21.57,KALO 072254Z 32013KT 10SM CLR 00/M09 A3015 RMK AO2 SLP221 T00001089 $,M
ALO,2022-03-07 23:54,28.90,16.00,58.06,300.00,6.00,0.00,30.16,1022.50,10.00,M,CLR,M,M,M,M,M,M,M,M,M,M,M,M,M,M,21.80,KALO 072354Z 30006KT 10SM CLR M02/M09 A3016 RMK AO2 SLP225 T10171089 10006 21028 51009 $,M
ALO,2022-03-08 00:54,27.00,15.10,60.37,290.00,4.00,0.00,30.19,1023.40,10.00,M,CLR,M,M,M,M,M,M,M,M,M,M,M,M,M,M,21.58,KALO 080054Z 29004KT 10SM CLR M03/M09 A3019 RMK AO2 SLP234 T10281094 $,M
ALO,2022-03-08 01:54,25.00,15.10,65.58,0.00,0.00,0.00,30.19,1023.70,10.00,M,CLR,M,M,M,M,M,M,M,M,M,M,M,M,M,M,25.00,KALO 080154Z 00000KT 10SM CLR M04/M09 A3019 RMK AO2 SLP237 T10391094 $,M
ALO,2022-03-08 02:54,17.10,10.90,76.20,250.00,3.00,0.00,30.20,1024.00,10.00,M,CLR,M,M,M,M,M,M,M,M,M,M,M,M,M,M,11.66,KALO 080254Z AUTO 25003KT 10SM CLR M08/M12 A3020 RMK AO2 SLP240 T10831117 51011 $,M
ALO,2022-03-08 03:54,15.10,10.00,79.84,0.00,0.00,0.00,30.20,1024.20,10.00,M,CLR,M,M,M,M,M,M,M,M,M,M,M,M,M,M,15.10,KALO 080354Z AUTO 00000KT 10SM CLR M09/M12 A3020 RMK AO2 SLP242 T10941122 $,M
ALO,2022-03-08 04:54,12.90,7.00,76.82,0.00,0.00,0.00,30.20,1024.10,10.00,M,CLR,M,M,M,M,M,M,M,M,M,M,M,M,M,M,12.90,KALO 080454Z AUTO 00000KT 10SM CLR M11/M14 A3020 RMK AO2 SLP241 T11061139 $,M
ALO,2022-03-08 05:54,10.00,5.00,79.76,0.00,0.00,0.00,30.19,1024.00,10.00,M,CLR,M,M,M,M,M,M,M,M,T,M,T,M,M,M,10.00,KALO 080554Z AUTO 00000KT 10SM CLR M12/M15 A3019 RMK AO2 SLP240 I1000 I6000 T11221150 11017 21128 400061128 58001 $,M
ALO,2022-03-08 06:54,10.00,5.00,79.76,0.00,0.00,0.00,30.19,1023.80,10.00,M,CLR,M,M,M,M,M,M,M,M,T,M,M,M,M,M,10.00,KALO 080654Z AUTO 00000KT 10SM CLR M12/M15 A3019 RMK AO2 SLP238 I1000 T11221150 $,M
ALO,2022-03-08 07:54,12.90,7.00,76.82,240.00,3.00,0.00,30.18,M,10.00,M,CLR,M,M,M,M,M,M,M,M,T,M,M,M,M,M,6.85,KALO 080754Z AUTO 24003KT 10SM CLR M11/M14 A3018 RMK AO2 SLPNO I1000 T11061139 $,M
ALO,2022-03-08 08:54,9.00,3.90,79.31,0.00,0.00,0.00,30.16,1022.80,10.00,M,CLR,M,M,M,M,M,M,M,M,T,T,M,M,M,M,9.00,KALO 080854Z AUTO 00000KT 10SM CLR M13/M16 A3016 RMK AO2 SLP228 I1000 I3000 T11281156 58010 $,M
ALO,2022-03-08 09:54,8.10,1.90,75.29,200.00,4.00,0.00,30.16,1022.70,10.00,M,CLR,M,M,M,M,M,M,M,M,T,M,M,M,M,M,-0.49,KALO 080954Z AUTO 20004KT 10SM CLR M13/M17 A3016 RMK AO2 SLP227 I1000 T11331167 $,M
ALO,2022-03-08 10:54,9.00,3.90,79.31,0.00,0.00,0.00,30.15,1022.50,10.00,M,CLR,M,M,M,M,M,M,M,M,T,M,M,M,M,M,9.00,KALO 081054Z AUTO 00000KT 10SM CLR M13/M16 A3015 RMK AO2 SLP225 I1000 T11281156 $,M
ALO,2022-03-08 11:54,9.00,3.90,79.31,0.00,0.00,0.00,30.15,1022.50,10.00,M,CLR,M,M,M,M,M,M,M,M,T,M,T,M,M,M,9.00,KALO 081154Z 00000KT 10SM CLR M13/M16 A3015 RMK AO2 SLP225 70004 I1000 I6000 T11281156 11094 21139 56004 $,M
ALO,2022-03-08 12:54,10.00,5.00,79.76,150.00,3.00,0.00,30.15,1022.30,9.00,M,CLR,M,M,M,M,M,M,M,M,T,M,M,M,M,M,3.54,KALO 081254Z 15003KT 9SM CLR M12/M15 A3015 RMK AO2 SLP223 I1000 T11221150 $,M
ALO,2022-03-08 13:54,19.00,17.10,92.15,0.00,0.00,0.00,30.14,1021.90,10.00,M,CLR,M,M,M,M,M,M,M,M,M,M,M,M,M,M,19.00,KALO 081354Z 00000KT 10SM CLR M07/M08 A3014 RMK AO2 SLP219 T10721083,M
ALO,2022-03-08 14:54,26.10,17.10,68.34,220.00,7.00,0.00,30.14,1021.90,10.00,M,CLR,M,M,M,M,M,M,M,M,M,T,M,M,M,M,17.59,KALO 081454Z 22007KT 10SM CLR M03/M08 A3014 RMK AO2 SLP219 I3000 T10331083 56005,M
ALO,2022-03-08 15:54,30.00,18.00,60.53,220.00,13.00,0.00,30.12,1021.40,10.00,M,CLR,M,M,M,M,M,M,M,M,M,M,M,M,M,M,19.01,KALO 081554Z 22013KT 10SM CLR M01/M08 A3012 RMK AO2 SLP214 T10111078,M
ALO,2022-03-08 16:54,32.00,18.00,55.82,210.00,14.00,0.00,30.11,1020.80,10.00,M,CLR,M,M,M,M,M,M,M,M,M,M,M,M,M,M,21.16,KALO 081654Z 21014KT 10SM CLR 00/M08 A3011 RMK AO2 SLP208 T00001078,M
ALO,2022-03-08 17:54,35.10,19.90,53.49,210.00,15.00,0.00,30.08,1019.90,10.00,M,CLR,M,M,M,M,M,M,M,M,M,M,T,M,M,M,24.80,KALO 081754Z 21015KT 10SM CLR 02/M07 A3008 RMK AO2 SLP199 I6000 T00171067 10017 21133 58018,M
ALO,2022-03-08 18:54,36.00,21.00,54.08,190.00,14.00,0.00,30.05,1018.70,10.00,M,CLR,M,M,M,M,M,M,M,M,M,M,M,M,M,M,26.32,KALO 081854Z 19014KT 10SM CLR 02/M06 A3005 RMK AO2 SLP187 T00221061,M
ALO,2022-03-08 19:54,37.00,23.00,56.57,200.00,14.00,0.00,30.01,1017.30,10.00,21.00,CLR,M,M,M,M,M,M,M,M,M,M,M,M,M,M,27.61,KALO 081954Z 20014G21KT 10SM CLR 03/M05 A3001 RMK AO2 SLP173 T00281050,M
ALO,2022-03-08 20:54,37.00,24.10,59.24,200.00,13.00,0.00,29.98,1016.50,10.00,22.00,CLR,M,M,M,M,M,M,M,M,M,M,M,M,M,M,27.97,KALO 082054Z 20013G22KT 10SM CLR 03/M04 A2998 RMK AO2 SLP165 T00281044 56034,M
ALO,2022-03-08 21:54,37.90,24.10,57.18,210.00,16.00,0.00,29.96,1016.00,10.00,M,CLR,M,M,M,M,M,M,M,M,M,M,M,M,M,M,28.11,KALO 082154Z 21016KT 10SM CLR 03/M04 A2996 RMK AO2 SLP160 T00331044,M
ALO,2022-03-08 22:54,37.90,24.10,57.18,200.00,11.00,0.00,29.96,1015.70,10.00,M,CLR,M,M,M,M,M,M,M,M,M,M,M,M,M,M,29.92,KALO 082254Z 20011KT 10SM CLR 03/M04 A2996 RMK AO2 SLP157 T00331044,M
ALO,2022-03-08 23:54,36.00,24.10,61.62,170.00,12.00,0.00,29.97,1016.00,10.00,M,CLR,M,M,M,M,M,M,M,M,M,M,M,M,M,M,27.09,KALO 082354Z 17012KT 10SM CLR 02/M04 A2997 RMK AO2 SLP160 T00221044 10033 20017 55005,M
ALO,2022-03-09 00:54,34.00,24.10,66.72,180.00,12.00,0.00,29.97,1016.20,10.00,M,CLR,M,M,M,M,M,M,M,M,M,M,M,M,M,M,24.55,KALO 090054Z 18012KT 10SM CLR 01/M04 A2997 RMK AO2 SLP162 T00111044,M
ALO,2022-03-09 01:54,32.00,23.00,69.04,180.00,13.00,0.00,29.98,1016.30,10.00,M,FEW,M,M,M,6500.00,M,M,M,M,M,M,M,M,M,M,21.57,KALO 090154Z 18013KT 10SM FEW065 00/M05 A2998 RMK AO2 SLP163 T00001050,M
ALO,2022-03-09 02:54,33.10,23.00,66.06,200.00,14.00,0.00,29.98,1016.30,10.00,M,SCT,BKN,OVC,M,4800.00,6000.00,7000.00,M,M,M,M,M,M,M,M,22.58,KALO 090254Z AUTO 20014KT 10SM SCT048 BKN060 OVC070 01/M05 A2998 RMK AO2 SLP163 T00061050 53006,M
ALO,2022-03-09 03:54,32.00,24.10,72.30,230.00,8.00,0.00,29.99,1016.70,10.00,M,SCT,M,M,M,4900.00,M,M,M,M,M,M,M,M,M,M,24.11,KALO 090354Z AUTO 23008KT 10SM SCT049 00/M04 A2999 RMK AO2 SLP167 T00001044,M
ALO,2022-03-09 04:54,30.90,25.00,78.48,290.00,5.00,0.00,29.98,1016.30,10.00,M,FEW,BKN,M,M,1700.00,3000.00,M,M,M,M,M,M,M,M,M,25.09,KALO 090454Z AUTO 29005KT 10SM FEW017 BKN030 M01/M04 A2998 RMK AO2 SLP163 T10061039,M
ALO,2022-03-09 05:10,33.10,27.00,78.03,320.00,11.00,0.00,29.98,M,10.00,M,FEW,OVC,M,M,2300.00,2900.00,M,M,M,M,M,M,M,M,M,23.86,KALO 090510Z AUTO 32011KT 10SM FEW023 OVC029 01/M03 A2998 RMK AO2 T00061028,M
ALO,2022-03-09 05:32,33.10,27.00,78.03,330.00,11.00,0.00,29.98,M,10.00,M,SCT,OVC,M,M,2300.00,3100.00,M,M,M,M,M,M,M,M,M,23.86,KALO 090532Z AUTO 33011KT 10SM SCT023 OVC031 01/M03 A2998 RMK AO2 T00061028,M
ALO,2022-03-09 05:46,32.00,25.00,75.07,330.00,14.00,0.00,29.98,M,10.00,M,BKN,OVC,M,M,1600.00,3200.00,M,M,M,M,M,M,M,M,M,21.16,KALO 090546Z AUTO 33014KT 10SM BKN016 OVC032 00/M04 A2998 RMK AO2 T00001039,M
ALO,2022-03-09 05:54,32.00,25.00,75.07,330.00,14.00,0.00,29.98,1016.20,10.00,M,BKN,OVC,M,M,1800.00,3200.00,M,M,M,M,M,M,M,M,M,21.16,KALO 090554Z AUTO 33014KT 10SM BKN018 OVC032 00/M04 A2998 RMK AO2 SLP162 T00001039 10022 21011 400331139 50000,M
ALO,2022-03-09 06:19,30.90,24.10,75.59,330.00,12.00,0.00,29.98,M,10.00,M,SCT,OVC,M,M,1800.00,3800.00,M,M,M,M,M,M,M,M,M,20.60,KALO 090619Z AUTO 33012KT 10SM SCT018 OVC038 M01/M04 A2998 RMK AO2 T10061044,M
ALO,2022-03-09 06:54,30.00,24.10,78.40,320.00,8.00,0.00,29.99,1016.40,10.00,M,SCT,M,M,M,3700.00,M,M,M,M,M,M,M,M,M,M,21.65,KALO 090654Z AUTO 32008KT 10SM SCT037 M01/M04 A2999 RMK AO2 SLP164 T10111044,M
ALO,2022-03-09 07:51,30.20,24.80,80.07,320.00,8.00,0.00,29.99,M,10.00,M,BKN,BKN,OVC,M,1500.00,2100.00,2700.00,M,M,M,M,M,M,M,M,21.90,KALO 090751Z AUTO 32008KT 10SM BKN015 BKN021 OVC027 M01/M04 A2999 RMK AO2 $,M
ALO,2022-03-09 07:54,30.00,25.00,81.40,320.00,10.00,0.00,29.99,1016.60,10.00,M,BKN,BKN,OVC,M,1300.00,1900.00,2700.00,M,M,M,M,M,M,M,M,20.46,KALO 090754Z AUTO 32010KT 10SM BKN013 BKN019 OVC027 M01/M04 A2999 RMK AO2 SLP166 T10111039 $,M
ALO,2022-03-09 08:05,30.90,25.00,78.48,320.00,10.00,0.00,29.99,M,10.00,M,SCT,OVC,M,M,1300.00,2300.00,M,M,M,M,M,M,M,M,M,21.59,KALO 090805Z AUTO 32010KT 10SM SCT013 OVC023 M01/M04 A2999 RMK AO2 T10061039 $,M
ALO,2022-03-09 08:39,30.00,19.00,63.18,320.00,12.00,0.00,29.99,M,10.00,M,SCT,OVC,M,M,2300.00,3400.00,M,M,M,M,M,M,M,M,M,19.46,KALO 090839Z AUTO 32012KT 10SM SCT023 OVC034 M01/M07 A2999 RMK AO2 T10111072 $,M
ALO,2022-03-09 08:54,30.00,19.00,63.18,330.00,14.00,0.00,29.99,1016.50,10.00,M,OVC,M,M,M,3600.00,M,M,M,M,M,M,M,M,M,M,18.58,KALO 090854Z AUTO 33014KT 10SM OVC036 M01/M07 A2999 RMK AO2 SLP165 T10111072 $,M
ALO,2022-03-09 09:54,26.10,18.00,71.04,330.00,7.00,0.00,30.00,1016.90,10.00,M,CLR,M,M,M,M,M,M,M,M,M,M,M,M,M,M,17.59,KALO 090954Z AUTO 33007KT 10SM CLR M03/M08 A3000 RMK AO2 SLP169 T10331078 $,M
ALO,2022-03-09 10:54,27.00,18.00,68.45,320.00,10.00,0.00,30.01,1017.20,10.00,M,BKN,M,M,M,3000.00,M,M,M,M,M,M,M,M,M,M,16.70,KALO 091054Z AUTO 32010KT 10SM BKN030 M03/M08 A3001 RMK AO2 SLP172 T10281078 $,M
ALO,2022-03-09 11:54,25.00,15.10,65.58,310.00,11.00,0.00,30.03,1017.90,10.00,M,CLR,M,M,M,M,M,M,M,M,M,M,M,M,M,M,13.62,KALO 091154Z 31011KT 10SM CLR M04/M09 A3003 RMK AO2 SLP179 T10391094 10000 21039 53013 $,M
ALO,2022-03-09 12:45,24.10,16.00,70.81,320.00,16.00,0.00,30.06,M,10.00,22.00,BKN,M,M,M,2400.00,M,M,M,M,M,M,M,M,M,M,10.12,KALO 091245Z 32016G22KT 10SM BKN024 M04/M09 A3006 RMK AO2 T10441089 $,M
ALO,2022-03-09 12:54,24.10,15.10,68.09,320.00,13.00,0.00,30.06,1019.20,10.00,M,BKN,M,M,M,2400.00,M,M,M,M,M,M,M,M,M,M,11.45,KALO 091254Z 32013KT 10SM BKN024 M04/M09 A3006 RMK AO2 SLP192 T10441094 $,M
ALO,2022-03-09 13:16,23.00,12.90,64.75,330.00,10.00,0.00,30.08,M,10.00,22.00,SCT,M,M,M,2400.00,M,M,M,M,M,M,M,M,M,M,11.68,KALO 091316Z 33010G22KT 10SM SCT024 M05/M11 A3008 RMK AO2 T10501106 $,M
ALO,2022-03-09 13:54,23.00,12.90,64.75,320.00,16.00,0.00,30.07,1019.50,10.00,21.00,FEW,M,M,M,2400.00,M,M,M,M,M,M,M,M,M,M,8.69,KALO 091354Z 32016G21KT 10SM FEW024 M05/M11 A3007 RMK AO2 SLP195 T10501106 $,M
ALO,2022-03-09 14:28,24.10,14.00,64.89,300.00,13.00,0.00,30.08,M,10.00,M,BKN,M,M,M,2400.00,M,M,M,M,M,M,M,M,M,M,11.45,KALO 091428Z 30013KT 10SM BKN024 M04/M10 A3008 RMK AO2 T10441100 $,M
ALO,2022-03-09 14:54,24.10,15.10,68.09,330.00,13.00,0.00,30.09,1020.20,10.00,19.00,OVC,M,M,M,2400.00,M,M,M,M,M,M,M,M,M,M,11.45,KALO 091454Z 33013G19KT 10SM OVC024 M04/M09 A3009 RMK AO2 SLP202 T10441094 51021 $,M
ALO,2022-03-09 15:54,24.10,15.10,68.09,310.00,12.00,0.00,30.11,1020.70,10.00,M,OVC,M,M,M,2100.00,M,M,M,M,M,M,M,M,M,M,11.95,KALO 091554Z 31012KT 10SM OVC021 M04/M09 A3011 RMK AO2 SLP207 T10441094,M
ALO,2022-03-09 16:54,25.00,15.10,65.58,300.00,15.00,0.00,30.13,1021.30,10.00,M,OVC,M,M,M,2500.00,M,M,M,M,M,M,M,M,M,M,11.71,KALO 091654Z 30015KT 10SM OVC025 M04/M09 A3013 RMK AO2 SLP213 T10391094,M
ALO,2022-03-09 17:54,25.00,14.00,62.50,310.00,15.00,0.00,30.14,1021.90,10.00,M,OVC,M,M,M,2500.00,M,M,M,M,M,M,M,M,M,M,11.71,KALO 091754Z 31015KT 10SM OVC025 M04/M10 A3014 RMK AO2 SLP219 T10391100 11033 21050 53017,M
ALO,2022-03-09 18:54,24.10,14.00,64.89,290.00,8.00,0.00,30.15,1022.40,10.00,17.00,OVC,M,M,M,2400.00,M,M,M,M,M,M,M,M,M,M,14.38,KALO 091854Z 29008G17KT 10SM OVC024 M04/M10 A3015 RMK AO2 SLP224 T10441100,M
ALO,2022-03-09 19:54,25.00,14.00,62.50,280.00,13.00,0.00,30.14,1021.70,10.00,M,OVC,M,M,M,2500.00,M,M,M,M,M,M,M,M,M,M,12.60,KALO 091954Z 28013KT 10SM OVC025 M04/M10 A3014 RMK AO2 SLP217 T10391100,M
ALO,2022-03-09 20:54,26.10,15.10,62.65,320.00,14.00,0.00,30.13,1021.40,10.00,M,OVC,M,M,M,2600.00,M,M,M,M,M,M,M,M,M,M,13.56,KALO 092054Z 32014KT 10SM OVC026 M03/M09 A3013 RMK AO2 SLP214 T10331094 58005,M
ALO,2022-03-09 21:54,26.10,12.90,56.89,320.00,11.00,0.00,30.13,1021.50,10.00,19.00,OVC,M,M,M,2900.00,M,M,M,M,M,M,M,M,M,M,15.01,KALO 092154Z 32011G19KT 10SM OVC029 M03/M11 A3013 RMK AO2 SLP215 T10331106,M
ALO,2022-03-09 22:07,28.00,14.00,55.21,320.00,11.00,0.00,30.13,M,10.00,M,BKN,M,M,M,3100.00,M,M,M,M,M,M,M,M,M,M,17.41,KALO 092207Z 32011KT 10SM BKN031 M02/M10 A3013 RMK AO2 T10221100,M
ALO,2022-03-09 22:54,26.10,12.90,56.89,330.00,14.00,0.00,30.13,1021.60,10.00,M,BKN,M,M,M,3400.00,M,M,M,M,M,M,M,M,M,M,13.56,KALO 092254Z 33014KT 10SM BKN034 M03/M11 A3013 RMK AO2 SLP216 T10331106,M
ALO,2022-03-09 23:54,24.10,12.00,59.42,330.00,15.00,0.00,30.15,1022.20,10.00,M,BKN,M,M,M,3400.00,M,M,M,M,M,M,M,M,M,M,10.54,KALO 092354Z 33015KT 10SM BKN034 M04/M11 A3015 RMK AO2 SLP222 T10441111 11022 21044 53006,M
ALO,2022-03-10 00:54,21.90,10.00,59.63,330.00,15.00,0.00,30.18,1023.20,10.00,M,OVC,M,M,M,11000.00,M,M,M,M,M,M,M,M,M,M,7.69,KALO 100054Z 33015KT 10SM OVC110 M06/M12 A3018 RMK AO2 SLP232 T10561122,M
ALO,2022-03-10 01:54,21.00,10.00,61.95,320.00,12.00,0.00,30.21,1024.40,10.00,M,OVC,M,M,M,10000.00,M,M,M,M,M,M,M,M,M,M,8.00,KALO 100154Z 32012KT 10SM OVC100 M06/M12 A3021 RMK AO2 SLP244 T10611122,M
ALO,2022-03-10 02:54,19.90,9.00,62.07,330.00,10.00,0.00,30.23,1025.00,10.00,M,SCT,M,M,M,10000.00,M,M,M,M,M,M,M,M,M,M,7.79,KALO 100254Z AUTO 33010KT 10SM SCT100 M07/M13 A3023 RMK AO2 SLP250 T10671128 51025,M
ALO,2022-03-10 03:38,19.00,9.00,64.50,340.00,12.00,0.00,30.23,M,10.00,M,BKN,M,M,M,2900.00,M,M,M,M,M,M,M,M,M,M,5.46,KALO 100338Z AUTO 34012KT 10SM BKN029 M07/M13 A3023 RMK AO2 T10721128,M
ALO,2022-03-10 03:54,19.00,8.10,61.94,340.00,14.00,0.00,30.24,1025.40,10.00,M,BKN,M,M,M,2900.00,M,M,M,M,M,M,M,M,M,M,4.41,KALO 100354Z AUTO 34014KT 10SM BKN029 M07/M13 A3024 RMK AO2 SLP254 T10721133,M
ALO,2022-03-10 04:16,19.00,8.10,61.94,340.00,16.00,0.00,30.26,M,10.00,M,SCT,BKN,M,M,2900.00,12000.00,M,M,M,M,M,M,M,M,M,3.47,KALO 100416Z AUTO 34016KT 10SM SCT029 BKN120 M07/M13 A3026 RMK AO2 T10721133,M
ALO,2022-03-10 04:54,18.00,6.10,59.06,320.00,13.00,0.00,30.26,1026.20,10.00,M,SCT,BKN,OVC,M,8000.00,10000.00,12000.00,M,M,M,M,M,M,M,M,3.63,KALO 100454Z AUTO 32013KT 10SM SCT080 BKN100 OVC120 M08/M14 A3026 RMK AO2 SLP262 T10781144,M
ALO,2022-03-10 05:54,18.00,7.00,61.52,340.00,9.00,0.00,30.26,1026.10,10.00,M,BKN,OVC,M,M,9500.00,11000.00,M,M,M,M,M,M,M,M,M,6.11,KALO 100554Z AUTO 34009KT 10SM BKN095 OVC110 M08/M14 A3026 RMK AO2 SLP261 T10781139 11050 21083 400001083 50010,M
ALO,2022-03-10 06:54,17.10,6.10,61.39,340.00,9.00,0.00,30.27,1026.50,10.00,M,FEW,M,M,M,11000.00,M,M,M,M,M,M,M,M,M,M,4.99,KALO 100654Z AUTO 34009KT 10SM FEW110 M08/M14 A3027 RMK AO2 SLP265 T10831144,M
ALO,2022-03-10 07:54,18.00,6.10,59.06,340.00,10.00,0.00,30.28,1026.90,10.00,M,OVC,M,M,M,9500.00,M,M,M,M,M,M,M,M,M,M,5.41,KALO 100754Z AUTO 34010KT 10SM OVC095 M08/M14 A3028 RMK AO2 SLP269 T10781144,M
ALO,2022-03-10 08:54,18.00,6.10,59.06,340.00,12.00,0.00,30.28,1026.80,10.00,M,OVC,M,M,M,9000.00,M,M,M,M,M,M,M,M,M,M,4.18,KALO 100854Z AUTO 34012KT 10SM OVC090 M08/M14 A3028 RMK AO2 SLP268 T10781144 51007,M
ALO,2022-03-10 09:54,17.10,3.90,55.51,350.00,10.00,0.00,30.27,1026.40,10.00,M,OVC,M,M,M,9500.00,M,M,M,M,M,M,M,M,M,M,4.28,KALO 100954Z AUTO 35010KT 10SM OVC095 M08/M16 A3027 RMK AO2 SLP264 T10831156,M
ALO,2022-03-10 10:54,17.10,3.00,53.25,360.00,11.00,0.00,30.28,1026.70,10.00,M,OVC,M,M,M,10000.00,M,M,M,M,M,M,M,M,M,M,3.64,KALO 101054Z AUTO 36011KT 10SM OVC100 M08/M16 A3028 RMK AO2 SLP267 T10831161,M
ALO,2022-03-10 11:54,16.00,3.00,55.85,350.00,9.00,0.00,30.29,1027.20,10.00,M,BKN,M,M,M,8500.00,M,M,M,M,M,M,M,M,M,M,3.62,KALO 101154Z 35009KT 10SM BKN085 M09/M16 A3029 RMK AO2 SLP272 T10891161 11078 21089 53002,M
ALO,2022-03-10 12:54,16.00,3.00,55.85,20.00,6.00,0.00,30.30,1027.60,10.00,M,BKN,BKN,M,M,10000.00,12000.00,M,M,M,M,M,M,M,M,M,6.26,KALO 101254Z 02006KT 10SM BKN100 BKN120 M09/M16 A3030 RMK AO2 SLP276 T10891161,M
ALO,2022-03-10 13:54,17.10,1.90,50.60,20.00,6.00,0.00,30.31,1027.90,10.00,M,OVC,M,M,M,8000.00,M,M,M,M,M,M,M,M,M,M,7.59,KALO 101354Z 02006KT 10SM OVC080 M08/M17 A3031 RMK AO2 SLP279 T10831167,M
ALO,2022-03-10 14:54,18.00,1.90,48.68,40.00,7.00,0.00,30.30,1027.50,10.00,M,BKN,BKN,M,M,9500.00,11000.00,M,M,M,M,M,M,M,M,M,7.71,KALO 101454Z 04007KT 10SM BKN095 BKN110 M08/M17 A3030 RMK AO2 SLP275 T10781167 50003,M
ALO,2022-03-10 15:54,19.00,3.00,49.07,50.00,3.00,0.00,30.31,1027.90,10.00,M,BKN,OVC,M,M,7000.00,8000.00,M,M,M,M,M,M,M,M,M,13.83,KALO 101554Z 05003KT 10SM BKN070 OVC080 M07/M16 A3031 RMK AO2 SLP279 T10721161,M
ALO,2022-03-10 16:54,19.00,1.00,44.72,M,M,0.00,30.32,1028.10,10.00,M,OVC,M,M,M,6500.00,M,M,M,M,M,M,M,M,M,M,M,KALO 101654Z 10SM OVC065 M07/M17 A3032 RMK AO2 SLP281 T10721172,M
ALO,2022-03-10 17:54,21.00,1.00,41.07,80.00,3.00,0.00,30.30,1027.50,10.00,M,OVC,M,M,M,7000.00,M,M,M,M,M,M,M,M,M,M,16.11,KALO 101754Z 08003KT 10SM OVC070 M06/M17 A3030 RMK AO2 SLP275 T10611172 11061 21089 50000,M
ALO,2022-03-10 18:54,21.90,1.90,41.22,0.00,0.00,0.00,30.27,1026.60,10.00,M,FEW,OVC,M,M,5000.00,6000.00,M,M,M,M,M,M,M,M,M,21.90,KALO 101854Z 00000KT 10SM FEW050 OVC060 M06/M17 A3027 RMK AO2 SLP266 T10561167,M
ALO,2022-03-10 19:54,21.90,1.00,39.53,0.00,0.00,0.00,30.25,1025.70,10.00,M,OVC,M,M,M,7000.00,M,M,M,M,M,M,M,M,M,M,21.90,KALO 101954Z 00000KT 10SM OVC070 M06/M17 A3025 RMK AO2 SLP257 T10561172,M
ALO,2022-03-10 20:54,23.00,1.90,39.36,M,3.00,0.00,30.23,1025.00,10.00,M,OVC,M,M,M,7500.00,M,M,M,M,M,M,M,M,M,M,18.40,KALO 102054Z VRB03KT 10SM OVC075 M05/M17 A3023 RMK AO2 SLP250 T10501167 56023,M
ALO,2022-03-10 21:54,25.00,3.00,38.09,280.00,4.00,0.00,30.20,1024.10,10.00,M,BKN,M,M,M,7500.00,M,M,M,M,M,M,M,M,M,M,19.25,KALO 102154Z 28004KT 10SM BKN075 M04/M16 A3020 RMK AO2 SLP241 T10391161,M
ALO,2022-03-10 22:54,24.10,3.00,39.55,230.00,3.00,0.00,30.20,1024.00,10.00,M,CLR,M,M,M,M,M,M,M,M,M,M,M,M,M,M,19.66,KALO 102254Z 23003KT 10SM CLR M04/M16 A3020 RMK AO2 SLP240 T10441161,M
ALO,2022-03-10 23:54,21.90,5.00,47.56,220.00,7.00,0.00,30.19,1023.90,10.00,M,CLR,M,M,M,M,M,M,M,M,M,M,M,M,M,M,12.47,KALO 102354Z 22007KT 10SM CLR M06/M15 A3019 RMK AO2 SLP239 T10561150 11033 21061 56012,M
ALO,2022-03-11 00:54,21.00,6.10,51.95,180.00,6.00,0.00,30.18,1023.40,10.00,M,CLR,M,M,M,M,M,M,M,M,M,M,M,M,M,M,12.28,KALO 110054Z 18006KT 10SM CLR M06/M14 A3018 RMK AO2 SLP234 T10611144,M
ALO,2022-03-11 01:54,19.90,7.00,56.71,180.00,5.00,0.00,30.16,1022.80,10.00,M,CLR,M,M,M,M,M,M,M,M,M,M,M,M,M,M,12.03,KALO 110154Z 18005KT 10SM CLR M07/M14 A3016 RMK AO2 SLP228 T10671139,M
ALO,2022-03-11 02:54,19.90,7.00,56.71,200.00,5.00,0.00,30.17,1023.00,10.00,M,CLR,M,M,M,M,M,M,M,M,M,M,M,M,M,M,12.03,KALO 110254Z AUTO 20005KT 10SM CLR M07/M14 A3017 RMK AO2 SLP230 T10671139 55008,M
ALO,2022-03-11 03:54,21.00,7.00,54.12,200.00,7.00,0.00,30.17,1023.30,10.00,M,CLR,M,M,M,M,M,M,M,M,M,M,M,M,M,M,11.37,KALO 110354Z AUTO 20007KT 10SM CLR M06/M14 A3017 RMK AO2 SLP233 T10611139,M
ALO,2022-03-11 04:54,19.90,8.10,59.60,200.00,9.00,0.00,30.16,1023.00,10.00,M,CLR,M,M,M,M,M,M,M,M,M,M,M,M,M,M,8.47,KALO 110454Z AUTO 20009KT 10SM CLR M07/M13 A3016 RMK AO2 SLP230 T10671133,M
ALO,2022-03-11 05:54,19.90,10.90,67.57,210.00,10.00,0.00,30.16,1022.60,10.00,M,CLR,M,M,M,M,M,M,M,M,M,M,M,M,M,M,7.79,KALO 110554Z AUTO 21010KT 10SM CLR M07/M12 A3016 RMK AO2 SLP226 T10671117 11056 21072 410331089 58003,M
ALO,2022-03-11 06:54,19.00,12.00,73.73,220.00,10.00,0.00,30.14,1022.00,10.00,M,CLR,M,M,M,M,M,M,M,M,M,M,M,M,M,M,6.67,KALO 110654Z AUTO 22010KT 10SM CLR M07/M11 A3014 RMK AO2 SLP220 T10721111,M
ALO,2022-03-11 07:54,18.00,10.90,73.30,220.00,10.00,0.00,30.12,1021.50,10.00,M,CLR,M,M,M,M,M,M,M,M,M,M,M,M,M,M,5.41,KALO 110754Z AUTO 22010KT 10SM CLR M08/M12 A3012 RMK AO2 SLP215 T10781117,M
ALO,2022-03-11 08:54,19.00,10.00,67.46,210.00,14.00,0.00,30.08,1020.10,10.00,M,CLR,M,M,M,M,M,M,M,M,M,M,M,M,M,M,4.41,KALO 110854Z AUTO 21014KT 10SM CLR M07/M12 A3008 RMK AO2 SLP201 T10721122 58024,M
ALO,2022-03-11 09:54,19.00,10.90,70.22,210.00,13.00,0.00,30.05,1019.10,10.00,M,CLR,M,M,M,M,M,M,M,M,M,M,M,M,M,M,4.91,KALO 110954Z AUTO 21013KT 10SM CLR M07/M12 A3005 RMK AO2 SLP191 T10721117,M
ALO,2022-03-11 10:54,19.00,12.00,73.73,230.00,13.00,0.00,30.05,1018.90,10.00,20.00,CLR,M,M,M,M,M,M,M,M,M,M,M,M,M,M,4.91,KALO 111054Z AUTO 23013G20KT 10SM CLR M07/M11 A3005 RMK AO2 SLP189 T10721111,M
ALO,2022-03-11 11:54,19.00,12.00,73.73,240.00,13.00,0.00,30.05,1019.10,10.00,M,CLR,M,M,M,M,M,M,M,M,M,M,M,M,M,M,4.91,KALO 111154Z 24013KT 10SM CLR M07/M11 A3005 RMK AO2 SLP191 T10721111 11067 21078 55010,M
ALO,2022-03-11 12:54,19.90,12.90,73.83,270.00,12.00,0.00,30.06,1019.30,10.00,M,CLR,M,M,M,M,M,M,M,M,M,M,M,M,M,M,6.60,KALO 111254Z 27012KT 10SM CLR M07/M11 A3006 RMK AO2 SLP193 T10671106,M
ALO,2022-03-11 13:54,21.00,10.00,61.95,290.00,16.00,0.00,30.07,1019.60,10.00,27.00,CLR,M,M,M,M,M,M,M,M,M,M,M,27.00,300.00,2022-03-11 13:54,6.08,KALO 111354Z 29016G27KT 10SM CLR M06/M12 A3007 RMK AO2 PK WND 30027/1354 SLP196 T10611122,M
ALO,2022-03-11 14:54,21.00,5.00,49.41,300.00,20.00,0.00,30.08,1020.10,10.00,29.00,CLR,M,M,M,M,M,M,M,M,M,M,M,29.00,280.00,2022-03-11 14:52,4.53,KALO 111454Z 30020G29KT 10SM CLR M06/M15 A3008 RMK AO2 PK WND 28029/1452 SLP201 T10611150 53010,M
ALO,2022-03-11 15:54,21.90,5.00,47.56,290.00,17.00,0.00,30.10,1020.60,10.00,27.00,CLR,M,M,M,M,M,M,M,M,M,M,M,33.00,300.00,2022-03-11 15:43,6.84,KALO 111554Z 29017G27KT 10SM CLR M06/M15 A3010 RMK AO2 PK WND 30033/1543 SLP206 T10561150,M
ALO,2022-03-11 16:54,23.00,3.90,43.17,290.00,20.00,0.00,30.11,1021.00,10.00,29.00,FEW,M,M,M,4200.00,M,M,M,M,M,M,M,31.00,300.00,2022-03-11 16:15,7.19,KALO 111654Z 29020G29KT 10SM FEW042 M05/M16 A3011 RMK AO2 PK WND 30031/1615 SLP210 T10501156,M
ALO,2022-03-11 17:54,21.90,3.90,45.22,310.00,21.00,0.00,30.11,1021.20,10.00,35.00,FEW,M,M,M,4400.00,M,M,M,M,M,M,M,35.00,320.00,2022-03-11 17:50,5.38,KALO 111754Z 31021G35KT 10SM FEW044 M06/M16 A3011 RMK AO2 PK WND 32035/1750 SLP212 T10561156 11044 21072 51010,M
ALO,2022-03-11 18:54,21.00,1.90,42.82,320.00,23.00,0.00,30.12,1021.60,10.00,34.00,CLR,M,M,M,M,M,M,M,M,M,M,M,36.00,300.00,2022-03-11 18:39,3.53,KALO 111854Z 32023G34KT 10SM CLR M06/M17 A3012 RMK AO2 PK WND 30036/1839 SLP216 T10611167,M
ALO,2022-03-11 19:54,21.00,1.90,42.82,310.00,21.00,0.00,30.13,1021.70,10.00,30.00,FEW,M,M,M,4600.00,M,M,M,M,M,M,M,33.00,320.00,2022-03-11 19:25,4.18,KALO 111954Z 31021G30KT 10SM FEW046 M06/M17 A3013 RMK AO2 PK WND 32033/1925 SLP217 T10611167,M
ALO,2022-03-11 20:54,19.00,1.00,44.72,300.00,22.00,0.00,30.14,1022.20,10.00,31.00,BKN,M,M,M,4600.00,M,M,M,M,M,M,M,36.00,320.00,2022-03-11 20:11,1.17,KALO 112054Z 30022G31KT 10SM BKN046 M07/M17 A3014 RMK AO2 PK WND 32036/2011 SLP222 T10721172 53008,M
ALO,2022-03-11 21:54,19.00,0.00,42.67,310.00,20.00,0.00,30.16,1022.70,10.00,33.00,M,M,M,M,M,M,M,M,M,M,M,M,33.00,320.00,2022-03-11 21:51,1.87,KALO 112154Z AUTO 31020G33KT 10SM M07/M18 A3016 RMK AO2 PK WND 32033/2151 SLP227 T10721178 $,M
ALO,2022-03-11 22:54,17.10,-0.90,44.39,310.00,20.00,0.00,30.17,1023.40,10.00,32.00,FEW,M,M,M,4000.00,M,M,M,M,M,M,M,33.00,320.00,2022-03-11 22:04,-0.65,KALO 112254Z 31020G32KT 10SM FEW040 M08/M18 A3017 RMK AO2 PK WND 32033/2204 SLP234 T10831183,M
ALO,2022-03-11 23:54,16.00,-2.00,44.20,320.00,18.00,0.00,30.19,1024.00,10.00,28.00,FEW,M,M,M,4100.00,M,M,M,M,M,M,M,32.00,330.00,2022-03-11 23:31,-1.31,KALO 112354Z 32018G28KT 10SM FEW041 M09/M19 A3019 RMK AO2 PK WND 33032/2331 SLP240 T10891189 11050 21089,M
ALO,2022-03-12 00:54,14.00,-0.90,50.80,310.00,19.00,0.00,30.21,1024.60,10.00,27.00,CLR,M,M,M,M,M,M,M,M,M,M,M,27.00,300.00,2022-03-12 00:54,-4.37,KALO 120054Z 31019G27KT 10SM CLR M10/M18 A3021 RMK AO2 PK WND 30027/0054 SLP246 T11001183,M
ALO,2022-03-12 01:54,12.90,-2.00,50.62,310.00,19.00,0.00,30.23,1025.20,10.00,M,CLR,M,M,M,M,M,M,M,M,M,M,M,29.00,320.00,2022-03-12 01:35,-5.82,KALO 120154Z 31019KT 10SM CLR M11/M19 A3023 RMK AO2 PK WND 32029/0135 SLP252 T11061189,M
ALO,2022-03-12 02:54,12.00,-0.90,55.48,310.00,17.00,0.00,30.24,1025.80,10.00,27.00,CLR,M,M,M,M,M,M,M,M,M,M,M,27.00,300.00,2022-03-12 02:54,-6.13,KALO 120254Z AUTO 31017G27KT 10SM CLR M11/M18 A3024 RMK AO2 PK WND 30027/0254 SLP258 T11111183 52018,M
ALO,2022-03-12 03:54,10.90,-0.90,58.26,310.00,11.00,0.00,30.26,1026.30,10.00,20.00,CLR,M,M,M,M,M,M,M,M,M,M,M,27.00,310.00,2022-03-12 03:34,-4.20,KALO 120354Z AUTO 31011G20KT 10SM CLR M12/M18 A3026 RMK AO2 PK WND 31027/0334 SLP263 T11171183,M
ALO,2022-03-12 04:54,10.00,0.00,63.26,310.00,14.00,0.00,30.26,1026.20,10.00,M,CLR,M,M,M,M,M,M,M,M,M,M,M,M,M,M,-7.20,KALO 120454Z AUTO 31014KT 10SM CLR M12/M18 A3026 RMK AO2 SLP262 T11221178,M
ALO,2022-03-12 05:54,10.00,-2.00,57.57,310.00,17.00,0.00,30.25,1026.00,10.00,23.00,CLR,M,M,M,M,M,M,M,M,M,M,M,M,M,M,-8.75,KALO 120554Z AUTO 31017G23KT 10SM CLR M12/M19 A3025 RMK AO2 SLP260 T11221189 11094 21122 410441122 50002,M
ALO,2022-03-12 06:54,9.00,-0.90,63.42,310.00,12.00,0.00,30.26,1026.40,10.00,23.00,CLR,M,M,M,M,M,M,M,M,M,M,M,M,M,M,-7.27,KALO 120654Z AUTO 31012G23KT 10SM CLR M13/M18 A3026 RMK AO2 SLP264 T11281183,M
ALO,2022-03-12 07:54,8.10,-2.00,62.70,320.00,14.00,0.00,30.26,1026.40,10.00,M,CLR,M,M,M,M,M,M,M,M,M,M,M,M,M,M,-9.64,KALO 120754Z AUTO 32014KT 10SM CLR M13/M19 A3026 RMK AO2 SLP264 T11331189,M
ALO,2022-03-12 08:54,7.00,-2.90,63.14,320.00,12.00,0.00,30.25,1026.20,10.00,M,CLR,M,M,M,M,M,M,M,M,M,M,M,M,M,M,-9.82,KALO 120854Z AUTO 32012KT 10SM CLR M14/M19 A3025 RMK AO2 SLP262 T11391194 50001,M
ALO,2022-03-12 09:54,6.10,-2.90,65.77,320.00,12.00,0.00,30.25,1026.40,10.00,M,CLR,M,M,M,M,M,M,M,M,M,M,M,M,M,M,-10.96,KALO 120954Z AUTO 32012KT 10SM CLR M14/M19 A3025 RMK AO2 SLP264 T11441194,M
ALO,2022-03-12 10:54,6.10,-2.90,65.77,300.00,10.00,0.00,30.26,1026.70,10.00,M,CLR,M,M,M,M,M,M,M,M,M,M,M,M,M,M,-9.51,KALO 121054Z AUTO 30010KT 10SM CLR M14/M19 A3026 RMK AO2 SLP267 T11441194,M
ALO,2022-03-12 11:54,6.10,-2.90,65.77,290.00,8.00,0.00,30.27,1026.90,10.00,M,CLR,M,M,M,M,M,M,M,M,M,M,M,M,M,M,-7.79,KALO 121154Z 29008KT 10SM CLR M14/M19 A3027 RMK AO2 SLP269 T11441194 11122 21150 52006,M
ALO,2022-03-12 12:54,6.10,-2.90,65.77,290.00,9.00,0.00,30.28,1027.30,10.00,M,CLR,M,M,M,M,M,M,M,M,M,M,M,M,M,M,-8.69,KALO 121254Z 29009KT 10SM CLR M14/M19 A3028 RMK AO2 SLP273 T11441194,M
ALO,2022-03-12 13:54,9.00,-2.00,60.21,300.00,11.00,0.00,30.28,1027.30,10.00,M,CLR,M,M,M,M,M,M,M,M,M,M,M,M,M,M,-6.60,KALO 121354Z 30011KT 10SM CLR M13/M19 A3028 RMK AO2 SLP273 T11281189,M
ALO,2022-03-12 14:54,10.90,-2.00,55.30,300.00,12.00,0.00,30.29,1027.60,10.00,M,CLR,M,M,M,M,M,M,M,M,M,M,M,M,M,M,-4.85,KALO 121454Z 30012KT 10SM CLR M12/M19 A3029 RMK AO2 SLP276 T11171189 51007,M
ALO,2022-03-12 15:54,14.00,0.00,53.00,310.00,9.00,0.00,30.28,1027.10,10.00,M,CLR,M,M,M,M,M,M,M,M,M,M,M,M,M,M,1.13,KALO 121554Z 31009KT 10SM CLR M10/M18 A3028 RMK AO2 SLP271 T11001178,M
ALO,2022-03-12 16:54,17.10,-0.90,44.39,300.00,5.00,0.00,30.26,1026.50,10.00,15.00,CLR,M,M,M,M,M,M,M,M,M,M,M,M,M,M,8.70,KALO 121654Z 30005G15KT 10SM CLR M08/M18 A3026 RMK AO2 SLP265 T10831183,M
ALO,2022-03-12 17:54,19.00,-0.90,40.91,280.00,6.00,0.00,30.24,1025.80,10.00,M,CLR,M,M,M,M,M,M,M,M,M,M,M,M,M,M,9.87,KALO 121754Z 28006KT 10SM CLR M07/M18 A3024 RMK AO2 SLP258 T10721183 11072 21150 58017,M
ALO,2022-03-12 18:54,21.00,0.00,39.19,M,5.00,0.00,30.21,1024.60,10.00,M,CLR,M,M,M,M,M,M,M,M,M,M,M,M,M,M,13.33,KALO 121854Z VRB05KT 10SM CLR M06/M18 A3021 RMK AO2 SLP246 T10611178,M
ALO,2022-03-12 19:54,23.00,3.00,41.42,260.00,7.00,0.00,30.15,1022.70,10.00,M,CLR,M,M,M,M,M,M,M,M,M,M,M,M,M,M,13.81,KALO 121954Z 26007KT 10SM CLR M05/M16 A3015 RMK AO2 PRESFR SLP227 T10501161,M
ALO,2022-03-12 20:54,25.00,6.10,43.91,210.00,12.00,0.00,30.12,1021.60,10.00,M,CLR,M,M,M,M,M,M,M,M,M,M,M,M,M,M,13.09,KALO 122054Z 21012KT 10SM CLR M04/M14 A3012 RMK AO2 SLP216 T10391144 56040,M
ALO,2022-03-12 21:54,27.00,7.00,42.11,210.00,10.00,0.00,30.08,1020.10,10.00,M,CLR,M,M,M,M,M,M,M,M,M,M,M,M,M,M,16.70,KALO 122154Z 21010KT 10SM CLR M03/M14 A3008 RMK AO2 SLP201 T10281139,M
ALO,2022-03-12 22:54,27.00,7.00,42.11,180.00,14.00,0.00,30.06,1019.40,10.00,M,CLR,M,M,M,M,M,M,M,M,M,M,M,M,M,M,14.72,KALO 122254Z 18014KT 10SM CLR M03/M14 A3006 RMK AO2 SLP194 T10281139,M
ALO,2022-03-12 23:54,26.10,7.00,43.70,190.00,7.00,0.00,30.04,1018.80,10.00,M,CLR,M,M,M,M,M,M,M,M,M,M,M,M,M,M,17.59,KALO 122354Z 19007KT 10SM CLR M03/M14 A3004 RMK AO2 SLP188 T10331139 11028 21067 56026,M
ALO,2022-03-13 00:54,25.00,9.00,50.07,180.00,14.00,0.00,30.02,1018.20,10.00,M,CLR,M,M,M,M,M,M,M,M,M,M,M,M,M,M,12.14,KALO 130054Z 18014KT 10SM CLR M04/M13 A3002 RMK AO2 SLP182 T10391128,M
ALO,2022-03-13 01:54,23.00,10.00,56.93,190.00,14.00,0.00,30.02,1018.00,10.00,M,CLR,M,M,M,M,M,M,M,M,M,M,M,M,M,M,9.56,KALO 130154Z AUTO 19014KT 10SM CLR M05/M12 A3002 RMK AO2 SLP180 T10501122,M
ALO,2022-03-13 02:54,23.00,10.00,56.93,180.00,12.00,0.00,29.99,1017.20,10.00,22.00,OVC,M,M,M,9500.00,M,M,M,M,M,M,M,M,M,M,10.55,KALO 130254Z AUTO 18012G22KT 10SM OVC095 M05/M12 A2999 RMK AO2 SLP172 T10501122 58015,M
ALO,2022-03-13 03:54,24.10,10.00,54.36,190.00,16.00,0.00,29.95,1015.50,10.00,22.00,OVC,M,M,M,8000.00,M,M,M,M,M,M,M,M,M,M,10.12,KALO 130354Z AUTO 19016G22KT 10SM OVC080 M04/M12 A2995 RMK AO2 PRESFR SLP155 T10441122,M
ALO,2022-03-13 04:54,24.10,10.90,56.59,190.00,14.00,0.00,29.90,1014.00,10.00,21.00,OVC,M,M,M,8500.00,M,M,M,M,M,M,M,M,M,M,10.98,KALO 130454Z AUTO 19014G21KT 10SM OVC085 M04/M12 A2990 RMK AO2 SLP140 T10441117,M
ALO,2022-03-13 05:54,24.10,12.00,59.42,180.00,11.00,0.00,29.87,1012.90,10.00,M,OVC,M,M,M,9500.00,M,M,M,M,M,M,M,M,M,M,12.48,KALO 130554Z AUTO 18011KT 10SM OVC095 M04/M11 A2987 RMK AO2 SLP129 T10441111 11033 21056 410281150 56040,M
ALO,2022-03-13 06:54,25.00,12.90,59.55,180.00,9.00,0.00,29.83,1011.20,10.00,M,BKN,OVC,M,M,7500.00,10000.00,M,M,M,M,M,M,M,M,M,14.81,KALO 130654Z AUTO 18009KT 10SM BKN075 OVC100 M04/M11 A2983 RMK AO2 SLP112 T10391106,M
ALO,2022-03-13 07:54,26.10,14.00,59.71,210.00,9.00,0.00,29.80,1010.40,10.00,16.00,BKN,M,M,M,9500.00,M,M,M,M,M,M,M,M,M,M,16.18,KALO 130754Z AUTO 21009G16KT 10SM BKN095 M03/M10 A2980 RMK AO2 SLP104 T10331100,M
ALO,2022-03-13 08:54,25.00,16.00,68.20,220.00,6.00,0.00,29.79,1009.80,10.00,M,CLR,M,M,M,M,M,M,M,M,M,M,M,M,M,M,17.10,KALO 130854Z AUTO 22006KT 10SM CLR M04/M09 A2979 RMK AO2 SLP098 T10391089 56028,M
ALO,2022-03-13 09:54,24.10,16.00,70.81,210.00,6.00,0.00,29.77,1009.20,10.00,M,CLR,M,M,M,M,M,M,M,M,M,M,M,M,M,M,16.02,KALO 130954Z AUTO 21006KT 10SM CLR M04/M09 A2977 RMK AO2 SLP092 T10441089,M
ALO,2022-03-13 10:54,23.00,15.10,71.30,0.00,0.00,0.00,29.79,1009.80,10.00,M,CLR,M,M,M,M,M,M,M,M,M,M,M,M,M,M,23.00,KALO 131054Z 00000KT 10SM CLR M05/M09 A2979 RMK AO2 SLP098 T10501094,M
ALO,2022-03-13 11:54,25.00,19.00,77.62,270.00,6.00,0.00,29.82,1010.80,10.00,M,CLR,M,M,M,M,M,M,M,M,M,M,M,M,M,M,17.10,KALO 131154Z 27006KT 10SM CLR M04/M07 A2982 RMK AO2 SLP108 T10391072 11033 21061 53010,M
ALO,2022-03-13 12:54,25.00,19.00,77.62,240.00,6.00,0.00,29.85,1011.90,10.00,M,CLR,M,M,M,M,M,M,M,M,M,M,M,M,M,M,17.10,KALO 131254Z 24006KT 10SM CLR M04/M07 A2985 RMK AO2 SLP119 T10391072,M
ALO,2022-03-13 13:54,34.00,25.00,69.28,260.00,8.00,0.00,29.88,1012.80,10.00,M,CLR,M,M,M,M,M,M,M,M,M,M,M,M,M,M,26.58,KALO 131354Z 26008KT 10SM CLR 01/M04 A2988 RMK AO2 SLP128 T00111039,M
ALO,2022-03-13 14:54,39.00,27.00,61.78,290.00,6.00,0.00,29.91,1014.00,10.00,M,CLR,M,M,M,M,M,M,M,M,M,M,M,M,M,M,33.96,KALO 131454Z 29006KT 10SM CLR 04/M03 A2991 RMK AO2 SLP140 T00391028 53032,M
ALO,2022-03-13 15:54,43.00,28.90,57.21,310.00,9.00,0.00,29.94,1014.70,10.00,M,CLR,M,M,M,M,M,M,M,M,M,M,M,M,M,M,37.19,KALO 131554Z 31009KT 10SM CLR 06/M02 A2994 RMK AO2 SLP147 T00611017,M
ALO,2022-03-13 16:54,46.00,30.00,53.37,300.00,8.00,0.00,29.95,1015.10,10.00,M,CLR,M,M,M,M,M,M,M,M,M,M,M,M,M,M,41.36,KALO 131654Z 30008KT 10SM CLR 08/M01 A2995 RMK AO2 SLP151 T00781011,M
ALO,2022-03-13 17:54,50.00,30.90,47.64,300.00,5.00,0.00,29.96,1015.20,10.00,M,CLR,M,M,M,M,M,M,M,M,M,M,M,M,M,M,50.00,KALO 131754Z 30005KT 10SM CLR 10/M01 A2996 RMK AO2 SLP152 T01001006 10100 21050 51014,M
ALO,2022-03-13 18:54,52.00,30.00,42.65,0.00,0.00,0.00,29.94,1014.60,10.00,M,CLR,M,M,M,M,M,M,M,M,M,M,M,M,M,M,52.00,KALO 131854Z 00000KT 10SM CLR 11/M01 A2994 RMK AO2 SLP146 T01111011,M
ALO,2022-03-13 19:54,54.00,28.90,37.89,260.00,7.00,0.00,29.93,1014.20,10.00,M,CLR,M,M,M,M,M,M,M,M,M,M,M,M,M,M,54.00,KALO 131954Z 26007KT 10SM CLR 12/M02 A2993 RMK AO2 SLP142 T01221017,M
ALO,2022-03-13 20:54,55.90,27.00,32.71,280.00,4.00,0.00,29.92,1013.80,10.00,M,CLR,M,M,M,M,M,M,M,M,M,M,M,M,M,M,55.90,KALO 132054Z 28004KT 10SM CLR 13/M03 A2992 RMK AO2 SLP138 T01331028 56011,M
ALO,2022-03-13 21:54,57.00,25.00,28.93,270.00,4.00,0.00,29.91,1013.50,10.00,M,CLR,M,M,M,M,M,M,M,M,M,M,M,M,M,M,57.00,KALO 132154Z 27004KT 10SM CLR 14/M04 A2991 RMK AO2 SLP135 T01391039,M
ALO,2022-03-13 22:54,55.00,26.10,32.56,230.00,5.00,0.00,29.91,1013.70,10.00,M,FEW,M,M,M,12000.00,M,M,M,M,M,M,M,M,M,M,55.00,KALO 132254Z 23005KT 10SM FEW120 13/M03 A2991 RMK AO2 SLP137 T01281033,M
ALO,2022-03-13 23:54,51.10,26.10,37.57,170.00,7.00,0.00,29.92,1013.90,10.00,M,FEW,M,M,M,12000.00,M,M,M,M,M,M,M,M,M,M,51.10,KALO 132354Z 17007KT 10SM FEW120 11/M03 A2992 RMK AO2 SLP139 T01061033 10144 20100 55001,M
ALO,2022-03-14 00:54,43.00,28.00,55.14,130.00,5.00,0.00,29.93,1014.50,10.00,M,CLR,M,M,M,M,M,M,M,M,M,M,M,M,M,M,39.46,KALO 140054Z AUTO 13005KT 10SM CLR 06/M02 A2993 RMK AO2 SLP145 T00611022,M
ALO,2022-03-14 01:54,45.00,32.00,60.11,160.00,8.00,0.00,29.98,1015.90,10.00,M,CLR,M,M,M,M,M,M,M,M,M,M,M,M,M,M,40.13,KALO 140154Z AUTO 16008KT 10SM CLR 07/00 A2998 RMK AO2 SLP159 T00720000,M
ALO,2022-03-14 02:54,41.00,30.90,67.03,130.00,6.00,0.00,29.99,1016.20,10.00,M,CLR,M,M,M,M,M,M,M,M,M,M,M,M,M,M,36.37,KALO 140254Z AUTO 13006KT 10SM CLR 05/M01 A2999 RMK AO2 SLP162 T00501006 51023,M
ALO,2022-03-14 03:54,37.00,28.90,72.24,140.00,5.00,0.00,30.00,1016.50,10.00,M,CLR,M,M,M,M,M,M,M,M,M,M,M,M,M,M,32.33,KALO 140354Z AUTO 14005KT 10SM CLR 03/M02 A3000 RMK AO2 SLP165 T00281017,M
ALO,2022-03-14 04:54,36.00,28.90,75.15,150.00,4.00,0.00,29.98,1015.90,10.00,M,CLR,M,M,M,M,M,M,M,M,M,M,M,M,M,M,32.09,KALO 140454Z AUTO 15004KT 10SM CLR 02/M02 A2998 RMK AO2 SLP159 T00221017,M
ALO,2022-03-14 05:54,41.00,30.90,67.03,130.00,7.00,0.00,29.97,1015.40,10.00,M,CLR,M,M,M,M,M,M,M,M,M,M,M,M,M,M,35.75,KALO 140554Z AUTO 13007KT 10SM CLR 05/M01 A2997 RMK AO2 SLP154 T00501006 10106 20017 401441061 58005,M
ALO,2022-03-14 06:54,34.00,28.00,78.43,100.00,7.00,0.00,29.96,1015.20,10.00,M,CLR,M,M,M,M,M,M,M,M,M,M,M,M,M,M,27.22,KALO 140654Z AUTO 10007KT 10SM CLR 01/M02 A2996 RMK AO2 SLP152 T00111022,M
ALO,2022-03-14 07:54,36.00,30.00,78.60,110.00,6.00,0.00,29.94,1014.50,10.00,M,CLR,M,M,M,M,M,M,M,M,M,M,M,M,M,M,30.35,KALO 140754Z AUTO 11006KT 10SM CLR 02/M01 A2994 RMK AO2 SLP145 T00221011,M
ALO,2022-03-14 08:54,37.00,30.90,78.37,140.00,5.00,0.00,29.93,1013.80,10.00,M,CLR,M,M,M,M,M,M,M,M,M,M,M,M,M,M,32.33,KALO 140854Z AUTO 14005KT 10SM CLR 03/M01 A2993 RMK AO2 SLP138 T00281006 58015,M
ALO,2022-03-14 09:54,37.00,30.90,78.37,130.00,6.00,0.00,29.92,1013.40,10.00,M,CLR,M,M,M,M,M,M,M,M,M,M,M,M,M,M,31.55,KALO 140954Z AUTO 13006KT 10SM CLR 03/M01 A2992 RMK AO2 SLP134 T00281006,M
ALO,2022-03-14 10:54,37.00,30.90,78.37,130.00,6.00,0.00,29.92,1013.40,10.00,M,CLR,M,M,M,M,M,M,M,M,M,M,M,M,M,M,31.55,KALO 141054Z 13006KT 10SM CLR 03/M01 A2992 RMK AO2 SLP134 T00281006,M
ALO,2022-03-14 11:54,37.00,30.00,75.56,140.00,4.00,0.00,29.91,1013.50,10.00,M,CLR,M,M,M,M,M,M,M,M,M,M,M,M,M,M,33.26,KALO 141154Z 14004KT 10SM CLR 03/M01 A2991 RMK AO2 SLP135 T00281011 10050 20011 56004,M
ALO,2022-03-14 12:54,33.10,28.00,81.30,110.00,4.00,0.00,29.93,1014.30,10.00,M,CLR,M,M,M,M,M,M,M,M,M,M,M,M,M,M,28.70,KALO 141254Z 11004KT 10SM CLR 01/M02 A2993 RMK AO2 SLP143 T00061022,M
ALO,2022-03-14 13:54,39.90,32.00,73.14,140.00,6.00,0.00,29.95,1014.60,10.00,M,CLR,M,M,M,M,M,M,M,M,M,M,M,M,M,M,35.04,KALO 141354Z 14006KT 10SM CLR 04/00 A2995 RMK AO2 SLP146 T00440000,M
ALO,2022-03-14 14:54,46.90,30.90,53.50,190.00,7.00,0.00,29.97,1015.20,10.00,M,CLR,M,M,M,M,M,M,M,M,M,M,M,M,M,M,42.94,KALO 141454Z 19007KT 10SM CLR 08/M01 A2997 RMK AO2 SLP152 T00831006 53017,M
ALO,2022-03-14 15:54,50.00,30.90,47.64,210.00,10.00,0.00,29.98,1015.50,10.00,M,CLR,M,M,M,M,M,M,M,M,M,M,M,M,M,M,50.00,KALO 141554Z 21010KT 10SM CLR 10/M01 A2998 RMK AO2 SLP155 T01001006,M
ALO,2022-03-14 16:54,53.10,32.00,44.42,230.00,10.00,0.00,29.98,1015.80,10.00,M,CLR,M,M,M,M,M,M,M,M,M,M,M,M,M,M,53.10,KALO 141654Z 23010KT 10SM CLR 12/00 A2998 RMK AO2 SLP158 T01170000,M
ALO,2022-03-14 17:54,55.90,33.10,41.92,M,6.00,0.00,30.00,1016.20,10.00,17.00,CLR,M,M,M,M,M,M,M,M,M,M,M,M,M,M,55.90,KALO 141754Z VRB06G17KT 10SM CLR 13/01 A3000 RMK AO2 SLP162 T01330006 10133 20006 53012,M
ALO,2022-03-14 18:54,57.00,34.00,41.76,M,5.00,0.00,30.00,1016.30,10.00,M,CLR,M,M,M,M,M,M,M,M,M,M,M,M,M,M,57.00,KALO 141854Z VRB05KT 10SM CLR 14/01 A3000 RMK AO2 SLP163 T01390011,M
ALO,2022-03-14 19:54,57.00,32.00,38.54,0.00,0.00,0.00,30.00,1016.50,10.00,M,CLR,M,M,M,M,M,M,M,M,M,M,M,M,M,M,57.00,KALO 141954Z 00000KT 10SM CLR 14/00 A3000 RMK AO2 SLP165 T01390000,M
ALO,2022-03-14 20:54,57.90,33.10,39.00,M,5.00,0.00,30.01,1016.60,10.00,M,CLR,M,M,M,M,M,M,M,M,M,M,M,M,M,M,57.90,KALO 142054Z VRB05KT 10SM CLR 14/01 A3001 RMK AO2 SLP166 T01440006 53004,M
ALO,2022-03-14 21:54,55.90,34.00,43.46,10.00,6.00,0.00,30.03,1017.30,10.00,M,CLR,M,M,M,M,M,M,M,M,M,M,M,M,M,M,55.90,KALO 142154Z 01006KT 10SM CLR 13/01 A3003 RMK AO2 SLP173 T01330011,M
ALO,2022-03-14 22:54,55.00,35.10,46.91,40.00,9.00,0.00,30.05,1017.90,10.00,M,CLR,M,M,M,M,M,M,M,M,M,M,M,M,M,M,55.00,KALO 142254Z 04009KT 10SM CLR 13/02 A3005 RMK AO2 SLP179 T01280017,M
ALO,2022-03-14 23:54,48.90,36.00,60.88,30.00,5.00,0.00,30.08,1019.20,10.00,M,CLR,M,M,M,M,M,M,M,M,M,M,M,M,M,M,46.47,KALO 142354Z 03005KT 10SM CLR 09/02 A3008 RMK AO2 SLP192 T00940022 10144 20094 53023,M
ALO,2022-03-15 00:54,45.00,35.10,68.05,30.00,6.00,0.00,30.09,1019.80,10.00,M,CLR,M,M,M,M,M,M,M,M,M,M,M,M,M,M,41.19,KALO 150054Z AUTO 03006KT 10SM CLR 07/02 A3009 RMK AO2 SLP198 T00720017,M
ALO,2022-03-15 01:54,41.00,33.10,73.25,30.00,9.00,0.00,30.12,1020.50,10.00,M,CLR,M,M,M,M,M,M,M,M,M,M,M,M,M,M,34.70,KALO 150154Z AUTO 03009KT 10SM CLR 05/01 A3012 RMK AO2 SLP205 T00500006,M
ALO,2022-03-15 02:54,37.00,30.00,75.56,330.00,6.00,0.00,30.15,1021.70,10.00,M,CLR,M,M,M,M,M,M,M,M,M,M,M,M,M,M,31.55,KALO 150254Z AUTO 33006KT 10SM CLR 03/M01 A3015 RMK AO2 SLP217 T00281011 53023,M
ALO,2022-03-15 03:54,37.00,30.00,75.56,40.00,6.00,0.00,30.15,1021.60,10.00,M,CLR,M,M,M,M,M,M,M,M,M,M,M,M,M,M,31.55,KALO 150354Z AUTO 04006KT 10SM CLR 03/M01 A3015 RMK AO2 SLP216 T00281011,M
ALO,2022-03-15 04:54,35.10,28.90,77.88,10.00,6.00,0.00,30.17,1022.10,10.00,M,CLR,M,M,M,M,M,M,M,M,M,M,M,M,M,M,29.26,KALO 150454Z AUTO 01006KT 10SM CLR 02/M02 A3017 RMK AO2 SLP221 T00171017,M
ALO,2022-03-15 05:54,34.00,28.90,81.37,360.00,7.00,0.00,30.18,1022.40,10.00,M,CLR,M,M,M,M,M,M,M,M,M,M,M,M,M,M,27.22,KALO 150554Z AUTO 36007KT 10SM CLR 01/M02 A3018 RMK AO2 SLP224 T00111017 10094 20011 401440006 53008,M
ALO,2022-03-15 06:54,32.00,28.00,84.98,360.00,5.00,0.00,30.18,1022.70,10.00,M,CLR,M,M,M,M,M,M,M,M,M,M,M,M,M,M,26.40,KALO 150654Z AUTO 36005KT 10SM CLR 00/M02 A3018 RMK AO2 SLP227 T00001022,M
ALO,2022-03-15 07:54,30.90,26.10,82.15,340.00,7.00,0.00,30.18,1022.60,10.00,M,CLR,M,M,M,M,M,M,M,M,M,M,M,M,M,M,23.44,KALO 150754Z AUTO 34007KT 10SM CLR M01/M03 A3018 RMK AO2 SLP226 T10061033,M
ALO,2022-03-15 08:54,30.00,26.10,85.21,320.00,5.00,0.00,30.16,1022.00,10.00,M,CLR,M,M,M,M,M,M,M,M,M,M,M,M,M,M,24.02,KALO 150854Z AUTO 32005KT 10SM CLR M01/M03 A3016 RMK AO2 SLP220 T10111033 58004,M
ALO,2022-03-15 09:54,30.00,26.10,85.21,310.00,5.00,0.00,30.17,1022.20,10.00,M,CLR,M,M,M,M,M,M,M,M,M,M,M,M,M,M,24.02,KALO 150954Z AUTO 31005KT 10SM CLR M01/M03 A3017 RMK AO2 SLP222 T10111033,M
ALO,2022-03-15 10:54,28.90,25.00,85.14,310.00,5.00,0.00,30.19,1022.90,9.00,M,CLR,M,M,M,M,M,M,M,M,M,M,M,M,M,M,22.71,KALO 151054Z 31005KT 9SM CLR M02/M04 A3019 RMK AO2 SLP229 T10171039,M
ALO,2022-03-15 11:54,28.00,25.00,88.33,330.00,6.00,0.00,30.21,1023.80,9.00,M,CLR,M,M,M,M,M,M,M,M,M,M,M,M,M,M,20.71,KALO 151154Z 33006KT 9SM CLR M02/M04 A3021 RMK AO2 SLP238 T10221039 10017 21022 53016,M
ALO,2022-03-15 12:54,28.90,25.00,85.14,330.00,4.00,0.00,30.22,1024.30,8.00,M,CLR,M,M,M,M,M,M,M,M,M,M,M,M,M,M,23.80,KALO 151254Z 33004KT 8SM CLR M02/M04 A3022 RMK AO2 SLP243 T10171039,M
ALO,2022-03-15 13:54,32.00,28.90,88.17,320.00,4.00,0.00,30.24,1024.70,8.00,M,CLR,M,M,M,M,M,M,M,M,M,M,M,M,M,M,27.42,KALO 151354Z 32004KT 8SM CLR 00/M02 A3024 RMK AO2 SLP247 T00001017,M
ALO,2022-03-15 14:54,37.00,32.00,81.93,40.00,3.00,0.00,30.23,1024.60,10.00,M,CLR,M,M,M,M,M,M,M,M,M,M,M,M,M,M,34.40,KALO 151454Z 04003KT 10SM CLR 03/00 A3023 RMK AO2 SLP246 T00280000 50006,M
ALO,2022-03-15 15:54,41.00,33.10,73.25,0.00,0.00,0.00,30.23,1024.40,10.00,M,CLR,M,M,M,M,M,M,M,M,M,M,M,M,M,M,41.00,KALO 151554Z 00000KT 10SM CLR 05/01 A3023 RMK AO2 SLP244 T00500006,M
ALO,2022-03-15 16:54,45.00,35.10,68.05,M,3.00,0.00,30.23,1024.50,10.00,M,CLR,M,M,M,M,M,M,M,M,M,M,M,M,M,M,43.55,KALO 151654Z VRB03KT 10SM CLR 07/02 A3023 RMK AO2 SLP245 T00720017,M
ALO,2022-03-15 17:54,46.90,34.00,60.61,0.00,0.00,0.00,30.21,1023.50,10.00,M,CLR,M,M,M,M,M,M,M,M,M,M,M,M,M,M,46.90,KALO 151754Z 00000KT 10SM CLR 08/01 A3021 RMK AO2 SLP235 T00830011 10094 21022 58008,M
ALO,2022-03-15 18:54,52.00,35.10,52.36,280.00,5.00,0.00,30.17,1022.40,10.00,M,CLR,M,M,M,M,M,M,M,M,M,M,M,M,M,M,52.00,KALO 151854Z 28005KT 10SM CLR 11/02 A3017 RMK AO2 SLP224 T01110017,M
ALO,2022-03-15 19:54,54.00,36.00,50.42,240.00,4.00,0.00,30.13,1021.00,10.00,M,CLR,M,M,M,M,M,M,M,M,M,M,M,M,M,M,54.00,KALO 151954Z 24004KT 10SM CLR 12/02 A3013 RMK AO2 SLP210 T01220022,M
ALO,2022-03-15 20:54,55.90,37.00,48.95,M,4.00,0.00,30.12,1020.40,10.00,M,CLR,M,M,M,M,M,M,M,M,M,M,M,M,M,M,55.90,KALO 152054Z VRB04KT 10SM CLR 13/03 A3012 RMK AO2 SLP204 T01330028 56029,M
ALO,2022-03-15 21:54,55.00,37.90,52.40,280.00,6.00,0.00,30.11,1020.00,10.00,M,CLR,M,M,M,M,M,M,M,M,M,M,M,M,M,M,55.00,KALO 152154Z 28006KT 10SM CLR 13/03 A3011 RMK AO2 SLP200 T01280033,M
ALO,2022-03-15 22:54,54.00,37.00,52.45,220.00,7.00,0.00,30.09,1019.60,10.00,M,CLR,M,M,M,M,M,M,M,M,M,M,M,M,M,M,54.00,KALO 152254Z 22007KT 10SM CLR 12/03 A3009 RMK AO2 SLP196 T01220028,M
ALO,2022-03-15 23:54,50.00,37.00,60.79,200.00,5.00,0.00,30.07,1019.10,10.00,M,CLR,M,M,M,M,M,M,M,M,M,M,M,M,M,M,50.00,KALO 152354Z 20005KT 10SM CLR 10/03 A3007 RMK AO2 SLP191 T01000028 10133 20083 58014,M
ALO,2022-03-16 00:54,45.00,35.10,68.05,0.00,0.00,0.00,30.07,1019.00,10.00,M,CLR,M,M,M,M,M,M,M,M,M,M,M,M,M,M,45.00,KALO 160054Z 00000KT 10SM CLR 07/02 A3007 RMK AO2 SLP190 T00720017,M
ALO,2022-03-16 01:54,39.90,34.00,79.25,0.00,0.00,0.00,30.06,1018.90,10.00,M,CLR,M,M,M,M,M,M,M,M,M,M,M,M,M,M,39.90,KALO 160154Z AUTO 00000KT 10SM CLR 04/01 A3006 RMK AO2 SLP189 T00440011,M
ALO,2022-03-16 02:54,36.00,30.90,81.53,120.00,3.00,0.00,30.05,1018.50,10.00,M,CLR,M,M,M,M,M,M,M,M,M,M,M,M,M,M,33.26,KALO 160254Z AUTO 12003KT 10SM CLR 02/M01 A3005 RMK AO2 SLP185 T00221006 58007,M
ALO,2022-03-16 03:54,36.00,30.90,81.53,0.00,0.00,0.00,30.05,1018.20,9.00,M,CLR,M,M,M,M,M,M,M,M,M,M,M,M,M,M,36.00,KALO 160354Z AUTO 00000KT 9SM CLR 02/M01 A3005 RMK AO2 SLP182 T00221006,M
ALO,2022-03-16 04:54,34.00,30.00,85.11,80.00,3.00,0.00,30.04,1017.90,8.00,M,CLR,M,M,M,M,M,M,M,M,M,M,M,M,M,M,30.97,KALO 160454Z AUTO 08003KT 8SM CLR 01/M01 A3004 RMK AO2 SLP179 T00111011,M
ALO,2022-03-16 05:54,32.00,28.00,84.98,0.00,0.00,0.00,30.02,1017.40,8.00,M,CLR,M,M,M,M,M,M,M,M,M,M,M,M,M,M,32.00,KALO 160554Z AUTO 00000KT 8SM CLR 00/M02 A3002 RMK AO2 SLP174 T00001022 10106 20000 401331022 58009,M
ALO,2022-03-16 06:54,34.00,30.90,88.27,150.00,5.00,0.00,30.00,1016.60,7.00,M,CLR,M,M,M,M,M,M,M,M,M,M,M,M,M,M,28.77,KALO 160654Z AUTO 15005KT 7SM CLR 01/M01 A3000 RMK AO2 SLP166 T00111006,M
ALO,2022-03-16 07:54,37.00,32.00,81.93,160.00,5.00,0.00,29.99,1016.00,8.00,M,CLR,M,M,M,M,M,M,M,M,M,M,M,M,M,M,32.33,KALO 160754Z AUTO 16005KT 8SM CLR 03/00 A2999 RMK AO2 SLP160 T00280000,M
ALO,2022-03-16 08:54,34.00,28.90,81.37,150.00,3.00,0.00,29.96,1015.10,7.00,M,CLR,M,M,M,M,M,M,M,M,M,M,M,M,M,M,30.97,KALO 160854Z AUTO 15003KT 7SM CLR 01/M02 A2996 RMK AO2 SLP151 T00111017 58021,M
ALO,2022-03-16 09:54,34.00,30.00,85.11,120.00,3.00,0.00,29.94,1014.50,7.00,M,CLR,M,M,M,M,M,M,M,M,M,M,M,M,M,M,30.97,KALO 160954Z AUTO 12003KT 7SM CLR 01/M01 A2994 RMK AO2 SLP145 T00111011,M
ALO,2022-03-16 10:54,33.10,28.90,84.36,120.00,4.00,0.00,29.93,1014.00,7.00,M,CLR,M,M,M,M,M,M,M,M,M,M,M,M,M,M,28.70,KALO 161054Z 12004KT 7SM CLR 01/M02 A2993 RMK AO2 SLP140 T00061017,M
ALO,2022-03-16 11:54,36.00,32.00,85.23,150.00,5.00,0.00,29.92,1013.70,8.00,M,CLR,M,M,M,M,M,M,M,M,M,M,M,M,M,M,31.15,KALO 161154Z 15005KT 8SM CLR 02/00 A2992 RMK AO2 SLP137 T00220000 10028 20000 56014,M
ALO,2022-03-16 12:54,37.00,33.10,85.64,140.00,6.00,0.00,29.91,1013.40,6.00,M,CLR,M,M,M,M,M,M,M,BR,M,M,M,M,M,M,31.55,KALO 161254Z 14006KT 6SM BR CLR 03/01 A2991 RMK AO2 SLP134 T00280006,M
ALO,2022-03-16 13:54,42.10,36.00,78.80,150.00,6.00,0.00,29.90,1013.00,8.00,M,CLR,M,M,M,M,M,M,M,M,M,M,M,M,M,M,37.69,KALO 161354Z 15006KT 8SM CLR 06/02 A2990 RMK AO2 SLP130 T00560022,M
ALO,2022-03-16 14:54,50.00,37.90,62.98,180.00,7.00,0.00,29.88,1012.30,10.00,M,CLR,M,M,M,M,M,M,M,M,M,M,M,M,M,M,50.00,KALO 161454Z 18007KT 10SM CLR 10/03 A2988 RMK AO2 SLP123 T01000033 58013,M
ALO,2022-03-16 15:54,57.00,39.90,52.70,180.00,13.00,0.00,29.87,1011.80,10.00,21.00,CLR,M,M,M,M,M,M,M,M,M,M,M,M,M,M,57.00,KALO 161554Z 18013G21KT 10SM CLR 14/04 A2987 RMK AO2 SLP118 T01390044,M
ALO,2022-03-16 16:54,62.10,41.00,45.84,210.00,16.00,0.00,29.86,1011.30,10.00,26.00,CLR,M,M,M,M,M,M,M,M,M,M,M,26.00,200.00,2022-03-16 16:43,62.10,KALO 161654Z 21016G26KT 10SM CLR 17/05 A2986 RMK AO2 PK WND 20026/1643 SLP113 T01670050,M
ALO,2022-03-16 17:54,64.00,42.10,44.74,210.00,22.00,0.00,29.84,1010.60,10.00,31.00,CLR,M,M,M,M,M,M,M,M,M,M,M,32.00,210.00,2022-03-16 17:33,64.00,KALO 161754Z 21022G31KT 10SM CLR 18/06 A2984 RMK AO2 PK WND 21032/1733 SLP106 T01780056 10178 20022 58015,M
ALO,2022-03-16 18:54,66.00,42.10,41.73,210.00,16.00,0.00,29.81,1009.70,10.00,27.00,CLR,M,M,M,M,M,M,M,M,M,M,M,32.00,220.00,2022-03-16 18:09,66.00,KALO 161854Z 21016G27KT 10SM CLR 19/06 A2981 RMK AO2 PK WND 22032/1809 SLP097 T01890056,M
ALO,2022-03-16 19:54,69.10,39.90,34.43,200.00,18.00,0.00,29.78,1008.50,10.00,27.00,CLR,M,M,M,M,M,M,M,M,M,M,M,29.00,200.00,2022-03-16 19:05,69.10,KALO 161954Z 20018G27KT 10SM CLR 21/04 A2978 RMK AO2 PK WND 20029/1905 SLP085 T02060044,M
ALO,2022-03-16 20:54,69.10,37.00,30.74,220.00,16.00,0.00,29.75,1007.80,10.00,31.00,CLR,M,M,M,M,M,M,M,M,M,M,M,31.00,200.00,2022-03-16 20:47,69.10,KALO 162054Z 22016G31KT 10SM CLR 21/03 A2975 RMK AO2 PK WND 20031/2047 SLP078 T02060028 56027,M
ALO,2022-03-16 21:54,69.10,34.00,27.29,220.00,13.00,0.00,29.75,1007.70,10.00,24.00,CLR,M,M,M,M,M,M,M,M,M,M,M,M,M,M,69.10,KALO 162154Z 22013G24KT 10SM CLR 21/01 A2975 RMK AO2 SLP077 T02060011,M
ALO,2022-03-16 22:54,68.00,35.10,29.61,210.00,9.00,0.00,29.74,1007.40,10.00,18.00,CLR,M,M,M,M,M,M,M,M,M,M,M,M,M,M,68.00,KALO 162254Z 21009G18KT 10SM CLR 20/02 A2974 RMK AO2 SLP074 T02000017,M
ALO,2022-03-16 23:54,62.10,36.00,37.69,210.00,8.00,0.00,29.75,1007.80,10.00,M,CLR,M,M,M,M,M,M,M,M,M,M,M,M,M,M,62.10,KALO 162354Z 21008KT 10SM CLR 17/02 A2975 RMK AO2 SLP078 T01670022 10211 20167 55001,M
ALO,2022-03-17 00:54,57.90,36.00,43.78,170.00,6.00,0.00,29.76,1008.20,10.00,M,CLR,M,M,M,M,M,M,M,M,M,M,M,M,M,M,57.90,KALO 170054Z 17006KT 10SM CLR 14/02 A2976 RMK AO2 SLP082 T01440022,M
ALO,2022-03-17 01:54,57.00,37.00,47.04,240.00,6.00,0.00,29.78,1008.80,10.00,M,CLR,M,M,M,M,M,M,M,M,M,M,M,M,M,M,57.00,KALO 170154Z AUTO 24006KT 10SM CLR 14/03 A2978 RMK AO2 SLP088 T01390028,M
ALO,2022-03-17 02:54,51.10,37.00,58.36,290.00,7.00,0.00,29.79,1008.90,10.00,M,CLR,M,M,M,M,M,M,M,M,M,M,M,M,M,M,51.10,KALO 170254Z AUTO 29007KT 10SM CLR 11/03 A2979 RMK AO2 SLP089 T01060028 51012,M
ALO,2022-03-17 03:54,48.90,37.00,63.34,190.00,3.00,0.00,29.81,1009.50,10.00,M,CLR,M,M,M,M,M,M,M,M,M,M,M,M,M,M,48.01,KALO 170354Z AUTO 19003KT 10SM CLR 09/03 A2981 RMK AO2 SLP095 T00940028,M
ALO,2022-03-17 04:54,46.00,37.00,70.64,340.00,7.00,0.00,29.83,1010.10,10.00,M,CLR,M,M,M,M,M,M,M,M,M,M,M,M,M,M,41.84,KALO 170454Z AUTO 34007KT 10SM CLR 08/03 A2983 RMK AO2 SLP101 T00780028,M
ALO,2022-03-17 05:54,46.00,37.90,73.18,340.00,8.00,0.00,29.83,1010.20,10.00,M,CLR,M,M,M,M,M,M,M,M,M,M,M,M,M,M,41.36,KALO 170554Z AUTO 34008KT 10SM CLR 08/03 A2983 RMK AO2 SLP102 T00780033 10167 20067 402110000 51014,M
ALO,2022-03-17 06:54,48.90,39.00,68.51,340.00,10.00,0.00,29.84,1010.50,10.00,M,CLR,M,M,M,M,M,M,M,M,M,M,M,M,M,M,44.16,KALO 170654Z AUTO 34010KT 10SM CLR 09/04 A2984 RMK AO2 SLP105 T00940039,M
ALO,2022-03-17 07:54,46.00,37.90,73.18,330.00,6.00,0.00,29.85,1010.90,10.00,M,BKN,M,M,M,10000.00,M,M,M,M,M,M,M,M,M,M,42.39,KALO 170754Z AUTO 33006KT 10SM BKN100 08/03 A2985 RMK AO2 SLP109 T00780033,M
ALO,2022-03-17 08:54,46.00,39.00,76.40,340.00,4.00,0.00,29.84,1010.60,10.00,M,BKN,M,M,M,11000.00,M,M,M,M,M,M,M,M,M,M,43.77,KALO 170854Z AUTO 34004KT 10SM BKN110 08/04 A2984 RMK AO2 SLP106 T00780039 50004,M
ALO,2022-03-17 09:54,44.10,37.00,75.93,360.00,5.00,0.00,29.85,1010.90,10.00,M,SCT,BKN,OVC,M,5500.00,8000.00,9500.00,M,M,M,M,M,M,M,M,40.77,KALO 170954Z AUTO 36005KT 10SM SCT055 BKN080 OVC095 07/03 A2985 RMK AO2 SLP109 T00670028,M
ALO,2022-03-17 10:54,44.10,37.00,75.93,0.00,0.00,0.00,29.86,1011.30,10.00,M,OVC,M,M,M,8000.00,M,M,M,M,M,M,M,M,M,M,44.10,KALO 171054Z 00000KT 10SM OVC080 07/03 A2986 RMK AO2 SLP113 T00670028,M
ALO,2022-03-17 11:54,43.00,37.90,82.04,190.00,4.00,0.01,29.89,1012.30,10.00,M,BKN,OVC,M,M,7000.00,8500.00,M,M,M,M,M,M,M,M,M,40.27,KALO 171154Z 19004KT 10SM BKN070 OVC085 06/03 A2989 RMK AO2 RAB15E50 SLP123 P0001 60001 70001 T00610033 10094 20061 53015,M
ALO,2022-03-17 12:54,43.00,39.00,85.66,280.00,3.00,T,29.90,1012.70,10.00,M,BKN,OVC,M,M,7000.00,9000.00,M,M,M,M,M,M,M,M,M,41.26,KALO 171254Z 28003KT 10SM BKN070 OVC090 06/04 A2990 RMK AO2 RAB1156E07 SLP127 P0000 T00610039,M
ALO,2022-03-17 13:54,44.10,39.90,85.06,260.00,4.00,0.00,29.92,1013.30,10.00,M,OVC,M,M,M,9000.00,M,M,M,M,M,M,M,M,M,M,41.55,KALO 171354Z 26004KT 10SM OVC090 07/04 A2992 RMK AO2 SLP133 T00670044,M
ALO,2022-03-17 14:54,45.00,39.90,82.19,310.00,5.00,0.00,29.94,1014.10,10.00,M,FEW,OVC,M,M,7000.00,9000.00,M,M,M,M,M,M,M,M,M,41.83,KALO 171454Z 31005KT 10SM FEW070 OVC090 07/04 A2994 RMK AO2 SLP141 60000 T00720044 53016,M
ALO,2022-03-17 15:54,45.00,37.90,76.01,320.00,7.00,0.00,29.96,1014.80,10.00,M,FEW,SCT,OVC,M,6000.00,7500.00,9000.00,M,M,M,M,M,M,M,M,40.63,KALO 171554Z 32007KT 10SM FEW060 SCT075 OVC090 07/03 A2996 RMK AO2 SLP148 T00720033,M
ALO,2022-03-17 16:54,46.00,39.00,76.40,350.00,10.00,0.00,29.96,1014.90,10.00,M,SCT,OVC,M,M,5000.00,7000.00,M,M,M,M,M,M,M,M,M,40.52,KALO 171654Z 35010KT 10SM SCT050 OVC070 08/04 A2996 RMK AO2 SLP149 T00780039,M
ALO,2022-03-17 17:54,50.00,41.00,71.07,350.00,7.00,T,29.96,1014.70,10.00,M,OVC,M,M,M,8000.00,M,M,M,M,M,M,M,M,M,M,50.00,KALO 171754Z 35007KT 10SM OVC080 10/05 A2996 RMK AO2 RAB00E15 SLP147 P0000 60000 T01000050 10100 20056 50006,M
ALO,2022-03-17 18:54,46.90,39.00,73.85,310.00,10.00,0.00,29.98,1015.40,10.00,M,SCT,BKN,OVC,M,5500.00,7000.00,8500.00,M,M,M,M,M,M,M,M,41.65,KALO 171854Z 31010KT 10SM SCT055 BKN070 OVC085 08/04 A2998 RMK AO2 SLP154 T00830039,M
ALO,2022-03-17 19:54,44.10,37.90,78.66,330.00,12.00,T,29.96,1015.10,10.00,M,SCT,OVC,M,M,6500.00,8000.00,M,M,M,M,M,M,M,M,M,37.40,KALO 171954Z 33012KT 10SM SCT065 OVC080 07/03 A2996 RMK AO2 RAB13E23 SLP151 P0000 T00670033,M
ALO,2022-03-17 20:54,44.10,37.00,75.93,330.00,10.00,0.00,29.98,1015.80,10.00,M,BKN,OVC,M,M,6000.00,7500.00,M,M,M,M,M,M,M,M,M,38.14,KALO 172054Z 33010KT 10SM BKN060 OVC075 07/03 A2998 RMK AO2 SLP158 60000 T00670028 51008,M
ALO,2022-03-17 21:54,43.00,37.90,82.04,350.00,8.00,T,29.97,1015.50,7.00,M,FEW,BKN,OVC,M,1800.00,4600.00,5500.00,M,M,M,M,M,M,M,M,37.66,KALO 172154Z 35008KT 7SM FEW018 BKN046 OVC055 06/03 A2997 RMK AO2 RAB40E44 SLP155 P0000 T00610033,M
ALO,2022-03-17 22:54,43.00,37.90,82.04,310.00,7.00,0.01,29.99,1016.20,8.00,M,OVC,M,M,M,6500.00,M,M,M,M,M,M,M,M,M,M,38.19,KALO 172254Z 31007KT 8SM OVC065 06/03 A2999 RMK AO2 RAB2156E31 SLP162 P0001 T00610033,M
ALO,2022-03-17 23:54,44.10,37.90,78.66,350.00,7.00,0.00,29.99,1016.00,8.00,M,OVC,M,M,M,6500.00,M,M,M,M,M,M,M,M,M,M,39.53,KALO 172354Z 35007KT 8SM OVC065 07/03 A2999 RMK AO2 SLP160 60001 T00670033 10100 20061 53002,M
ALO,2022-03-18 00:54,42.10,37.00,81.98,340.00,8.00,T,30.02,1017.10,7.00,M,OVC,M,M,M,6500.00,M,M,M,-RA,M,M,M,M,M,M,36.55,KALO 180054Z 34008KT 7SM -RA OVC065 06/03 A3002 RMK AO2 RAB23 SLP171 P0000 T00560028,M
ALO,2022-03-18 01:54,43.00,37.90,82.04,340.00,8.00,0.01,30.03,1017.60,8.00,M,OVC,M,M,M,6500.00,M,M,M,-RA,M,M,M,M,M,M,37.66,KALO 180154Z AUTO 34008KT 8SM -RA OVC065 06/03 A3003 RMK AO2 RAE11B35 SLP176 P0001 T00610033,M
ALO,2022-03-18 02:54,41.00,37.00,85.54,340.00,6.00,0.02,30.04,1017.60,9.00,M,FEW,OVC,M,M,5500.00,7000.00,M,M,M,M,M,M,M,M,M,36.37,KALO 180254Z AUTO 34006KT 9SM FEW055 OVC070 05/03 A3004 RMK AO2 RAE42 SLP176 P0002 60003 T00500028 51016,M
ALO,2022-03-18 03:54,42.10,36.00,78.80,360.00,7.00,0.00,29.99,1016.20,10.00,M,OVC,M,M,M,7000.00,M,M,M,M,M,M,M,M,M,M,37.09,KALO 180354Z AUTO 36007KT 10SM OVC070 06/02 A2999 RMK AO2 SLP162 T00560022,M
ALO,2022-03-18 04:54,42.10,36.00,78.80,10.00,5.00,0.00,29.99,1016.10,10.00,M,OVC,M,M,M,6000.00,M,M,M,M,M,M,M,M,M,M,38.39,KALO 180454Z AUTO 01005KT 10SM OVC060 06/02 A2999 RMK AO2 SLP161 T00560022,M
ALO,2022-03-18 05:54,41.00,36.00,82.22,20.00,6.00,0.01,30.00,1016.20,4.00,M,FEW,OVC,M,M,1300.00,3000.00,M,M,RA,M,M,M,M,M,M,36.37,KALO 180554Z AUTO 02006KT 4SM RA FEW013 OVC030 05/02 A3000 RMK AO2 RAB32 SLP162 P0001 60004 T00500022 10067 20050 401000050 55012,M
ALO,2022-03-18 06:11,41.00,36.00,82.22,360.00,8.00,0.02,30.01,M,3.00,M,FEW,OVC,M,M,1100.00,2800.00,M,M,RA,M,M,M,M,M,M,35.20,KALO 180611Z AUTO 36008KT 3SM RA FEW011 OVC028 05/02 A3001 RMK AO2 P0002 T00500022,M
ALO,2022-03-18 06:29,41.00,36.00,82.22,10.00,8.00,0.06,30.02,M,2.50,M,FEW,BKN,OVC,M,1200.00,2200.00,2800.00,M,RA,M,M,M,M,M,M,35.20,KALO 180629Z AUTO 01008KT 2 1/2SM RA FEW012 BKN022 OVC028 05/02 A3002 RMK AO2 P0006 T00500022,M
ALO,2022-03-18 06:54,39.90,37.00,89.27,40.00,8.00,0.14,30.01,1016.80,2.50,M,OVC,M,M,M,2000.00,M,M,M,-RA BR,M,M,M,M,M,M,33.84,KALO 180654Z AUTO 04008KT 2 1/2SM -RA BR OVC020 04/03 A3001 RMK AO2 SLP168 P0014 T00440028,M
ALO,2022-03-18 07:07,39.90,37.00,89.27,40.00,10.00,0.02,30.01,M,4.00,M,BKN,OVC,M,M,2600.00,4600.00,M,M,-RA BR,M,M,M,M,M,M,32.87,KALO 180707Z AUTO 04010KT 4SM -RA BR BKN026 OVC046 04/03 A3001 RMK AO2 P0002 T00440028,M
ALO,2022-03-18 07:29,39.90,36.00,85.81,40.00,10.00,0.04,30.01,M,5.00,M,SCT,OVC,M,M,3100.00,4700.00,M,M,-RA BR,M,M,M,M,M,M,32.87,KALO 180729Z AUTO 04010KT 5SM -RA BR SCT031 OVC047 04/02 A3001 RMK AO2 P0004 T00440022,M
ALO,2022-03-18 07:54,39.90,36.00,85.81,360.00,7.00,0.06,30.01,1016.70,4.00,M,SCT,BKN,OVC,M,1800.00,3600.00,4700.00,M,-RA BR,M,M,M,M,M,M,34.41,KALO 180754Z AUTO 36007KT 4SM -RA BR SCT018 BKN036 OVC047 04/02 A3001 RMK AO2 SLP167 P0006 T00440022,M
ALO,2022-03-18 07:59,39.90,36.00,85.81,360.00,6.00,T,30.01,M,5.00,M,FEW,BKN,OVC,M,900.00,2400.00,4700.00,M,-RA BR,M,M,M,M,M,M,35.04,KALO 180759Z AUTO 36006KT 5SM -RA BR FEW009 BKN024 OVC047 04/02 A3001 RMK AO2 P0000 T00440022,M
ALO,2022-03-18 08:32,39.00,36.00,88.87,20.00,8.00,0.04,30.00,M,4.00,M,BKN,OVC,M,M,1300.00,2100.00,M,M,RA BR,M,M,M,M,M,M,32.74,KALO 180832Z AUTO 02008KT 4SM RA BR BKN013 OVC021 04/02 A3000 RMK AO2 P0004 T00390022,M
ALO,2022-03-18 08:54,39.00,36.00,88.87,10.00,8.00,0.07,29.99,1016.10,4.00,M,BKN,BKN,OVC,M,1100.00,1600.00,2500.00,M,-RA BR,M,M,M,M,M,M,32.74,KALO 180854Z AUTO 01008KT 4SM -RA BR BKN011 BKN016 OVC025 04/02 A2999 RMK AO2 SLP161 P0007 60027 T00390022 58003,M
ALO,2022-03-18 09:03,39.00,36.00,88.87,20.00,8.00,0.02,29.99,M,4.00,M,SCT,OVC,M,M,1100.00,3100.00,M,M,-RA BR,M,M,M,M,M,M,32.74,KALO 180903Z AUTO 02008KT 4SM -RA BR SCT011 OVC031 04/02 A2999 RMK AO2 P0002 T00390022,M
ALO,2022-03-18 09:15,39.00,35.10,85.76,30.00,12.00,0.03,29.98,M,5.00,M,FEW,BKN,OVC,M,900.00,2900.00,4100.00,M,-RA BR,M,M,M,M,M,M,30.91,KALO 180915Z AUTO 03012KT 5SM -RA BR FEW009 BKN029 OVC041 04/02 A2998 RMK AO2 P0003 T00390017,M
ALO,2022-03-18 09:37,37.90,35.10,89.53,20.00,11.00,0.05,29.98,M,5.00,M,BKN,OVC,M,M,3200.00,4100.00,M,M,-RA BR,M,M,M,M,M,M,29.92,KALO 180937Z AUTO 02011KT 5SM -RA BR BKN032 OVC041 03/02 A2998 RMK AO2 P0005 T00330017,M
ALO,2022-03-18 09:54,37.90,34.00,85.69,30.00,12.00,0.07,29.97,1015.30,5.00,M,OVC,M,M,M,3600.00,M,M,M,-RA BR,M,M,M,M,M,M,29.51,KALO 180954Z AUTO 03012KT 5SM -RA BR OVC036 03/01 A2997 RMK AO2 SLP153 P0007 T00330011,M
ALO,2022-03-18 10:54,37.90,34.00,85.69,10.00,12.00,0.06,29.96,1015.30,8.00,M,OVC,M,M,M,3900.00,M,M,M,-RA,M,M,M,M,M,M,29.51,KALO 181054Z 01012KT 8SM -RA OVC039 03/01 A2996 RMK AO2 SLP153 P0006 T00330011,M
ALO,2022-03-18 11:54,37.00,33.10,85.64,30.00,9.00,0.07,29.96,1015.00,5.00,M,OVC,M,M,M,3500.00,M,M,M,-RA BR,M,M,M,M,M,M,29.73,KALO 181154Z 03009KT 5SM -RA BR OVC035 03/01 A2996 RMK AO2 UPB04E19 SLP150 P0007 60047 70052 T00280006 10050 20028 56010,M
ALO,2022-03-18 12:54,37.00,34.00,88.78,40.00,15.00,0.07,29.93,1014.30,4.00,M,OVC,M,M,M,3400.00,M,M,M,-RA BR,M,M,M,M,M,M,27.26,KALO 181254Z 04015KT 4SM -RA BR OVC034 03/01 A2993 RMK AO2 UPB09E18 SLP143 P0007 T00280011,M
ALO,2022-03-18 13:54,37.90,34.00,85.69,40.00,13.00,0.02,29.93,1014.20,10.00,M,OVC,M,M,M,3300.00,M,M,M,-RA,M,M,M,M,M,M,29.13,KALO 181354Z 04013KT 10SM -RA OVC033 03/01 A2993 RMK AO2 RAE13B46UPB13E18 SLP142 P0002 T00330011,M
ALO,2022-03-18 14:54,37.90,35.10,89.53,40.00,15.00,0.01,29.92,1014.00,5.00,20.00,BKN,OVC,M,M,1000.00,3800.00,M,M,-RA BR,M,M,M,M,M,M,28.43,KALO 181454Z 04015G20KT 5SM -RA BR BKN010 OVC038 03/02 A2992 RMK AO2 RAE01B25 SLP140 P0001 60010 T00330017 56011,M
ALO,2022-03-18 15:54,39.00,35.10,85.76,40.00,14.00,0.07,29.92,1013.70,5.00,20.00,SCT,BKN,OVC,M,1100.00,3200.00,3900.00,M,-RA BR,M,M,M,M,M,M,30.19,KALO 181554Z 04014G20KT 5SM -RA BR SCT011 BKN032 OVC039 04/02 A2992 RMK AO2 SLP137 P0007 T00390017,M
ALO,2022-03-18 16:23,37.90,35.10,89.53,50.00,13.00,0.04,29.92,M,7.00,M,BKN,OVC,M,M,1100.00,3200.00,M,M,-RA,M,M,M,M,M,M,29.13,KALO 181623Z 05013KT 7SM -RA BKN011 OVC032 03/02 A2992 RMK AO2 P0004 T00330017,M
ALO,2022-03-18 16:54,37.90,34.00,85.69,40.00,14.00,0.08,29.91,1013.50,4.00,M,BKN,OVC,M,M,1100.00,2700.00,M,M,RA BR,M,M,M,M,M,M,28.77,KALO 181654Z 04014KT 4SM RA BR BKN011 OVC027 03/01 A2991 RMK AO2 SLP135 P0008 T00330011,M
ALO,2022-03-18 17:54,37.00,33.10,85.64,30.00,12.00,0.10,29.89,1012.80,5.00,21.00,OVC,M,M,M,900.00,M,M,M,-RA BR,M,M,M,M,M,M,28.37,KALO 181754Z 03012G21KT 5SM -RA BR OVC009 03/01 A2989 RMK AO2 SLP128 P0010 60035 T00280006 10039 20028 58012,M
ALO,2022-03-18 18:41,37.00,33.10,85.64,20.00,13.00,0.05,29.86,M,6.00,M,SCT,OVC,M,M,900.00,2800.00,M,M,-RA BR,M,M,M,M,M,M,27.97,KALO 181841Z 02013KT 6SM -RA BR SCT009 OVC028 03/01 A2986 RMK AO2 P0005 T00280006,M
ALO,2022-03-18 18:54,37.00,34.00,88.78,20.00,14.00,0.07,29.85,1011.50,5.00,M,SCT,OVC,M,M,800.00,2700.00,M,M,-RA BR,M,M,M,M,M,M,27.61,KALO 181854Z 02014KT 5SM -RA BR SCT008 OVC027 03/01 A2985 RMK AO2 SLP115 P0007 T00280011,M
ALO,2022-03-18 19:17,37.00,34.00,88.78,20.00,16.00,0.03,29.84,M,7.00,26.00,SCT,BKN,OVC,M,1000.00,3400.00,4700.00,M,-RA,M,M,M,26.00,10.00,2022-03-18 19:14,26.94,KALO 181917Z 02016G26KT 7SM -RA SCT010 BKN034 OVC047 03/01 A2984 RMK AO2 PK WND 01026/1914 P0003 T00280011,M
ALO,2022-03-18 19:39,37.90,34.00,85.69,20.00,15.00,0.06,29.83,M,4.00,M,FEW,BKN,OVC,M,800.00,1100.00,3600.00,M,-RA BR,M,M,M,26.00,10.00,2022-03-18 19:14,28.43,KALO 181939Z 02015KT 4SM -RA BR FEW008 BKN011 OVC036 03/01 A2983 RMK AO2 PK WND 01026/1914 P0006 T00330011,M
ALO,2022-03-18 19:54,37.00,34.00,88.78,20.00,16.00,0.08,29.82,1010.60,4.00,M,BKN,OVC,M,M,1100.00,3600.00,M,M,-RA BR,M,M,M,26.00,10.00,2022-03-18 19:14,26.94,KALO 181954Z AUTO 02016KT 4SM -RA BR BKN011 OVC036 03/01 A2982 RMK AO2 PK WND 01026/1914 SLP106 P0008 T00280011,M
ALO,2022-03-18 20:07,37.00,34.00,88.78,20.00,16.00,0.02,29.82,M,5.00,24.00,OVC,M,M,M,900.00,M,M,M,-RA BR,M,M,M,M,M,M,26.94,KALO 182007Z AUTO 02016G24KT 5SM -RA BR OVC009 03/01 A2982 RMK AO2 CIG 008V015 P0002 T00280011,M
ALO,2022-03-18 20:16,37.00,34.00,88.78,10.00,18.00,0.03,29.82,M,4.00,M,FEW,BKN,OVC,M,800.00,1100.00,3600.00,M,-RA BR,M,M,M,M,M,M,26.33,KALO 182016Z AUTO 01018KT 4SM -RA BR FEW008 BKN011 OVC036 03/01 A2982 RMK AO2 P0003 T00280011,M
ALO,2022-03-18 20:27,37.00,33.10,85.64,10.00,19.00,0.04,29.82,M,4.00,M,BKN,BKN,OVC,M,900.00,1300.00,3100.00,M,-RA BR,M,M,M,M,M,M,26.05,KALO 182027Z AUTO 01019KT 4SM -RA BR BKN009 BKN013 OVC031 03/01 A2982 RMK AO2 P0004 T00280006,M
ALO,2022-03-18 20:54,36.00,33.10,89.09,10.00,18.00,0.06,29.82,1010.40,6.00,25.00,BKN,BKN,OVC,M,800.00,1200.00,3400.00,M,-RA BR,M,M,M,26.00,10.00,2022-03-18 20:32,25.01,KALO 182054Z AUTO 01018G25KT 6SM -RA BR BKN008 BKN012 OVC034 02/01 A2982 RMK AO2 PK WND 01026/2032 SLP104 P0006 60021 T00220006 56023,M
ALO,2022-03-18 21:52,37.40,33.80,86.69,10.00,19.00,0.02,29.81,M,7.00,27.00,BKN,OVC,M,M,1000.00,1500.00,M,M,UP,M,M,M,27.00,10.00,2022-03-18 21:50,26.58,KALO 182152Z 01019G27KT 7SM UP BKN010 OVC015 03/01 A2981 RMK AO2 PK WND 01027/2150 RAE06UPB06 P0002,M
ALO,2022-03-18 21:54,37.00,33.10,85.64,10.00,18.00,0.02,29.82,1010.30,8.00,27.00,BKN,OVC,M,M,1000.00,1700.00,M,M,UP,M,M,M,27.00,10.00,2022-03-18 21:50,26.33,KALO 182154Z 01018G27KT 8SM UP BKN010 OVC017 03/01 A2982 RMK AO2 PK WND 01027/2150 RAE06UPB06 SLP103 P0002 T00280006,M
ALO,2022-03-18 22:54,37.90,34.00,85.69,20.00,19.00,0.01,29.82,1010.40,10.00,27.00,OVC,M,M,M,1500.00,M,M,M,M,M,M,M,29.00,10.00,2022-03-18 22:05,27.24,KALO 182254Z 02019G27KT 10SM OVC015 03/01 A2982 RMK AO2 PK WND 01029/2205 UPE11RAB11E40 SLP104 P0001 T00330011,M
ALO,2022-03-18 23:04,37.90,34.00,85.69,10.00,15.00,0.00,29.82,M,10.00,M,BKN,OVC,M,M,1200.00,1700.00,M,M,M,M,M,M,M,M,M,28.43,KALO 182304Z 01015KT 10SM BKN012 OVC017 03/01 A2982 RMK AO2 T00330011,M
ALO,2022-03-18 23:44,37.90,34.00,85.69,10.00,17.00,0.00,29.83,M,10.00,26.00,SCT,SCT,OVC,M,1400.00,2300.00,6000.00,M,M,M,M,M,30.00,10.00,2022-03-18 23:21,27.80,KALO 182344Z 01017G26KT 10SM SCT014 SCT023 OVC060 03/01 A2983 RMK AO2 PK WND 01030/2321 T00330011,M
ALO,2022-03-18 23:54,37.90,34.00,85.69,10.00,17.00,0.00,29.83,1010.80,10.00,27.00,FEW,SCT,OVC,M,1400.00,2300.00,6000.00,M,M,M,M,M,30.00,10.00,2022-03-18 23:21,27.80,KALO 182354Z 01017G27KT 10SM FEW014 SCT023 OVC060 03/01 A2983 RMK AO2 PK WND 01030/2321 SLP108 60024 T00330011 10033 20022 53005,M
ALO,2022-03-19 00:25,37.90,34.00,85.69,10.00,18.00,0.00,29.83,M,10.00,25.00,SCT,BKN,OVC,M,1500.00,2300.00,7500.00,M,M,M,M,M,28.00,10.00,2022-03-18 23:57,27.52,KALO 190025Z 01018G25KT 10SM SCT015 BKN023 OVC075 03/01 A2983 RMK AO2 PK WND 01028/2357 T00330011,M
ALO,2022-03-19 00:33,37.90,34.00,85.69,360.00,17.00,0.00,29.84,M,10.00,26.00,FEW,SCT,OVC,M,1500.00,2600.00,7500.00,M,M,M,M,M,28.00,10.00,2022-03-18 23:57,27.80,KALO 190033Z 36017G26KT 10SM FEW015 SCT026 OVC075 03/01 A2984 RMK AO2 PK WND 01028/2357 T00330011,M
ALO,2022-03-19 00:54,37.90,34.00,85.69,360.00,16.00,0.00,29.84,1011.10,10.00,24.00,FEW,BKN,OVC,M,1400.00,4600.00,7500.00,M,M,M,M,M,28.00,10.00,2022-03-18 23:57,28.11,KALO 190054Z 36016G24KT 10SM FEW014 BKN046 OVC075 03/01 A2984 RMK AO2 PK WND 01028/2357 SLP111 T00330011,M
ALO,2022-03-19 01:45,37.90,34.00,85.69,360.00,15.00,0.01,29.85,M,8.00,M,BKN,OVC,M,M,1400.00,2800.00,M,M,-RA,M,M,M,M,M,M,28.43,KALO 190145Z AUTO 36015KT 8SM -RA BKN014 OVC028 03/01 A2985 RMK AO2 RAB19 P0001 T00330011,M
ALO,2022-03-19 01:54,37.90,34.00,85.69,360.00,15.00,0.02,29.85,1011.40,8.00,M,BKN,OVC,M,M,1400.00,2600.00,M,M,-RA,M,M,M,M,M,M,28.43,KALO 190154Z AUTO 36015KT 8SM -RA BKN014 OVC026 03/01 A2985 RMK AO2 RAB19 SLP114 P0002 T00330011,M
ALO,2022-03-19 02:15,37.90,34.00,85.69,360.00,19.00,0.01,29.85,M,8.00,25.00,SCT,OVC,M,M,1400.00,3000.00,M,M,-RA,M,M,M,M,M,M,27.24,KALO 190215Z AUTO 36019G25KT 8SM -RA SCT014 OVC030 03/01 A2985 RMK AO2 P0001 T00330011,M
ALO,2022-03-19 02:38,37.90,34.00,85.69,360.00,18.00,0.01,29.85,M,8.00,27.00,FEW,BKN,OVC,M,1300.00,2300.00,2800.00,M,-RA,M,M,M,27.00,360.00,2022-03-19 02:25,27.52,KALO 190238Z AUTO 36018G27KT 8SM -RA FEW013 BKN023 OVC028 03/01 A2985 RMK AO2 PK WND 36027/0225 P0001 T00330011,M
ALO,2022-03-19 02:54,37.90,34.00,85.69,360.00,16.00,0.02,29.85,1011.60,8.00,M,OVC,M,M,M,2400.00,M,M,M,-RA,M,M,M,27.00,360.00,2022-03-19 02:25,28.11,KALO 190254Z AUTO 36016KT 8SM -RA OVC024 03/01 A2985 RMK AO2 PK WND 36027/0225 SLP116 P0002 60004 T00330011 51007,M
ALO,2022-03-19 03:46,37.90,34.00,85.69,360.00,17.00,0.01,29.86,M,10.00,M,OVC,M,M,M,3100.00,M,M,M,M,M,M,M,27.00,350.00,2022-03-19 03:08,27.80,KALO 190346Z AUTO 36017KT 10SM OVC031 03/01 A2986 RMK AO2 PK WND 35027/0308 RAE34 P0001 T00330011,M
ALO,2022-03-19 03:54,37.90,34.00,85.69,10.00,16.00,0.01,29.86,1011.70,10.00,M,OVC,M,M,M,3300.00,M,M,M,M,M,M,M,27.00,350.00,2022-03-19 03:08,28.11,KALO 190354Z AUTO 01016KT 10SM OVC033 03/01 A2986 RMK AO2 PK WND 35027/0308 RAE34 SLP117 P0001 T00330011,M
ALO,2022-03-19 04:54,37.00,33.10,85.64,340.00,8.00,0.00,29.86,1011.70,10.00,M,OVC,M,M,M,3300.00,M,M,M,M,M,M,M,M,M,M,30.27,KALO 190454Z AUTO 34008KT 10SM OVC033 03/01 A2986 RMK AO2 SLP117 T00280006,M
ALO,2022-03-19 05:54,36.00,32.00,85.23,320.00,9.00,0.00,29.85,1011.60,10.00,M,FEW,BKN,M,M,3100.00,12000.00,M,M,M,M,M,M,M,M,M,28.49,KALO 190554Z AUTO 32009KT 10SM FEW031 BKN120 02/00 A2985 RMK AO2 SLP116 60005 T00220000 10033 20022 400500022 58001,M
ALO,2022-03-19 06:54,36.00,30.90,81.53,340.00,10.00,0.00,29.84,1011.40,10.00,M,SCT,M,M,M,11000.00,M,M,M,M,M,M,M,M,M,M,27.98,KALO 190654Z AUTO 34010KT 10SM SCT110 02/M01 A2984 RMK AO2 SLP114 T00221006,M
ALO,2022-03-19 07:54,35.10,30.00,81.46,330.00,10.00,0.00,29.84,1011.30,10.00,M,BKN,M,M,M,12000.00,M,M,M,M,M,M,M,M,M,M,26.86,KALO 190754Z AUTO 33010KT 10SM BKN120 02/M01 A2984 RMK AO2 SLP113 T00171011,M
ALO,2022-03-19 08:54,34.00,30.00,85.11,320.00,9.00,0.00,29.83,1011.00,10.00,M,BKN,M,M,M,12000.00,M,M,M,M,M,M,M,M,M,M,26.00,KALO 190854Z AUTO 32009KT 10SM BKN120 01/M01 A2983 RMK AO2 SLP110 T00111011 58006,M
ALO,2022-03-19 09:54,34.00,28.90,81.37,320.00,7.00,0.00,29.84,1011.20,10.00,M,CLR,M,M,M,M,M,M,M,M,M,M,M,M,M,M,27.22,KALO 190954Z AUTO 32007KT 10SM CLR 01/M02 A2984 RMK AO2 SLP112 T00111017,M
ALO,2022-03-19 10:54,33.10,28.00,81.30,300.00,6.00,0.00,29.86,1011.80,10.00,M,CLR,M,M,M,M,M,M,M,M,M,M,M,M,M,M,26.86,KALO 191054Z 30006KT 10SM CLR 01/M02 A2986 RMK AO2 SLP118 T00061022,M
ALO,2022-03-19 11:54,32.00,27.00,81.55,310.00,8.00,0.00,29.88,1012.50,10.00,M,CLR,M,M,M,M,M,M,M,M,M,M,M,M,M,M,24.11,KALO 191154Z 31008KT 10SM CLR 00/M03 A2988 RMK AO2 SLP125 70064 T00001028 10022 20000 53015,M
ALO,2022-03-19 12:54,30.90,27.00,85.26,310.00,8.00,0.00,29.91,1013.50,10.00,M,CLR,M,M,M,M,M,M,M,M,M,M,M,M,M,M,22.76,KALO 191254Z 31008KT 10SM CLR M01/M03 A2991 RMK AO2 SLP135 T10061028,M
ALO,2022-03-19 13:54,34.00,28.90,81.37,320.00,10.00,0.00,29.92,1014.00,10.00,M,CLR,M,M,M,M,M,M,M,M,M,M,M,M,M,M,25.48,KALO 191354Z 32010KT 10SM CLR 01/M02 A2992 RMK AO2 SLP140 T00111017,M
ALO,2022-03-19 14:54,37.00,30.00,75.56,300.00,13.00,0.00,29.94,1014.60,10.00,M,CLR,M,M,M,M,M,M,M,M,M,M,M,M,M,M,27.97,KALO 191454Z 30013KT 10SM CLR 03/M01 A2994 RMK AO2 SLP146 T00281011 51021,M
ALO,2022-03-19 15:54,39.90,32.00,73.14,300.00,14.00,0.00,29.95,1014.90,10.00,M,CLR,M,M,M,M,M,M,M,M,M,M,M,M,M,M,31.35,KALO 191554Z 30014KT 10SM CLR 04/00 A2995 RMK AO2 SLP149 T00440000,M
ALO,2022-03-19 16:54,43.00,34.00,70.30,300.00,15.00,0.00,29.96,1015.20,10.00,M,CLR,M,M,M,M,M,M,M,M,M,M,M,M,M,M,35.04,KALO 191654Z 30015KT 10SM CLR 06/01 A2996 RMK AO2 SLP152 T00610011,M
ALO,2022-03-19 17:54,46.90,34.00,60.61,300.00,14.00,0.00,29.96,1015.10,10.00,19.00,CLR,M,M,M,M,M,M,M,M,M,M,M,M,M,M,40.37,KALO 191754Z 30014G19KT 10SM CLR 08/01 A2996 RMK AO2 SLP151 T00830011 10083 21006 51006,M
ALO,2022-03-19 18:54,50.00,33.10,52.06,290.00,13.00,0.00,29.96,1014.90,10.00,19.00,CLR,M,M,M,M,M,M,M,M,M,M,M,M,M,M,50.00,KALO 191854Z 29013G19KT 10SM CLR 10/01 A2996 RMK AO2 SLP149 T01000006,M
ALO,2022-03-19 19:54,52.00,32.00,46.25,310.00,10.00,0.00,29.94,1014.40,10.00,M,CLR,M,M,M,M,M,M,M,M,M,M,M,M,M,M,52.00,KALO 191954Z 31010KT 10SM CLR 11/00 A2994 RMK AO2 SLP144 T01110000,M
ALO,2022-03-19 20:54,53.10,32.00,44.42,300.00,12.00,0.00,29.95,1014.60,10.00,M,CLR,M,M,M,M,M,M,M,M,M,M,M,M,M,M,53.10,KALO 192054Z 30012KT 10SM CLR 12/00 A2995 RMK AO2 SLP146 T01170000 55004,M
ALO,2022-03-19 21:54,54.00,30.00,39.63,300.00,10.00,0.00,29.95,1014.80,10.00,M,CLR,M,M,M,M,M,M,M,M,M,M,M,M,M,M,54.00,KALO 192154Z 30010KT 10SM CLR 12/M01 A2995 RMK AO2 SLP148 T01221011,M
ALO,2022-03-19 22:54,55.00,28.00,35.21,300.00,6.00,0.00,29.96,1014.90,10.00,M,CLR,M,M,M,M,M,M,M,M,M,M,M,M,M,M,55.00,KALO 192254Z 30006KT 10SM CLR 13/M02 A2996 RMK AO2 SLP149 T01281022,M
ALO,2022-03-19 23:54,52.00,28.90,40.78,300.00,5.00,0.00,29.97,1015.50,10.00,M,CLR,M,M,M,M,M,M,M,M,M,M,M,M,M,M,52.00,KALO 192354Z 30005KT 10SM CLR 11/M02 A2997 RMK AO2 SLP155 T01111017 10128 20083 53008,M
ALO,2022-03-20 00:54,46.00,30.00,53.37,180.00,4.00,0.00,29.98,1015.80,10.00,M,CLR,M,M,M,M,M,M,M,M,M,M,M,M,M,M,43.77,KALO 200054Z 18004KT 10SM CLR 08/M01 A2998 RMK AO2 SLP158 T00781011,M
ALO,2022-03-20 01:54,43.00,30.90,62.06,190.00,3.00,0.00,29.98,1015.90,10.00,M,CLR,M,M,M,M,M,M,M,M,M,M,M,M,M,M,41.26,KALO 200154Z AUTO 19003KT 10SM CLR 06/M01 A2998 RMK AO2 SLP159 T00611006,M
ALO,2022-03-20 02:54,39.00,30.90,72.45,0.00,0.00,0.00,29.98,1016.00,10.00,M,CLR,M,M,M,M,M,M,M,M,M,M,M,M,M,M,39.00,KALO 200254Z AUTO 00000KT 10SM CLR 04/M01 A2998 RMK AO2 SLP160 T00391006 52004,M
ALO,2022-03-20 03:54,36.00,30.00,78.60,0.00,0.00,0.00,29.99,1016.30,10.00,M,CLR,M,M,M,M,M,M,M,M,M,M,M,M,M,M,36.00,KALO 200354Z AUTO 00000KT 10SM CLR 02/M01 A2999 RMK AO2 SLP163 T00221011,M
ALO,2022-03-20 04:54,34.00,28.90,81.37,0.00,0.00,0.00,30.00,1016.40,10.00,M,CLR,M,M,M,M,M,M,M,M,M,M,M,M,M,M,34.00,KALO 200454Z AUTO 00000KT 10SM CLR 01/M02 A3000 RMK AO2 SLP164 T00111017,M
ALO,2022-03-20 05:54,35.10,30.00,81.46,0.00,0.00,0.00,30.00,1016.30,10.00,M,CLR,M,M,M,M,M,M,M,M,M,M,M,M,M,M,35.10,KALO 200554Z AUTO 00000KT 10SM CLR 02/M01 A3000 RMK AO2 SLP163 T00171011 10111 20006 401281006 51004,M
ALO,2022-03-20 06:54,33.10,28.00,81.30,0.00,0.00,0.00,30.00,1016.50,10.00,M,CLR,M,M,M,M,M,M,M,M,M,M,M,M,M,M,33.10,KALO 200654Z AUTO 00000KT 10SM CLR 01/M02 A3000 RMK AO2 SLP165 T00061022,M
ALO,2022-03-20 07:54,30.90,27.00,85.26,0.00,0.00,0.00,30.00,1016.70,10.00,M,CLR,M,M,M,M,M,M,M,M,M,M,M,M,M,M,30.90,KALO 200754Z AUTO 00000KT 10SM CLR M01/M03 A3000 RMK AO2 SLP167 T10061028,M
ALO,2022-03-20 08:54,30.00,26.10,85.21,0.00,0.00,0.00,30.00,1016.60,9.00,M,CLR,M,M,M,M,M,M,M,M,M,M,M,M,M,M,30.00,KALO 200854Z AUTO 00000KT 9SM CLR M01/M03 A3000 RMK AO2 SLP166 T10111033 50003,M
ALO,2022-03-20 09:54,28.90,25.00,85.14,0.00,0.00,0.00,30.02,1017.20,7.00,M,CLR,M,M,M,M,M,M,M,M,M,M,M,M,M,M,28.90,KALO 200954Z AUTO 00000KT 7SM CLR M02/M04 A3002 RMK AO2 SLP172 T10171039,M
ALO,2022-03-20 10:54,28.90,25.00,85.14,0.00,0.00,0.00,30.04,1017.80,10.00,M,CLR,M,M,M,M,M,M,M,M,M,M,M,M,M,M,28.90,KALO 201054Z 00000KT 10SM CLR M02/M04 A3004 RMK AO2 SLP178 T10171039,M
ALO,2022-03-20 11:54,28.00,24.10,85.08,M,M,0.00,30.06,1018.60,8.00,M,CLR,M,M,M,M,M,M,M,M,M,M,M,M,M,M,M,KALO 201154Z 8SM CLR M02/M04 A3006 RMK AO2 SLP186 T10221044 10022 21022 53018,M
ALO,2022-03-20 12:54,30.00,27.00,88.44,0.00,0.00,0.00,30.08,1019.20,5.00,M,CLR,M,M,M,M,M,M,M,BR,M,M,M,M,M,M,30.00,KALO 201254Z 00000KT 5SM BR CLR M01/M03 A3008 RMK AO2 SLP192 T10111028,M
ALO,2022-03-20 13:54,37.90,34.00,85.69,0.00,0.00,0.00,30.09,1019.50,7.00,M,CLR,M,M,M,M,M,M,M,M,M,M,M,M,M,M,37.90,KALO 201354Z 00000KT 7SM CLR 03/01 A3009 RMK AO2 SLP195 T00330011,M
ALO,2022-03-20 14:54,45.00,37.90,76.01,0.00,0.00,0.00,30.09,1019.50,9.00,M,CLR,M,M,M,M,M,M,M,M,M,M,M,M,M,M,45.00,KALO 201454Z 00000KT 9SM CLR 07/03 A3009 RMK AO2 SLP195 T00720033 51010,M
ALO,2022-03-20 15:54,50.00,39.90,68.10,0.00,0.00,0.00,30.09,1019.60,10.00,M,CLR,M,M,M,M,M,M,M,M,M,M,M,M,M,M,50.00,KALO 201554Z 00000KT 10SM CLR 10/04 A3009 RMK AO2 SLP196 T01000044,M
ALO,2022-03-20 16:54,55.00,37.90,52.40,0.00,0.00,0.00,30.10,1019.70,10.00,M,CLR,M,M,M,M,M,M,M,M,M,M,M,M,M,M,55.00,KALO 201654Z 00000KT 10SM CLR 13/03 A3010 RMK AO2 SLP197 T01280033,M
ALO,2022-03-20 17:54,59.00,36.00,42.08,120.00,4.00,0.00,30.09,1019.30,10.00,M,CLR,M,M,M,M,M,M,M,M,M,M,M,M,M,M,59.00,KALO 201754Z 12004KT 10SM CLR 15/02 A3009 RMK AO2 SLP193 T01500022 10156 21028 58001,M
ALO,2022-03-20 18:54,63.00,35.10,35.24,M,4.00,0.00,30.07,1018.60,10.00,M,CLR,M,M,M,M,M,M,M,M,M,M,M,M,M,M,63.00,KALO 201854Z VRB04KT 10SM CLR 17/02 A3007 RMK AO2 SLP186 T01720017,M
ALO,2022-03-20 19:54,66.00,37.00,34.21,150.00,6.00,0.00,30.05,1017.80,10.00,M,CLR,M,M,M,M,M,M,M,M,M,M,M,M,M,M,66.00,KALO 201954Z 15006KT 10SM CLR 19/03 A3005 RMK AO2 SLP178 T01890028,M
ALO,2022-03-20 20:54,66.00,36.00,32.88,170.00,5.00,0.00,30.04,1017.40,10.00,M,CLR,M,M,M,M,M,M,M,M,M,M,M,M,M,M,66.00,KALO 202054Z 17005KT 10SM CLR 19/02 A3004 RMK AO2 SLP174 T01890022 56017,M
ALO,2022-03-20 21:54,66.90,35.10,30.75,130.00,8.00,0.00,30.02,1016.70,10.00,M,CLR,M,M,M,M,M,M,M,M,M,M,M,M,M,M,66.90,KALO 202154Z 13008KT 10SM CLR 19/02 A3002 RMK AO2 SLP167 T01940017,M
ALO,2022-03-20 22:54,66.00,36.00,32.88,130.00,8.00,0.00,30.00,1016.00,10.00,M,CLR,M,M,M,M,M,M,M,M,M,M,M,M,M,M,66.00,KALO 202254Z 13008KT 10SM CLR 19/02 A3000 RMK AO2 SLP160 T01890022,M
ALO,2022-03-20 23:54,62.10,34.00,34.81,120.00,8.00,0.00,29.98,1015.80,10.00,M,CLR,M,M,M,M,M,M,M,M,M,M,M,M,M,M,62.10,KALO 202354Z 12008KT 10SM CLR 17/01 A2998 RMK AO2 SLP158 T01670011 10194 20150 56017,M
ALO,2022-03-21 00:54,52.00,37.00,56.45,100.00,8.00,0.00,29.99,1016.10,10.00,M,CLR,M,M,M,M,M,M,M,M,M,M,M,M,M,M,52.00,KALO 210054Z AUTO 10008KT 10SM CLR 11/03 A2999 RMK AO2 SLP161 T01110028,M
ALO,2022-03-21 01:54,54.00,37.00,52.45,120.00,8.00,0.00,29.99,1016.00,10.00,M,CLR,M,M,M,M,M,M,M,M,M,M,M,M,M,M,54.00,KALO 210154Z AUTO 12008KT 10SM CLR 12/03 A2999 RMK AO2 SLP160 T01220028,M
ALO,2022-03-21 02:54,55.00,37.00,50.58,120.00,9.00,0.00,29.99,1015.70,10.00,M,CLR,M,M,M,M,M,M,M,M,M,M,M,M,M,M,55.00,KALO 210254Z AUTO 12009KT 10SM CLR 13/03 A2999 RMK AO2 SLP157 T01280028 50001,M
ALO,2022-03-21 03:54,54.00,37.00,52.45,130.00,9.00,0.00,29.98,1015.30,10.00,M,CLR,M,M,M,M,M,M,M,M,M,M,M,M,M,M,54.00,KALO 210354Z AUTO 13009KT 10SM CLR 12/03 A2998 RMK AO2 SLP153 T01220028,M
ALO,2022-03-21 04:54,55.90,35.10,45.40,150.00,12.00,0.00,29.96,1014.80,10.00,M,CLR,M,M,M,M,M,M,M,M,M,M,M,M,M,M,55.90,KALO 210454Z AUTO 15012KT 10SM CLR 13/02 A2996 RMK AO2 SLP148 T01330017,M
ALO,2022-03-21 05:54,55.00,35.10,46.91,150.00,11.00,0.00,29.95,1014.20,10.00,M,CLR,M,M,M,M,M,M,M,M,M,M,M,M,M,M,55.00,KALO 210554Z AUTO 15011KT 10SM CLR 13/02 A2995 RMK AO2 SLP142 T01280017 10167 20100 401941028 58012,M
ALO,2022-03-21 06:54,55.00,35.10,46.91,150.00,12.00,0.00,29.94,1013.80,10.00,M,CLR,M,M,M,M,M,M,M,M,M,M,M,M,M,M,55.00,KALO 210654Z AUTO 15012KT 10SM CLR 13/02 A2994 RMK AO2 SLP138 T01280017,M
ALO,2022-03-21 07:54,53.10,35.10,50.28,150.00,10.00,0.00,29.94,1013.60,10.00,M,CLR,M,M,M,M,M,M,M,M,M,M,M,M,M,M,53.10,KALO 210754Z AUTO 15010KT 10SM CLR 12/02 A2994 RMK AO2 SLP136 T01170017,M
ALO,2022-03-21 08:54,52.00,35.10,52.36,150.00,10.00,0.00,29.92,1013.20,10.00,M,CLR,M,M,M,M,M,M,M,M,M,M,M,M,M,M,52.00,KALO 210854Z AUTO 15010KT 10SM CLR 11/02 A2992 RMK AO2 SLP132 T01110017 58009,M
ALO,2022-03-21 09:54,52.00,35.10,52.36,160.00,8.00,0.00,29.93,1013.40,10.00,M,CLR,M,M,M,M,M,M,M,M,M,M,M,M,M,M,52.00,KALO 210954Z AUTO 16008KT 10SM CLR 11/02 A2993 RMK AO2 SLP134 T01110017,M
ALO,2022-03-21 10:54,52.00,35.10,52.36,160.00,8.00,0.00,29.93,1013.50,10.00,M,CLR,M,M,M,M,M,M,M,M,M,M,M,M,M,M,52.00,KALO 211054Z 16008KT 10SM CLR 11/02 A2993 RMK AO2 SLP135 T01110017,M
ALO,2022-03-21 11:54,52.00,35.10,52.36,170.00,13.00,0.00,29.93,1013.40,10.00,M,CLR,M,M,M,M,M,M,M,M,M,M,M,M,M,M,52.00,KALO 211154Z 17013KT 10SM CLR 11/02 A2993 RMK AO2 SLP134 T01110017 10128 20106 50001,M
ALO,2022-03-21 12:54,52.00,36.00,54.26,180.00,9.00,0.00,29.94,1014.20,10.00,M,CLR,M,M,M,M,M,M,M,M,M,M,M,M,M,M,52.00,KALO 211254Z 18009KT 10SM CLR 11/02 A2994 RMK AO2 SLP142 T01110022,M
ALO,2022-03-21 13:54,55.00,37.00,50.58,190.00,10.00,0.00,29.95,1014.20,10.00,M,CLR,M,M,M,M,M,M,M,M,M,M,M,M,M,M,55.00,KALO 211354Z 19010KT 10SM CLR 13/03 A2995 RMK AO2 SLP142 T01280028,M
ALO,2022-03-21 14:54,61.00,37.00,40.77,190.00,16.00,0.00,29.94,1013.80,10.00,23.00,CLR,M,M,M,M,M,M,M,M,M,M,M,M,M,M,61.00,KALO 211454Z 19016G23KT 10SM CLR 16/03 A2994 RMK AO2 SLP138 T01610028 50003,M
ALO,2022-03-21 15:54,64.90,37.90,36.82,M,M,0.00,29.93,1013.50,10.00,M,CLR,M,M,M,M,M,M,M,M,M,M,M,M,M,M,64.90,KALO 211554Z 10SM CLR 18/03 A2993 RMK AO2 SLP135 T01830033,M
ALO,2022-03-21 16:54,70.00,37.90,30.88,220.00,17.00,0.00,29.93,1013.30,10.00,25.00,CLR,M,M,M,M,M,M,M,M,M,M,M,29.00,210.00,2022-03-21 16:27,70.00,KALO 211654Z 22017G25KT 10SM CLR 21/03 A2993 RMK AO2 PK WND 21029/1627 SLP133 T02110033,M
ALO,2022-03-21 17:54,72.00,36.00,26.77,220.00,18.00,0.00,29.91,1012.50,10.00,29.00,CLR,M,M,M,M,M,M,M,M,M,M,M,34.00,230.00,2022-03-21 17:18,72.00,KALO 211754Z 22018G29KT 10SM CLR 22/02 A2991 RMK AO2 PK WND 23034/1718 SLP125 T02220022 10222 20106 58010,M
ALO,2022-03-21 18:54,70.00,35.10,27.65,M,M,0.00,29.89,1011.90,10.00,M,CLR,M,M,M,M,M,M,M,M,M,M,M,33.00,210.00,2022-03-21 17:59,70.00,KALO 211854Z 10SM CLR 21/02 A2989 RMK AO2 PK WND 21033/1759 SLP119 T02110017,M
ALO,2022-03-21 19:54,72.00,36.00,26.77,200.00,16.00,0.00,29.87,1011.10,10.00,23.00,CLR,M,M,M,M,M,M,M,M,M,M,M,M,M,M,72.00,KALO 211954Z 20016G23KT 10SM CLR 22/02 A2987 RMK AO2 SLP111 T02220022,M
ALO,2022-03-21 20:54,73.00,34.00,23.90,190.00,15.00,0.00,29.85,1010.50,10.00,25.00,CLR,M,M,M,M,M,M,M,M,M,M,M,28.00,200.00,2022-03-21 20:15,73.00,KALO 212054Z 19015G25KT 10SM CLR 23/01 A2985 RMK AO2 PK WND 20028/2015 SLP105 T02280011 57020,M
ALO,2022-03-21 21:54,72.00,30.90,21.82,210.00,14.00,0.00,29.84,1010.40,10.00,M,CLR,M,M,M,M,M,M,M,M,M,M,M,26.00,190.00,2022-03-21 21:28,72.00,KALO 212154Z 21014KT 10SM CLR 22/M01 A2984 RMK AO2 PK WND 19026/2128 SLP104 T02221006,M
ALO,2022-03-21 22:54,70.00,33.10,25.53,M,M,0.00,29.86,1010.90,10.00,M,CLR,M,M,M,M,M,M,M,M,M,M,M,M,M,M,70.00,KALO 212254Z 10SM CLR 21/01 A2986 RMK AO2 SLP109 T02110006,M
ALO,2022-03-21 23:54,64.00,37.00,36.68,M,M,0.00,29.85,1010.80,10.00,M,CLR,M,M,M,M,M,M,M,M,M,M,M,M,M,M,64.00,KALO 212354Z 10SM CLR 18/03 A2985 RMK AO2 SLP108 T01780028 10239 20178 50001,M
ALO,2022-03-22 00:54,62.10,37.00,39.21,170.00,4.00,0.00,29.86,1011.10,10.00,M,CLR,M,M,M,M,M,M,M,M,M,M,M,M,M,M,62.10,KALO 220054Z AUTO 17004KT 10SM CLR 17/03 A2986 RMK AO2 SLP111 T01670028,M
ALO,2022-03-22 01:54,59.00,39.00,47.35,180.00,6.00,0.00,29.87,1011.60,10.00,M,CLR,M,M,M,M,M,M,M,M,M,M,M,M,M,M,59.00,KALO 220154Z AUTO 18006KT 10SM CLR 15/04 A2987 RMK AO2 SLP116 T01500039,M
ALO,2022-03-22 02:54,57.00,37.90,48.73,260.00,5.00,0.00,29.89,1012.00,10.00,M,CLR,M,M,M,M,M,M,M,M,M,M,M,M,M,M,57.00,KALO 220254Z AUTO 26005KT 10SM CLR 14/03 A2989 RMK AO2 SLP120 T01390033 53013,M
ALO,2022-03-22 03:54,55.90,39.00,52.94,310.00,5.00,0.00,29.87,1011.50,10.00,M,BKN,M,M,M,11000.00,M,M,M,M,M,M,M,M,M,M,55.90,KALO 220354Z AUTO 31005KT 10SM BKN110 13/04 A2987 RMK AO2 SLP115 T01330039,M
ALO,2022-03-22 04:54,51.10,39.00,63.12,0.00,0.00,0.00,29.85,1010.70,10.00,M,CLR,M,M,M,M,M,M,M,M,M,M,M,M,M,M,51.10,KALO 220454Z AUTO 00000KT 10SM CLR 11/04 A2985 RMK AO2 SLP107 T01060039,M
ALO,2022-03-22 05:54,48.90,39.90,70.95,110.00,8.00,0.00,29.86,1011.10,10.00,M,CLR,M,M,M,M,M,M,M,M,M,M,M,M,M,M,44.93,KALO 220554Z AUTO 11008KT 10SM CLR 09/04 A2986 RMK AO2 SLP111 T00940044 10178 20083 402390083 55008,M
ALO,2022-03-22 06:54,53.10,39.90,60.73,200.00,11.00,0.00,29.88,1011.70,10.00,M,BKN,OVC,M,M,7000.00,9000.00,M,M,M,M,M,M,M,M,M,53.10,KALO 220654Z AUTO 20011KT 10SM BKN070 OVC090 12/04 A2988 RMK AO2 SLP117 T01170044,M
ALO,2022-03-22 07:54,50.00,44.10,80.06,190.00,11.00,0.00,29.88,1011.70,10.00,M,OVC,M,M,M,7000.00,M,M,M,M,M,M,M,M,M,M,50.00,KALO 220754Z AUTO 19011KT 10SM OVC070 10/07 A2988 RMK AO2 SLP117 T01000067,M
ALO,2022-03-22 08:54,50.00,46.00,86.06,190.00,7.00,0.01,29.87,1011.30,9.00,M,BKN,OVC,M,M,4700.00,6000.00,M,M,-RA,M,M,M,M,M,M,50.00,KALO 220854Z AUTO 19007KT 9SM -RA BKN047 OVC060 10/08 A2987 RMK AO2 RAB34 SLP113 P0001 60001 T01000078 50003,M
ALO,2022-03-22 09:54,48.90,45.00,86.33,80.00,4.00,0.03,29.84,1010.30,9.00,M,FEW,BKN,OVC,M,4500.00,6000.00,7500.00,M,-RA,M,M,M,M,M,M,47.16,KALO 220954Z AUTO 08004KT 9SM -RA FEW045 BKN060 OVC075 09/07 A2984 RMK AO2 SLP103 P0003 T00940072,M
ALO,2022-03-22 10:54,48.00,44.10,86.28,60.00,10.00,0.01,29.76,1007.50,10.00,M,FEW,SCT,OVC,M,2500.00,7500.00,11000.00,M,M,M,M,M,M,M,M,43.03,KALO 221054Z 06010KT 10SM FEW025 SCT075 OVC110 09/07 A2976 RMK AO2 RAE30 SLP075 P0001 T00890067,M
ALO,2022-03-22 11:54,48.00,45.00,89.29,80.00,6.00,0.02,29.76,1007.90,6.00,M,BKN,OVC,M,M,3600.00,4500.00,M,M,-RA BR,M,M,M,M,M,M,44.80,KALO 221154Z 08006KT 6SM -RA BR BKN036 OVC045 09/07 A2976 RMK AO2 RAB30 SLP079 P0002 60007 70007 T00890072 10117 20083 55036,M
ALO,2022-03-22 12:31,48.00,45.00,89.29,80.00,9.00,T,29.76,M,7.00,M,BKN,BKN,OVC,M,1500.00,4600.00,6000.00,M,-RA,M,M,M,M,M,M,43.41,KALO 221231Z 08009KT 7SM -RA BKN015 BKN046 OVC060 09/07 A2976 RMK AO2 P0000 T00890072,M
ALO,2022-03-22 12:38,48.00,45.00,89.29,80.00,9.00,T,29.75,M,7.00,M,BKN,OVC,M,M,1300.00,4600.00,M,M,M,M,M,M,M,M,M,43.41,KALO 221238Z 08009KT 7SM BKN013 OVC046 09/07 A2975 RMK AO2 RAE38 P0000 T00890072,M
ALO,2022-03-22 12:54,48.00,45.00,89.29,90.00,11.00,0.01,29.75,1007.60,5.00,M,OVC,M,M,M,1000.00,M,M,M,-RA BR,M,M,M,M,M,M,42.69,KALO 221254Z 09011KT 5SM -RA BR OVC010 09/07 A2975 RMK AO2 RAE38B49 CIG 006V015 SLP076 P0001 T00890072,M
ALO,2022-03-22 13:01,48.90,45.00,86.33,100.00,10.00,T,29.75,M,5.00,M,BKN,OVC,M,M,800.00,1200.00,M,M,-RA BR,M,M,M,M,M,M,44.16,KALO 221301Z 10010KT 5SM -RA BR BKN008 OVC012 09/07 A2975 RMK AO2 CIG 006V010 P0000 T00940072,M
ALO,2022-03-22 13:54,48.90,46.00,89.67,110.00,11.00,0.02,29.75,1007.50,3.00,22.00,BKN,OVC,M,M,900.00,1400.00,M,M,-RA BR,M,M,M,M,M,M,43.82,KALO 221354Z 11011G22KT 3SM -RA BR BKN009 OVC014 09/08 A2975 RMK AO2 RAE08B30 SLP075 P0002 T00940078,M
ALO,2022-03-22 14:54,50.00,46.00,86.06,100.00,14.00,0.02,29.69,1005.50,6.00,23.00,OVC,M,M,M,700.00,M,M,M,BR,M,M,M,M,M,M,50.00,KALO 221454Z 10014G23KT 6SM BR OVC007 10/08 A2969 RMK AO2 RAE22B44E53 CIG 006V010 SLP055 P0002 60005 T01000078 58023,M
ALO,2022-03-22 15:54,50.00,46.00,86.06,110.00,10.00,0.01,29.68,1005.10,7.00,M,OVC,M,M,M,800.00,M,M,M,M,M,M,M,M,M,M,50.00,KALO 221554Z 11010KT 7SM OVC008 10/08 A2968 RMK AO2 RAB07E38 CIG 006V010 SLP051 P0001 T01000078,M
ALO,2022-03-22 16:10,50.00,46.00,86.06,120.00,13.00,0.00,29.68,M,1.75,M,OVC,M,M,M,800.00,M,M,M,BR,M,M,M,M,M,M,50.00,KALO 221610Z 12013KT 1 3/4SM BR OVC008 10/08 A2968 RMK AO2 CIG 006V010 T01000078,M
ALO,2022-03-22 16:46,50.00,46.90,89.04,120.00,13.00,0.02,29.67,M,2.50,M,OVC,M,M,M,700.00,M,M,M,-RA BR,M,M,M,M,M,M,50.00,KALO 221646Z 12013KT 2 1/2SM -RA BR OVC007 10/08 A2967 RMK AO2 RAB19 CIG 005V011 P0002 T01000083,M
ALO,2022-03-22 16:54,50.00,46.90,89.04,120.00,12.00,0.03,29.67,1004.70,2.00,M,OVC,M,M,M,700.00,M,M,M,BR,M,M,M,M,M,M,50.00,KALO 221654Z 12012KT 2SM BR OVC007 10/08 A2967 RMK AO2 RAB19E48 CIG 005V011 SLP047 P0003 T01000083,M
ALO,2022-03-22 17:25,50.00,46.90,89.04,120.00,11.00,T,29.66,M,1.50,M,OVC,M,M,M,600.00,M,M,M,BR,M,M,M,M,M,M,50.00,KALO 221725Z 12011KT 1 1/2SM BR OVC006 10/08 A2966 RMK AO2 RAB1656E10 CIG 005V009 P0000 T01000083,M
ALO,2022-03-22 17:54,50.00,46.90,89.04,110.00,8.00,0.01,29.65,1004.40,1.00,M,OVC,M,M,M,600.00,M,M,M,BR,M,M,M,M,M,M,50.00,KALO 221754Z 11008KT 1SM R12/5000V5500FT BR OVC006 10/08 A2965 RMK AO2 RAB1656E10 CIG 004V010 SLP044 P0001 60010 T01000083 10100 20089 56013,M
ALO,2022-03-22 18:54,50.00,48.00,92.80,110.00,10.00,0.01,29.63,1003.60,1.25,M,OVC,M,M,M,500.00,M,M,M,BR,M,M,M,M,M,M,50.00,KALO 221854Z 11010KT 1 1/4SM R12/5500V6000FT BR OVC005 10/09 A2963 RMK AO2 CIG 004V009 SLP036 P0001 T01000089,M
ALO,2022-03-22 19:54,51.10,48.00,89.09,100.00,9.00,0.00,29.60,1002.50,1.00,M,OVC,M,M,M,500.00,M,M,M,BR,M,M,M,M,M,M,51.10,KALO 221954Z 10009KT 1SM R12/5000V6000FT BR OVC005 11/09 A2960 RMK AO2 SLP025 T01060089,M
ALO,2022-03-22 20:30,52.00,48.90,89.13,110.00,10.00,0.00,29.60,M,2.50,M,OVC,M,M,M,500.00,M,M,M,BR,M,M,M,M,M,M,52.00,KALO 222030Z 11010KT 2 1/2SM BR OVC005 11/09 A2960 RMK AO2 CIG 003V009 T01110094,M
ALO,2022-03-22 20:54,52.00,48.90,89.13,110.00,8.00,0.00,29.59,1002.20,3.00,M,OVC,M,M,M,500.00,M,M,M,BR,M,M,M,M,M,M,52.00,KALO 222054Z 11008KT 3SM BR OVC005 11/09 A2959 RMK AO2 CIG 004V009 SLP022 60001 T01110094 55014,M
ALO,2022-03-22 21:51,51.80,48.20,87.47,120.00,9.00,0.00,29.59,M,2.50,M,OVC,M,M,M,500.00,M,M,M,BR,M,M,M,M,M,M,51.80,KALO 222151Z 12009KT 2 1/2SM BR OVC005 11/09 A2959 RMK AO2,M
ALO,2022-03-22 21:54,52.00,48.90,89.13,130.00,9.00,0.00,29.59,1002.20,2.50,M,OVC,M,M,M,500.00,M,M,M,BR,M,M,M,M,M,M,52.00,KALO 222154Z 13009KT 2 1/2SM BR OVC005 11/09 A2959 RMK AO2 SLP022 T01110094,M
ALO,2022-03-22 22:13,52.00,48.90,89.13,120.00,7.00,T,29.59,M,1.50,M,OVC,M,M,M,500.00,M,M,M,-RA BR,M,M,M,M,M,M,52.00,KALO 222213Z 12007KT 1 1/2SM R12/6000VP6000FT -RA BR OVC005 11/09 A2959 RMK AO2 RAB11 P0000 T01110094,M
ALO,2022-03-22 22:54,52.00,48.90,89.13,120.00,4.00,0.02,29.59,1002.30,1.00,M,OVC,M,M,M,400.00,M,M,M,-RA BR,M,M,M,M,M,M,52.00,KALO 222254Z 12004KT 1SM R12/5000V6000FT -RA BR OVC004 11/09 A2959 RMK AO2 RAB11E33B52 CIG 003V007 SLP023 P0002 T01110094,M
ALO,2022-03-22 23:15,52.00,48.90,89.13,0.00,0.00,0.02,29.60,M,1.75,M,OVC,M,M,M,500.00,M,M,M,-RA BR,M,M,M,M,M,M,52.00,KALO 222315Z 00000KT 1 3/4SM -RA BR OVC005 11/09 A2960 RMK AO2 CIG 003V008 P0002 T01110094,M
ALO,2022-03-22 23:25,52.00,48.90,89.13,0.00,0.00,0.03,29.60,M,2.00,M,OVC,M,M,M,500.00,M,M,M,-RA BR,M,M,M,M,M,M,52.00,KALO 222325Z 00000KT 2SM -RA BR OVC005 11/09 A2960 RMK AO2 P0003 T01110094,M
ALO,2022-03-22 23:38,52.00,48.90,89.13,70.00,3.00,0.04,29.60,M,1.75,M,OVC,M,M,M,500.00,M,M,M,-RA BR,M,M,M,M,M,M,52.00,KALO 222338Z 07003KT 1 3/4SM -RA BR OVC005 11/09 A2960 RMK AO2 P0004 T01110094,M
ALO,2022-03-22 23:54,51.10,48.90,92.14,70.00,4.00,0.07,29.59,1002.30,1.75,M,OVC,M,M,M,500.00,M,M,M,-RA BR,M,M,M,M,M,M,51.10,KALO 222354Z 07004KT 1 3/4SM -RA BR OVC005 11/09 A2959 RMK AO2 SLP023 P0007 60010 T01060094 10111 20100 56001,M
ALO,2022-03-23 00:27,51.10,48.00,89.09,40.00,3.00,T,29.59,M,2.50,M,BKN,OVC,M,M,600.00,1100.00,M,M,BR,M,M,M,M,M,M,51.10,KALO 230027Z 04003KT 2 1/2SM BR BKN006 OVC011 11/09 A2959 RMK AO2 RAE16 P0000 T01060089,M
ALO,2022-03-23 00:40,50.00,48.00,92.80,30.00,4.00,T,29.58,M,1.75,M,BKN,OVC,M,M,600.00,1100.00,M,M,BR,M,M,M,M,M,M,50.00,KALO 230040Z 03004KT 1 3/4SM BR BKN006 OVC011 10/09 A2958 RMK AO2 RAE16 P0000 T01000089,M
ALO,2022-03-23 00:52,50.00,48.20,93.50,30.00,6.00,T,29.58,M,2.00,M,BKN,OVC,M,M,500.00,1200.00,M,M,BR,M,M,M,M,M,M,50.00,KALO 230052Z 03006KT 2SM BR BKN005 OVC012 10/09 A2958 RMK AO2 RAE16 P0000,M
ALO,2022-03-23 00:54,50.00,48.00,92.80,30.00,6.00,T,29.58,1001.80,2.00,M,BKN,OVC,M,M,500.00,1200.00,M,M,BR,M,M,M,M,M,M,50.00,KALO 230054Z 03006KT 2SM BR BKN005 OVC012 10/09 A2958 RMK AO2 RAE16 CIG 004V008 SLP018 P0000 T01000089,M
ALO,2022-03-23 01:33,50.00,46.90,89.04,50.00,7.00,0.00,29.57,M,3.00,M,OVC,M,M,M,500.00,M,M,M,BR,M,M,M,M,M,M,50.00,KALO 230133Z AUTO 05007KT 3SM BR OVC005 10/08 A2957 RMK AO2 CIG 004V009 T01000083,M
ALO,2022-03-23 01:54,50.00,46.90,89.04,60.00,8.00,0.00,29.57,1001.50,4.00,M,OVC,M,M,M,1100.00,M,M,M,BR,M,M,M,M,M,M,50.00,KALO 230154Z AUTO 06008KT 4SM BR OVC011 10/08 A2957 RMK AO2 CIG 005V013 SLP015 T01000083,M
ALO,2022-03-23 02:02,50.00,46.90,89.04,50.00,6.00,0.00,29.57,M,4.00,M,SCT,OVC,M,M,800.00,1300.00,M,M,BR,M,M,M,M,M,M,50.00,KALO 230202Z AUTO 05006KT 4SM BR SCT008 OVC013 10/08 A2957 RMK AO2 T01000083,M
ALO,2022-03-23 02:51,48.20,46.40,93.45,10.00,4.00,0.01,29.57,M,5.00,M,BKN,OVC,M,M,400.00,1400.00,M,M,BR,M,M,M,M,M,M,46.34,KALO 230251Z AUTO 01004KT 5SM BR BKN004 OVC014 09/08 A2957 RMK AO2 RAB20E36 P0001,M
ALO,2022-03-23 02:54,48.90,46.90,92.77,10.00,5.00,0.01,29.57,1001.60,6.00,M,BKN,OVC,M,M,400.00,1400.00,M,M,BR,M,M,M,M,M,M,46.47,KALO 230254Z AUTO 01005KT 6SM BR BKN004 OVC014 09/08 A2957 RMK AO2 RAB20E36 SLP016 P0001 60001 T00940083 55002,M
ALO,2022-03-23 03:54,48.90,46.00,89.67,320.00,6.00,0.00,29.56,1001.20,5.00,M,OVC,M,M,M,400.00,M,M,M,BR,M,M,M,M,M,M,45.88,KALO 230354Z AUTO 32006KT 5SM BR OVC004 09/08 A2956 RMK AO2 SLP012 T00940078,M
ALO,2022-03-23 04:49,48.20,44.60,87.28,350.00,11.00,0.03,29.53,M,4.00,M,OVC,M,M,M,500.00,M,M,M,-RA BR,M,M,M,M,M,M,42.94,KALO 230449Z AUTO 35011KT 4SM -RA BR OVC005 09/07 A2953 RMK AO2 RAB20 P0003,M
ALO,2022-03-23 04:54,48.00,45.00,89.29,340.00,10.00,0.03,29.53,1000.20,5.00,M,OVC,M,M,M,500.00,M,M,M,-RA BR,M,M,M,M,M,M,43.03,KALO 230454Z AUTO 34010KT 5SM -RA BR OVC005 09/07 A2953 RMK AO2 RAB20 SLP002 P0003 T00890072,M
ALO,2022-03-23 05:37,46.90,45.00,93.06,320.00,9.00,0.02,29.52,M,6.00,M,OVC,M,M,M,400.00,M,M,M,BR,M,M,M,M,M,M,42.04,KALO 230537Z AUTO 32009KT 6SM BR OVC004 08/07 A2952 RMK AO2 RAE22 P0002 T00830072,M
ALO,2022-03-23 05:54,46.00,44.10,93.03,320.00,11.00,0.02,29.53,1000.00,6.00,M,OVC,M,M,M,400.00,M,M,M,BR,M,M,M,M,M,M,40.16,KALO 230554Z AUTO 32011KT 6SM BR OVC004 08/07 A2953 RMK AO2 RAE22 SLP000 P0002 60006 T00780067 10106 20078 401170078 56011,M
ALO,2022-03-23 06:44,45.00,42.10,89.49,320.00,12.00,T,29.50,M,9.00,M,OVC,M,M,M,500.00,M,M,M,M,M,M,M,M,M,M,38.55,KALO 230644Z AUTO 32012KT 9SM OVC005 07/06 A2950 RMK AO2 RAB05E20 P0000 T00720056,M
ALO,2022-03-23 06:54,45.00,42.10,89.49,320.00,12.00,T,29.51,999.50,8.00,M,OVC,M,M,M,500.00,M,M,M,M,M,M,M,M,M,M,38.55,KALO 230654Z AUTO 32012KT 8SM OVC005 07/06 A2951 RMK AO2 RAB05E20 SLP995 P0000 T00720056,M
ALO,2022-03-23 07:54,43.00,39.90,88.71,330.00,14.00,T,29.49,999.00,9.00,19.00,OVC,M,M,M,500.00,M,M,M,-RA,M,M,M,M,M,M,35.34,KALO 230754Z AUTO 33014G19KT 9SM -RA OVC005 06/04 A2949 RMK AO2 RAB50 SLP990 P0000 T00610044,M
ALO,2022-03-23 08:54,42.10,39.00,88.67,330.00,15.00,0.05,29.47,998.30,10.00,24.00,OVC,M,M,M,700.00,M,M,M,-RA,M,M,M,M,M,M,33.87,KALO 230854Z AUTO 33015G24KT 10SM -RA OVC007 06/04 A2947 RMK AO2 SLP983 P0005 60005 T00560039 58018,M
ALO,2022-03-23 09:54,41.00,37.00,85.54,320.00,13.00,T,29.47,998.20,10.00,M,OVC,M,M,M,700.00,M,M,M,M,M,M,M,M,M,M,33.10,KALO 230954Z AUTO 32013KT 10SM OVC007 05/03 A2947 RMK AO2 RAE0858 SLP982 P0000 T00500028,M
ALO,2022-03-23 10:54,39.90,36.00,85.81,340.00,15.00,0.00,29.48,998.40,10.00,21.00,OVC,M,M,M,700.00,M,M,M,M,M,M,M,M,M,M,31.02,KALO 231054Z 34015G21KT 10SM OVC007 04/02 A2948 RMK AO2 SLP984 T00440022,M
ALO,2022-03-23 11:54,39.00,36.00,88.87,340.00,12.00,0.00,29.49,998.80,10.00,20.00,OVC,M,M,M,700.00,M,M,M,M,M,M,M,M,M,M,30.91,KALO 231154Z 34012G20KT 10SM OVC007 04/02 A2949 RMK AO2 SLP988 60005 70031 T00390022 10078 20039 53004,M
ALO,2022-03-23 12:54,39.00,36.00,88.87,330.00,15.00,0.00,29.51,999.50,10.00,M,OVC,M,M,M,700.00,M,M,M,M,M,M,M,M,M,M,29.85,KALO 231254Z 33015KT 10SM OVC007 04/02 A2951 RMK AO2 SLP995 T00390022,M
ALO,2022-03-23 13:54,39.00,36.00,88.87,340.00,14.00,0.01,29.51,999.50,7.00,M,OVC,M,M,M,700.00,M,M,M,-RA,M,M,M,M,M,M,30.19,KALO 231354Z 34014KT 7SM -RA OVC007 04/02 A2951 RMK AO2 RAB1256 SLP995 P0001 T00390022,M
ALO,2022-03-23 14:54,39.90,37.00,89.27,340.00,14.00,0.02,29.52,1000.00,4.00,M,BKN,OVC,M,M,700.00,1100.00,M,M,-RA BR,M,M,M,M,M,M,31.35,KALO 231454Z 34014KT 4SM -RA BR BKN007 OVC011 04/03 A2952 RMK AO2 RAE03B26 SLP000 P0002 60003 T00440028 51011,M
ALO,2022-03-23 15:54,41.00,37.90,88.62,350.00,17.00,0.05,29.52,1000.20,9.00,M,BKN,OVC,M,M,800.00,1400.00,M,M,-RA,M,M,M,M,M,M,31.87,KALO 231554Z 35017KT 9SM -RA BKN008 OVC014 05/03 A2952 RMK AO2 SLP002 P0005 T00500033,M
ALO,2022-03-23 16:54,42.10,37.90,84.93,340.00,14.00,0.01,29.53,1000.40,9.00,21.00,OVC,M,M,M,900.00,M,M,M,-RA,M,M,M,M,M,M,34.18,KALO 231654Z 34014G21KT 9SM -RA OVC009 06/03 A2953 RMK AO2 SLP004 P0001 T00560033,M
ALO,2022-03-23 17:35,42.10,37.00,81.98,350.00,18.00,0.01,29.53,M,10.00,M,OVC,M,M,M,1000.00,M,M,M,M,M,M,M,M,M,M,33.04,KALO 231735Z 35018KT 10SM OVC010 06/03 A2953 RMK AO2 RAE22 P0001 T00560028,M
ALO,2022-03-23 17:54,41.00,37.00,85.54,360.00,19.00,0.01,29.54,1000.70,10.00,25.00,OVC,M,M,M,1100.00,M,M,M,M,M,M,M,M,M,M,31.34,KALO 231754Z 36019G25KT 10SM OVC011 05/03 A2954 RMK AO2 RAE22 SLP007 P0001 60010 T00500028 10056 20039 53007,M
ALO,2022-03-23 18:54,41.00,37.00,85.54,340.00,15.00,0.00,29.54,1000.70,10.00,M,OVC,M,M,M,1200.00,M,M,M,M,M,M,M,M,M,M,32.45,KALO 231854Z 34015KT 10SM OVC012 05/03 A2954 RMK AO2 SLP007 T00500028,M
ALO,2022-03-23 19:54,42.10,37.00,81.98,350.00,16.00,T,29.54,1000.70,10.00,M,OVC,M,M,M,1500.00,M,M,M,M,M,M,M,28.00,340.00,2022-03-23 19:21,33.58,KALO 231954Z 35016KT 10SM OVC015 06/03 A2954 RMK AO2 PK WND 34028/1921 RAB1859E09 SLP007 P0000 T00560028,M
ALO,2022-03-23 20:54,41.00,37.00,85.54,340.00,14.00,0.00,29.55,1001.30,10.00,M,OVC,M,M,M,1500.00,M,M,M,M,M,M,M,M,M,M,32.76,KALO 232054Z 34014KT 10SM OVC015 05/03 A2955 RMK AO2 SLP013 60000 T00500028 53005,M
ALO,2022-03-23 21:54,41.00,36.00,82.22,340.00,15.00,0.00,29.57,1001.90,10.00,M,OVC,M,M,M,1600.00,M,M,M,M,M,M,M,26.00,350.00,2022-03-23 20:58,32.45,KALO 232154Z 34015KT 10SM OVC016 05/02 A2957 RMK AO2 PK WND 35026/2058 SLP019 T00500022,M
ALO,2022-03-23 22:54,39.90,35.10,82.80,340.00,16.00,T,29.60,1002.90,6.00,25.00,BKN,OVC,M,M,1700.00,2100.00,M,M,-RA,M,M,M,M,M,M,30.72,KALO 232254Z 34016G25KT 6SM -RA BKN017 OVC021 04/02 A2960 RMK AO2 RAB22 SLP029 P0000 T00440017,M
ALO,2022-03-23 23:19,39.00,35.10,85.76,330.00,12.00,0.01,29.61,M,8.00,M,BKN,BKN,OVC,M,1200.00,1900.00,2300.00,M,M,M,M,M,M,M,M,30.91,KALO 232319Z 33012KT 8SM BKN012 BKN019 OVC023 04/02 A2961 RMK AO2 RAE11 P0001 T00390017,M
ALO,2022-03-23 23:44,39.00,35.10,85.76,340.00,15.00,0.01,29.61,M,10.00,23.00,SCT,OVC,M,M,1500.00,2400.00,M,M,M,M,M,M,26.00,340.00,2022-03-23 23:30,29.85,KALO 232344Z 34015G23KT 10SM SCT015 OVC024 04/02 A2961 RMK AO2 PK WND 34026/2330 RAE11 P0001 T00390017,M
ALO,2022-03-23 23:54,39.00,34.00,82.08,340.00,16.00,0.01,29.62,1003.50,10.00,26.00,BKN,OVC,M,M,1900.00,2400.00,M,M,M,M,M,M,26.00,340.00,2022-03-23 23:51,29.54,KALO 232354Z 34016G26KT 10SM BKN019 OVC024 04/01 A2962 RMK AO2 PK WND 34026/2351 RAE11 SLP035 P0001 60001 T00390011 10056 20039 53021,M
ALO,2022-03-24 00:54,37.00,33.10,85.64,330.00,12.00,0.00,29.64,1004.40,10.00,M,FEW,BKN,OVC,M,1000.00,1600.00,2100.00,M,M,M,M,M,M,M,M,28.37,KALO 240054Z AUTO 33012KT 10SM FEW010 BKN016 OVC021 03/01 A2964 RMK AO2 SLP044 T00280006,M
ALO,2022-03-24 01:23,37.00,33.10,85.64,330.00,14.00,0.00,29.65,M,10.00,M,BKN,OVC,M,M,1300.00,1800.00,M,M,M,M,M,M,M,M,M,27.61,KALO 240123Z AUTO 33014KT 10SM BKN013 OVC018 03/01 A2965 RMK AO2 T00280006,M
ALO,2022-03-24 01:54,36.00,32.00,85.23,320.00,13.00,T,29.65,1004.80,10.00,M,OVC,M,M,M,1100.00,M,M,M,UP,M,M,M,M,M,M,26.69,KALO 240154Z AUTO 32013KT 10SM UP OVC011 02/00 A2965 RMK AO2 UPB32 SLP048 P0000 T00220000,M
ALO,2022-03-24 02:06,36.00,32.00,85.23,330.00,13.00,T,29.66,M,10.00,M,BKN,OVC,M,M,900.00,1300.00,M,M,UP,M,M,M,M,M,M,26.69,KALO 240206Z AUTO 33013KT 10SM UP BKN009 OVC013 02/00 A2966 RMK AO2 P0000 T00220000,M
ALO,2022-03-24 02:54,35.10,30.90,84.49,320.00,14.00,0.01,29.66,1004.90,6.00,M,OVC,M,M,M,1000.00,M,M,M,-SN BR,M,M,M,M,M,M,25.16,KALO 240254Z AUTO 32014KT 6SM -SN BR OVC010 02/M01 A2966 RMK AO2 UPE29SNB29 SLP049 P0001 60001 T00171006 51014,M
ALO,2022-03-24 03:54,36.00,32.00,85.23,330.00,12.00,0.01,29.66,1005.00,10.00,M,OVC,M,M,M,1400.00,M,M,M,M,M,M,M,M,M,M,27.09,KALO 240354Z AUTO 33012KT 10SM OVC014 02/00 A2966 RMK AO2 UPB04E21SNE04 SLP050 P0001 T00220000,M
ALO,2022-03-24 04:54,36.00,30.90,81.53,320.00,13.00,0.00,29.66,1005.00,10.00,M,OVC,M,M,M,1500.00,M,M,M,M,M,M,M,M,M,M,26.69,KALO 240454Z AUTO 32013KT 10SM OVC015 02/M01 A2966 RMK AO2 SLP050 T00221006,M
ALO,2022-03-24 05:54,35.10,30.90,84.49,320.00,11.00,0.00,29.66,1005.00,10.00,M,FEW,BKN,OVC,M,1300.00,1800.00,4000.00,M,M,M,M,M,M,M,M,26.38,KALO 240554Z AUTO 32011KT 10SM FEW013 BKN018 OVC040 02/M01 A2966 RMK AO2 SLP050 60002 T00171006 10039 20017 400780017 51001,M
ALO,2022-03-24 06:12,35.10,30.90,84.49,320.00,12.00,0.00,29.67,M,10.00,M,BKN,OVC,M,M,1400.00,1900.00,M,M,M,M,M,M,M,M,M,25.95,KALO 240612Z AUTO 32012KT 10SM BKN014 OVC019 02/M01 A2967 RMK AO2 T00171006,M
ALO,2022-03-24 06:54,35.10,30.90,84.49,330.00,11.00,0.00,29.67,1005.30,10.00,M,OVC,M,M,M,1400.00,M,M,M,M,M,M,M,M,M,M,26.38,KALO 240654Z AUTO 33011KT 10SM OVC014 02/M01 A2967 RMK AO2 SLP053 T00171006,M
ALO,2022-03-24 07:54,35.10,30.90,84.49,320.00,10.00,0.00,29.67,1005.50,10.00,M,OVC,M,M,M,1200.00,M,M,M,M,M,M,M,M,M,M,26.86,KALO 240754Z AUTO 32010KT 10SM OVC012 02/M01 A2967 RMK AO2 SLP055 T00171006,M
ALO,2022-03-24 08:54,35.10,30.90,84.49,320.00,9.00,0.00,29.66,1005.20,10.00,M,OVC,M,M,M,1300.00,M,M,M,M,M,M,M,M,M,M,27.37,KALO 240854Z AUTO 32009KT 10SM OVC013 02/M01 A2966 RMK AO2 SLP052 T00171006 50002,M
ALO,2022-03-24 09:35,34.00,30.90,88.27,320.00,11.00,0.00,29.67,M,10.00,M,OVC,M,M,M,1500.00,M,M,M,M,M,M,M,M,M,M,24.99,KALO 240935Z AUTO 32011KT 10SM OVC015 01/M01 A2967 RMK AO2 T00111006,M
ALO,2022-03-24 09:54,34.00,30.00,85.11,320.00,9.00,0.00,29.67,1005.30,10.00,M,BKN,OVC,M,M,1500.00,4100.00,M,M,M,M,M,M,M,M,M,26.00,KALO 240954Z AUTO 32009KT 10SM BKN015 OVC041 01/M01 A2967 RMK AO2 SLP053 T00111011,M
ALO,2022-03-24 10:05,34.00,30.00,85.11,320.00,9.00,0.00,29.67,M,10.00,M,BKN,OVC,M,M,1400.00,4100.00,M,M,M,M,M,M,M,M,M,26.00,KALO 241005Z AUTO 32009KT 10SM BKN014 OVC041 01/M01 A2967 RMK AO2 T00111011,M
ALO,2022-03-24 10:54,34.00,30.00,85.11,320.00,9.00,0.00,29.68,1005.60,10.00,M,OVC,M,M,M,1300.00,M,M,M,M,M,M,M,M,M,M,26.00,KALO 241054Z AUTO 32009KT 10SM OVC013 01/M01 A2968 RMK AO2 SLP056 T00111011,M
ALO,2022-03-24 11:44,34.00,30.00,85.11,320.00,7.00,0.00,29.68,M,5.00,M,FEW,OVC,M,M,700.00,1200.00,M,M,BR,M,M,M,M,M,M,27.22,KALO 241144Z 32007KT 5SM BR FEW007 OVC012 01/M01 A2968 RMK AO2 T00111011,M
ALO,2022-03-24 11:54,34.00,30.00,85.11,320.00,8.00,0.00,29.69,1006.00,5.00,M,OVC,M,M,M,1200.00,M,M,M,BR,M,M,M,M,M,M,26.58,KALO 241154Z 32008KT 5SM BR OVC012 01/M01 A2969 RMK AO2 SLP060 70013 T00111011 10017 20011 53007,M
ALO,2022-03-24 12:04,34.00,30.00,85.11,320.00,7.00,0.00,29.69,M,4.00,M,SCT,OVC,M,M,700.00,1200.00,M,M,BR,M,M,M,M,M,M,27.22,KALO 241204Z 32007KT 4SM BR SCT007 OVC012 01/M01 A2969 RMK AO2 T00111011,M
ALO,2022-03-24 12:42,34.00,30.00,85.11,320.00,6.00,T,29.70,M,2.50,M,SCT,BKN,OVC,M,600.00,1000.00,3100.00,M,-SN BR,M,M,M,M,M,M,27.94,KALO 241242Z 32006KT 2 1/2SM -SN BR SCT006 BKN010 OVC031 01/M01 A2970 RMK AO2 SNB11 P0000 T00111011,M
ALO,2022-03-24 12:51,33.80,30.20,86.49,320.00,7.00,T,29.70,M,1.75,M,BKN,BKN,OVC,M,600.00,1000.00,2900.00,M,-SN BR,M,M,M,M,M,M,26.97,KALO 241251Z 32007KT 1 3/4SM -SN BR BKN006 BKN010 OVC029 01/M01 A2970 RMK AO2 SNB11 P0000,M
ALO,2022-03-24 12:54,34.00,30.00,85.11,320.00,7.00,T,29.70,1006.60,1.50,M,BKN,BKN,OVC,M,600.00,1000.00,2500.00,M,-SN BR,M,M,M,M,M,M,27.22,KALO 241254Z 32007KT 1 1/2SM -SN BR BKN006 BKN010 OVC025 01/M01 A2970 RMK AO2 SNB11 SLP066 P0000 T00111011,M
ALO,2022-03-24 13:13,34.00,30.90,88.27,330.00,7.00,0.01,29.71,M,2.00,M,BKN,OVC,M,M,600.00,1100.00,M,M,-SN BR,M,M,M,M,M,M,27.22,KALO 241313Z 33007KT 2SM -SN BR BKN006 OVC011 01/M01 A2971 RMK AO2 P0001 T00111006,M
ALO,2022-03-24 13:31,34.00,30.90,88.27,330.00,7.00,0.01,29.71,M,5.00,M,OVC,M,M,M,800.00,M,M,M,BR,M,M,M,M,M,M,27.22,KALO 241331Z 33007KT 5SM BR OVC008 01/M01 A2971 RMK AO2 SNE25 P0001 T00111006,M
ALO,2022-03-24 13:54,35.10,32.00,88.33,340.00,10.00,0.01,29.71,1006.80,8.00,M,OVC,M,M,M,900.00,M,M,M,M,M,M,M,M,M,M,26.86,KALO 241354Z 34010KT 8SM OVC009 02/00 A2971 RMK AO2 SNE25 SLP068 P0001 T00170000,M
ALO,2022-03-24 14:07,35.10,32.00,88.33,340.00,11.00,0.00,29.71,M,8.00,M,OVC,M,M,M,1000.00,M,M,M,M,M,M,M,M,M,M,26.38,KALO 241407Z 34011KT 8SM OVC010 02/00 A2971 RMK AO2 T00170000,M
ALO,2022-03-24 14:54,37.00,33.10,85.64,350.00,11.00,0.00,29.72,1007.00,10.00,M,OVC,M,M,M,1000.00,M,M,M,M,M,M,M,M,M,M,28.79,KALO 241454Z 35011KT 10SM OVC010 03/01 A2972 RMK AO2 CIG 008V016 SLP070 60001 T00280006 53005,M
ALO,2022-03-24 15:54,39.00,34.00,82.08,350.00,12.00,0.00,29.73,1007.40,10.00,M,OVC,M,M,M,1200.00,M,M,M,M,M,M,M,M,M,M,30.91,KALO 241554Z 35012KT 10SM OVC012 04/01 A2973 RMK AO2 SLP074 T00390011,M
ALO,2022-03-24 16:14,39.00,34.00,82.08,350.00,11.00,0.00,29.74,M,10.00,M,BKN,OVC,M,M,1500.00,1900.00,M,M,M,M,M,M,M,M,M,31.31,KALO 241614Z 35011KT 10SM BKN015 OVC019 04/01 A2974 RMK AO2 T00390011,M
ALO,2022-03-24 16:21,39.00,34.00,82.08,360.00,11.00,0.00,29.74,M,10.00,M,BKN,OVC,M,M,1300.00,1900.00,M,M,M,M,M,M,M,M,M,31.31,KALO 241621Z 36011KT 10SM BKN013 OVC019 04/01 A2974 RMK AO2 T00390011,M
ALO,2022-03-24 16:41,37.90,34.00,85.69,360.00,11.00,0.00,29.74,M,10.00,M,OVC,M,M,M,1600.00,M,M,M,M,M,M,M,M,M,M,29.92,KALO 241641Z 36011KT 10SM OVC016 03/01 A2974 RMK AO2 CIG 010V022 T00330011,M
ALO,2022-03-24 16:54,39.00,34.00,82.08,350.00,12.00,0.00,29.74,1007.70,10.00,M,BKN,OVC,M,M,1300.00,1900.00,M,M,M,M,M,M,M,M,M,30.91,KALO 241654Z 35012KT 10SM BKN013 OVC019 04/01 A2974 RMK AO2 SLP077 T00390011,M
ALO,2022-03-24 17:04,37.90,33.10,82.66,360.00,12.00,0.00,29.74,M,10.00,M,OVC,M,M,M,1500.00,M,M,M,M,M,M,M,M,M,M,29.51,KALO 241704Z 36012KT 10SM OVC015 03/01 A2974 RMK AO2 T00330006,M
ALO,2022-03-24 17:35,39.00,34.00,82.08,350.00,10.00,0.00,29.74,M,9.00,M,OVC,M,M,M,1200.00,M,M,M,M,M,M,M,M,M,M,31.75,KALO 241735Z 35010KT 9SM OVC012 04/01 A2974 RMK AO2 T00390011,M
ALO,2022-03-24 17:54,39.00,34.00,82.08,360.00,11.00,0.00,29.75,1008.00,10.00,M,BKN,OVC,M,M,1200.00,1800.00,M,M,M,M,M,M,M,M,M,31.31,KALO 241754Z 36011KT 10SM BKN012 OVC018 04/01 A2975 RMK AO2 SLP080 60001 T00390011 10039 20011 51009,M
ALO,2022-03-24 18:17,39.90,34.00,79.25,10.00,11.00,0.00,29.74,M,10.00,M,OVC,M,M,M,1500.00,M,M,M,M,M,M,M,M,M,M,32.45,KALO 241817Z 01011KT 10SM OVC015 04/01 A2974 RMK AO2 T00440011,M
ALO,2022-03-24 18:27,39.00,34.00,82.08,360.00,8.00,0.00,29.74,M,10.00,M,OVC,M,M,M,1400.00,M,M,M,M,M,M,M,M,M,M,32.74,KALO 241827Z 36008KT 10SM OVC014 04/01 A2974 RMK AO2 T00390011,M
ALO,2022-03-24 18:54,39.00,34.00,82.08,340.00,10.00,0.00,29.75,1008.00,10.00,M,BKN,OVC,M,M,1400.00,1900.00,M,M,M,M,M,M,M,M,M,31.75,KALO 241854Z 34010KT 10SM BKN014 OVC019 04/01 A2975 RMK AO2 SLP080 T00390011,M
ALO,2022-03-24 19:42,39.90,34.00,79.25,350.00,10.00,0.00,29.75,M,10.00,M,OVC,M,M,M,1600.00,M,M,M,M,M,M,M,M,M,M,32.87,KALO 241942Z 35010KT 10SM OVC016 04/01 A2975 RMK AO2 T00440011,M
ALO,2022-03-24 19:54,39.90,34.00,79.25,340.00,9.00,0.00,29.75,1008.10,10.00,M,OVC,M,M,M,1600.00,M,M,M,M,M,M,M,M,M,M,33.34,KALO 241954Z 34009KT 10SM OVC016 04/01 A2975 RMK AO2 SLP081 T00440011,M
ALO,2022-03-24 20:37,39.90,34.00,79.25,330.00,8.00,0.00,29.76,M,10.00,M,OVC,M,M,M,1400.00,M,M,M,M,M,M,M,M,M,M,33.84,KALO 242037Z 33008KT 10SM OVC014 04/01 A2976 RMK AO2 T00440011,M
ALO,2022-03-24 20:54,39.90,34.00,79.25,350.00,10.00,0.00,29.76,1008.40,10.00,M,OVC,M,M,M,1400.00,M,M,M,M,M,M,M,M,M,M,32.87,KALO 242054Z 35010KT 10SM OVC014 04/01 A2976 RMK AO2 SLP084 T00440011 53005,M
ALO,2022-03-24 21:22,39.90,33.10,76.44,330.00,12.00,0.00,29.77,M,10.00,M,BKN,OVC,M,M,1500.00,2000.00,M,M,M,M,M,M,M,M,M,32.06,KALO 242122Z 33012KT 10SM BKN015 OVC020 04/01 A2977 RMK AO2 T00440006,M
ALO,2022-03-24 21:54,39.90,33.10,76.44,320.00,11.00,0.00,29.78,1009.00,10.00,M,OVC,M,M,M,1500.00,M,M,M,M,M,M,M,M,M,M,32.45,KALO 242154Z 32011KT 10SM OVC015 04/01 A2978 RMK AO2 SLP090 T00440006,M
ALO,2022-03-24 22:54,39.90,34.00,79.25,310.00,7.00,0.00,29.79,1009.40,10.00,M,OVC,M,M,M,1800.00,M,M,M,M,M,M,M,M,M,M,34.41,KALO 242254Z 31007KT 10SM OVC018 04/01 A2979 RMK AO2 SLP094 T00440011,M
ALO,2022-03-24 23:54,39.90,33.10,76.44,310.00,7.00,0.00,29.80,1009.90,10.00,M,BKN,OVC,M,M,1500.00,2300.00,M,M,M,M,M,M,M,M,M,34.41,KALO 242354Z 31007KT 10SM BKN015 OVC023 04/01 A2980 RMK AO2 SLP099 T00440006 10050 20039 51013,M
ALO,2022-03-25 00:54,39.00,34.00,82.08,280.00,5.00,0.00,29.81,1010.20,10.00,M,OVC,M,M,M,1800.00,M,M,M,M,M,M,M,M,M,M,34.71,KALO 250054Z 28005KT 10SM OVC018 04/01 A2981 RMK AO2 SLP102 T00390011,M
ALO,2022-03-25 01:54,39.00,34.00,82.08,270.00,5.00,0.00,29.81,1010.40,10.00,M,OVC,M,M,M,2400.00,M,M,M,M,M,M,M,M,M,M,34.71,KALO 250154Z AUTO 27005KT 10SM OVC024 04/01 A2981 RMK AO2 SLP104 T00390011,M
ALO,2022-03-25 02:32,39.00,34.00,82.08,270.00,5.00,0.00,29.82,M,10.00,M,FEW,SCT,OVC,M,2000.00,2700.00,3900.00,M,M,M,M,M,M,M,M,34.71,KALO 250232Z AUTO 27005KT 10SM FEW020 SCT027 OVC039 04/01 A2982 RMK AO2 T00390011,M
ALO,2022-03-25 02:39,39.00,34.00,82.08,270.00,4.00,0.00,29.83,M,10.00,M,BKN,OVC,M,M,2700.00,3700.00,M,M,M,M,M,M,M,M,M,35.59,KALO 250239Z AUTO 27004KT 10SM BKN027 OVC037 04/01 A2983 RMK AO2 T00390011,M
ALO,2022-03-25 02:54,39.00,34.00,82.08,270.00,5.00,0.00,29.83,1010.70,10.00,M,BKN,OVC,M,M,2600.00,3200.00,M,M,M,M,M,M,M,M,M,34.71,KALO 250254Z AUTO 27005KT 10SM BKN026 OVC032 04/01 A2983 RMK AO2 SLP107 T00390011 53009,M
ALO,2022-03-25 03:54,39.00,35.10,85.76,280.00,6.00,0.00,29.83,1010.70,7.00,M,OVC,M,M,M,1600.00,M,M,M,M,M,M,M,M,M,M,33.96,KALO 250354Z AUTO 28006KT 7SM OVC016 04/02 A2983 RMK AO2 SLP107 T00390017,M
ALO,2022-03-25 04:06,39.00,35.10,85.76,270.00,6.00,0.00,29.82,M,6.00,M,OVC,M,M,M,1400.00,M,M,M,BR,M,M,M,M,M,M,33.96,KALO 250406Z AUTO 27006KT 6SM BR OVC014 04/02 A2982 RMK AO2 T00390017,M
ALO,2022-03-25 04:24,39.00,35.10,85.76,260.00,5.00,0.00,29.82,M,7.00,M,SCT,BKN,OVC,M,1200.00,2000.00,2700.00,M,M,M,M,M,M,M,M,34.71,KALO 250424Z AUTO 26005KT 7SM SCT012 BKN020 OVC027 04/02 A2982 RMK AO2 T00390017,M
ALO,2022-03-25 04:49,39.20,35.60,86.79,260.00,6.00,0.00,29.82,M,10.00,M,FEW,SCT,OVC,M,1900.00,2500.00,3100.00,M,M,M,M,M,M,M,M,34.20,KALO 250449Z AUTO 26006KT 10SM FEW019 SCT025 OVC031 04/02 A2982 RMK AO2,M
ALO,2022-03-25 04:54,39.00,35.10,85.76,260.00,7.00,0.00,29.82,1010.30,10.00,M,SCT,OVC,M,M,2100.00,2900.00,M,M,M,M,M,M,M,M,M,33.31,KALO 250454Z AUTO 26007KT 10SM SCT021 OVC029 04/02 A2982 RMK AO2 SLP103 T00390017,M
ALO,2022-03-25 05:54,39.00,35.10,85.76,260.00,5.00,0.00,29.81,1010.20,10.00,M,OVC,M,M,M,2800.00,M,M,M,M,M,M,M,M,M,M,34.71,KALO 250554Z AUTO 26005KT 10SM OVC028 04/02 A2981 RMK AO2 SLP102 T00390017 10044 20039 400500011 56005,M
ALO,2022-03-25 06:54,39.00,35.10,85.76,270.00,7.00,0.00,29.82,1010.30,10.00,M,OVC,M,M,M,2900.00,M,M,M,M,M,M,M,M,M,M,33.31,KALO 250654Z AUTO 27007KT 10SM OVC029 04/02 A2982 RMK AO2 SLP103 T00390017,M
ALO,2022-03-25 07:54,39.90,34.00,79.25,260.00,6.00,0.00,29.82,1010.40,10.00,M,OVC,M,M,M,3000.00,M,M,M,M,M,M,M,M,M,M,35.04,KALO 250754Z AUTO 26006KT 10SM OVC030 04/01 A2982 RMK AO2 SLP104 T00440011,M
ALO,2022-03-25 08:54,39.00,34.00,82.08,260.00,10.00,0.00,29.81,1010.00,10.00,M,OVC,M,M,M,3300.00,M,M,M,M,M,M,M,M,M,M,31.75,KALO 250854Z AUTO 26010KT 10SM OVC033 04/01 A2981 RMK AO2 SLP100 T00390011 58002,M
ALO,2022-03-25 09:54,39.00,34.00,82.08,260.00,9.00,0.00,29.79,1009.60,10.00,M,OVC,M,M,M,4100.00,M,M,M,M,M,M,M,M,M,M,32.22,KALO 250954Z AUTO 26009KT 10SM OVC041 04/01 A2979 RMK AO2 SLP096 T00390011,M
ALO,2022-03-25 10:54,37.90,33.10,82.66,260.00,11.00,0.00,29.79,1009.50,10.00,M,BKN,M,M,M,3900.00,M,M,M,M,M,M,M,M,M,M,29.92,KALO 251054Z 26011KT 10SM BKN039 03/01 A2979 RMK AO2 SLP095 T00330006,M
ALO,2022-03-25 11:54,37.90,33.10,82.66,280.00,8.00,0.00,29.79,1009.50,10.00,M,OVC,M,M,M,4300.00,M,M,M,M,M,M,M,M,M,M,31.38,KALO 251154Z 28008KT 10SM OVC043 03/01 A2979 RMK AO2 SLP095 70001 T00330006 10044 20033 55005,M
ALO,2022-03-25 12:54,41.00,34.00,75.94,300.00,12.00,0.00,29.81,1010.10,10.00,M,BKN,OVC,M,M,3000.00,3600.00,M,M,M,M,M,M,M,M,M,33.46,KALO 251254Z 30012KT 10SM BKN030 OVC036 05/01 A2981 RMK AO2 SLP101 T00500011,M
ALO,2022-03-25 13:04,41.00,34.00,75.94,300.00,13.00,0.00,29.81,M,10.00,M,BKN,OVC,M,M,2600.00,3200.00,M,M,M,M,M,M,M,M,M,33.10,KALO 251304Z 30013KT 10SM BKN026 OVC032 05/01 A2981 RMK AO2 T00500011,M
ALO,2022-03-25 13:54,41.00,34.00,75.94,300.00,22.00,0.00,29.83,1010.80,10.00,37.00,FEW,OVC,M,M,1800.00,2500.00,M,M,M,M,M,M,37.00,300.00,2022-03-25 13:40,30.63,KALO 251354Z 30022G37KT 10SM FEW018 OVC025 05/01 A2983 RMK AO2 PK WND 30037/1340 SLP108 T00500011,M
ALO,2022-03-25 14:54,41.00,32.00,70.08,310.00,18.00,0.00,29.85,1011.30,10.00,28.00,BKN,OVC,M,M,2500.00,3000.00,M,M,M,M,M,M,34.00,310.00,2022-03-25 14:05,31.60,KALO 251454Z 31018G28KT 10SM BKN025 OVC030 05/00 A2985 RMK AO2 PK WND 31034/1405 SLP113 T00500000 52018,M
ALO,2022-03-25 15:13,42.10,30.00,61.94,300.00,23.00,0.00,29.84,M,10.00,38.00,SCT,OVC,M,M,2500.00,3200.00,M,M,M,M,M,M,38.00,280.00,2022-03-25 15:10,31.89,KALO 251513Z 30023G38KT 10SM SCT025 OVC032 06/M01 A2984 RMK AO2 PK WND 28038/1510 T00561011,M
ALO,2022-03-25 15:54,45.00,28.90,53.00,310.00,20.00,0.00,29.84,1011.10,10.00,37.00,FEW,M,M,M,3300.00,M,M,M,M,M,M,M,42.00,310.00,2022-03-25 15:24,36.41,KALO 251554Z 31020G37KT 10SM FEW033 07/M02 A2984 RMK AO2 PK WND 31042/1524 SLP111 T00721017,M
ALO,2022-03-25 16:54,46.00,28.90,51.03,300.00,25.00,0.00,29.83,1010.70,10.00,35.00,FEW,M,M,M,3800.00,M,M,M,M,M,M,M,35.00,290.00,2022-03-25 16:54,36.77,KALO 251654Z 30025G35KT 10SM FEW038 08/M02 A2983 RMK AO2 PK WND 29035/1654 SLP107 T00781017,M
ALO,2022-03-25 17:54,45.00,26.10,47.23,300.00,24.00,0.00,29.84,1010.90,10.00,43.00,SCT,BKN,M,M,4500.00,6500.00,M,M,M,M,M,M,47.00,310.00,2022-03-25 17:32,35.60,KALO 251754Z 30024G43KT 10SM SCT045 BKN065 07/M03 A2984 RMK AO2 PK WND 31047/1732 SLP109 T00721033 10083 20033 55003,M
ALO,2022-03-25 18:54,43.00,25.00,48.70,310.00,28.00,0.00,29.83,1010.70,10.00,42.00,FEW,OVC,M,M,4200.00,6000.00,M,M,M,M,M,M,42.00,300.00,2022-03-25 18:48,32.16,KALO 251854Z 31028G42KT 10SM FEW042 OVC060 06/M04 A2983 RMK AO2 PK WND 30042/1848 SLP107 T00611039,M
ALO,2022-03-25 19:54,43.00,26.10,50.98,300.00,26.00,0.00,29.82,1010.40,10.00,38.00,SCT,BKN,OVC,M,4000.00,4700.00,6000.00,M,M,M,M,M,47.00,290.00,2022-03-25 19:23,32.52,KALO 251954Z 30026G38KT 10SM SCT040 BKN047 OVC060 06/M03 A2982 RMK AO2 PK WND 29047/1923 SLP104 T00611033,M
ALO,2022-03-25 20:54,44.10,24.10,44.98,310.00,28.00,0.00,29.83,1010.60,10.00,45.00,FEW,OVC,M,M,4900.00,6500.00,M,M,M,M,M,M,45.00,310.00,2022-03-25 20:50,33.67,KALO 252054Z 31028G45KT 10SM FEW049 OVC065 07/M04 A2983 RMK AO2 PK WND 31045/2050 SLP106 T00671044 55003,M
ALO,2022-03-25 21:54,45.00,24.10,43.46,300.00,23.00,0.00,29.83,1010.80,10.00,36.00,SCT,BKN,M,M,6000.00,8000.00,M,M,M,M,M,M,44.00,320.00,2022-03-25 21:00,35.79,KALO 252154Z 30023G36KT 10SM SCT060 BKN080 07/M04 A2983 RMK AO2 PK WND 32044/2100 SLP108 T00721044,M
ALO,2022-03-25 22:54,45.00,24.10,43.46,310.00,21.00,0.00,29.83,1010.70,10.00,37.00,BKN,OVC,M,M,6000.00,8500.00,M,M,M,M,M,M,41.00,310.00,2022-03-25 22:27,36.19,KALO 252254Z 31021G37KT 10SM BKN060 OVC085 07/M04 A2983 RMK AO2 PK WND 31041/2227 SLP107 T00721044,M
ALO,2022-03-25 23:54,43.00,25.00,48.70,310.00,26.00,0.00,29.84,1010.90,10.00,43.00,FEW,SCT,BKN,M,3900.00,6500.00,9000.00,M,M,M,M,M,44.00,320.00,2022-03-25 23:16,32.52,KALO 252354Z 31026G43KT 10SM FEW039 SCT065 BKN090 06/M04 A2984 RMK AO2 PK WND 32044/2316 SLP109 T00611039 10078 20056 51002,M
ALO,2022-03-26 00:54,41.00,23.00,48.39,310.00,19.00,0.00,29.84,1011.10,10.00,31.00,FEW,M,M,M,6500.00,M,M,M,M,M,M,M,38.00,300.00,2022-03-26 00:14,31.34,KALO 260054Z AUTO 31019G31KT 10SM FEW065 05/M05 A2984 RMK AO2 PK WND 30038/0014 SLP111 T00501050,M
ALO,2022-03-26 01:54,39.00,23.00,52.30,320.00,21.00,0.00,29.86,1011.90,10.00,34.00,CLR,M,M,M,M,M,M,M,M,M,M,M,34.00,310.00,2022-03-26 01:47,28.19,KALO 260154Z AUTO 32021G34KT 10SM CLR 04/M05 A2986 RMK AO2 PK WND 31034/0147 SLP119 T00391050,M
ALO,2022-03-26 02:54,37.00,23.00,56.57,310.00,23.00,0.00,29.87,1012.10,10.00,36.00,CLR,M,M,M,M,M,M,M,M,M,M,M,40.00,320.00,2022-03-26 02:09,25.03,KALO 260254Z AUTO 31023G36KT 10SM CLR 03/M05 A2987 RMK AO2 PK WND 32040/0209 SLP121 T00281050 51011,M
ALO,2022-03-26 03:54,35.10,19.90,53.49,310.00,28.00,0.00,29.86,1011.90,10.00,43.00,CLR,M,M,M,M,M,M,M,M,M,M,M,43.00,310.00,2022-03-26 03:53,21.36,KALO 260354Z AUTO 31028G43KT 10SM CLR 02/M07 A2986 RMK AO2 PK WND 31043/0353 SLP119 T00171067,M
ALO,2022-03-26 04:54,33.10,18.00,53.40,320.00,20.00,0.00,29.88,1012.60,10.00,36.00,CLR,M,M,M,M,M,M,M,M,M,M,M,41.00,310.00,2022-03-26 03:56,20.60,KALO 260454Z AUTO 32020G36KT 10SM CLR 01/M08 A2988 RMK AO2 PK WND 31041/0356 SLP126 T00061078,M
ALO,2022-03-26 05:54,32.00,18.00,55.82,320.00,24.00,0.00,29.89,1012.80,10.00,32.00,CLR,M,M,M,M,M,M,M,M,M,M,M,33.00,300.00,2022-03-26 05:33,18.06,KALO 260554Z AUTO 32024G32KT 10SM CLR 00/M08 A2989 RMK AO2 PK WND 30033/0533 SLP128 T00001078 10061 20000 400830000 53006,M
ALO,2022-03-26 06:54,30.00,19.00,63.18,320.00,18.00,0.00,29.90,1013.20,10.00,28.00,CLR,M,M,M,M,M,M,M,M,M,M,M,35.00,310.00,2022-03-26 06:02,17.12,KALO 260654Z AUTO 32018G28KT 10SM CLR M01/M07 A2990 RMK AO2 PK WND 31035/0602 SLP132 T10111072,M
ALO,2022-03-26 07:54,30.00,16.00,55.52,320.00,23.00,0.00,29.90,1013.40,10.00,38.00,CLR,M,M,M,M,M,M,M,M,M,M,M,38.00,320.00,2022-03-26 07:45,15.63,KALO 260754Z AUTO 32023G38KT 10SM CLR M01/M09 A2990 RMK AO2 PK WND 32038/0745 SLP134 T10111089,M
ALO,2022-03-26 08:54,28.90,16.00,58.06,320.00,21.00,0.00,29.92,1013.80,10.00,33.00,CLR,M,M,M,M,M,M,M,M,M,M,M,34.00,330.00,2022-03-26 07:57,14.72,KALO 260854Z AUTO 32021G33KT 10SM CLR M02/M09 A2992 RMK AO2 PK WND 33034/0757 SLP138 T10171089 53009,M
ALO,2022-03-26 09:54,27.00,15.10,60.37,320.00,20.00,0.00,29.93,1014.30,10.00,32.00,CLR,M,M,M,M,M,M,M,M,M,M,M,34.00,330.00,2022-03-26 09:17,12.50,KALO 260954Z AUTO 32020G32KT 10SM CLR M03/M09 A2993 RMK AO2 PK WND 33034/0917 SLP143 T10281094,M
ALO,2022-03-26 10:54,25.00,10.00,52.36,330.00,20.00,0.00,29.95,1015.00,10.00,27.00,CLR,M,M,M,M,M,M,M,M,M,M,M,39.00,320.00,2022-03-26 10:27,9.84,KALO 261054Z 33020G27KT 10SM CLR M04/M12 A2995 RMK AO2 PK WND 32039/1027 SLP150 T10391122,M
ALO,2022-03-26 11:54,24.10,9.00,51.98,320.00,21.00,0.00,29.97,1015.80,10.00,31.00,CLR,M,M,M,M,M,M,M,M,M,M,M,40.00,320.00,2022-03-26 11:06,8.32,KALO 261154Z 32021G31KT 10SM CLR M04/M13 A2997 RMK AO2 PK WND 32040/1106 SLP158 T10441128 10000 21044 53018,M
ALO,2022-03-26 12:54,24.10,10.90,56.59,330.00,20.00,0.00,30.00,1016.70,10.00,34.00,CLR,M,M,M,M,M,M,M,M,M,M,M,34.00,330.00,2022-03-26 12:48,8.65,KALO 261254Z 33020G34KT 10SM CLR M04/M12 A3000 RMK AO2 PK WND 33034/1248 SLP167 T10441117,M
ALO,2022-03-26 13:54,25.00,10.00,52.36,330.00,26.00,0.00,30.02,1017.40,10.00,32.00,FEW,M,M,M,3100.00,M,M,M,M,M,M,M,38.00,340.00,2022-03-26 13:11,8.07,KALO 261354Z 33026G32KT 10SM FEW031 M04/M12 A3002 RMK AO2 PK WND 34038/1311 SLP174 T10391122,M
ALO,2022-03-26 14:54,27.00,10.00,48.20,320.00,22.00,0.00,30.04,1018.10,10.00,32.00,CLR,M,M,M,M,M,M,M,M,M,M,M,43.00,340.00,2022-03-26 14:08,11.88,KALO 261454Z 32022G32KT 10SM CLR M03/M12 A3004 RMK AO2 PK WND 34043/1408 SLP181 T10281122 51021,M
ALO,2022-03-26 15:54,28.90,10.90,46.40,330.00,26.00,0.00,30.06,1019.00,10.00,35.00,FEW,M,M,M,3400.00,M,M,M,M,M,M,M,35.00,350.00,2022-03-26 15:47,13.36,KALO 261554Z 33026G35KT 10SM FEW034 M02/M12 A3006 RMK AO2 PK WND 35035/1547 SLP190 T10171117,M
ALO,2022-03-26 16:54,30.90,10.90,42.78,330.00,22.00,0.00,30.08,1019.50,10.00,31.00,CLR,M,M,M,M,M,M,M,M,M,M,M,34.00,320.00,2022-03-26 16:10,17.11,KALO 261654Z 33022G31KT 10SM CLR M01/M12 A3008 RMK AO2 PK WND 32034/1610 SLP195 T10061117,M
ALO,2022-03-26 17:54,33.10,10.90,39.14,340.00,22.00,0.00,30.08,1019.40,10.00,34.00,CLR,M,M,M,M,M,M,M,M,M,M,M,36.00,330.00,2022-03-26 17:10,20.05,KALO 261754Z 34022G34KT 10SM CLR 01/M12 A3008 RMK AO2 PK WND 33036/1710 SLP194 T00061117 10006 21050 51013,M
ALO,2022-03-26 18:54,35.10,12.90,39.49,320.00,23.00,0.00,30.07,1019.30,10.00,32.00,CLR,M,M,M,M,M,M,M,M,M,M,M,32.00,340.00,2022-03-26 18:42,22.48,KALO 261854Z 32023G32KT 10SM CLR 02/M11 A3007 RMK AO2 PK WND 34032/1842 SLP193 T00171106,M
ALO,2022-03-26 19:54,36.00,12.90,38.10,310.00,20.00,0.00,30.07,1019.20,10.00,30.00,CLR,M,M,M,M,M,M,M,M,M,M,M,35.00,340.00,2022-03-26 19:02,24.45,KALO 261954Z 31020G30KT 10SM CLR 02/M11 A3007 RMK AO2 PK WND 34035/1902 SLP192 T00221106,M
ALO,2022-03-26 20:54,37.00,12.90,36.63,330.00,22.00,0.00,30.07,1019.10,10.00,29.00,CLR,M,M,M,M,M,M,M,M,M,M,M,32.00,320.00,2022-03-26 20:08,25.27,KALO 262054Z 33022G29KT 10SM CLR 03/M11 A3007 RMK AO2 PK WND 32032/2008 SLP191 T00281106 58002,M
ALO,2022-03-26 21:54,36.00,14.00,39.99,320.00,20.00,0.00,30.07,1019.20,10.00,28.00,CLR,M,M,M,M,M,M,M,M,M,M,M,29.00,310.00,2022-03-26 21:12,24.45,KALO 262154Z 32020G28KT 10SM CLR 02/M10 A3007 RMK AO2 PK WND 31029/2112 SLP192 T00221100,M
ALO,2022-03-26 22:54,36.00,15.10,41.96,320.00,18.00,0.00,30.07,1019.40,10.00,28.00,CLR,M,M,M,M,M,M,M,M,M,M,M,28.00,310.00,2022-03-26 21:56,25.01,KALO 262254Z 32018G28KT 10SM CLR 02/M09 A3007 RMK AO2 PK WND 31028/2156 SLP194 T00221094,M
ALO,2022-03-26 23:54,33.10,15.10,47.10,320.00,16.00,0.00,30.09,1020.10,10.00,25.00,CLR,M,M,M,M,M,M,M,M,M,M,M,27.00,340.00,2022-03-26 22:58,21.85,KALO 262354Z 32016G25KT 10SM CLR 01/M09 A3009 RMK AO2 PK WND 34027/2258 SLP201 T00061094 10028 20006 53008,M
ALO,2022-03-27 00:54,30.90,16.00,53.53,320.00,13.00,0.00,30.10,1020.40,10.00,M,CLR,M,M,M,M,M,M,M,M,M,M,M,M,M,M,20.16,KALO 270054Z AUTO 32013KT 10SM CLR M01/M09 A3010 RMK AO2 SLP204 T10061089,M
ALO,2022-03-27 01:54,28.90,16.00,58.06,330.00,11.00,0.00,30.13,1021.40,10.00,M,CLR,M,M,M,M,M,M,M,M,M,M,M,M,M,M,18.55,KALO 270154Z AUTO 33011KT 10SM CLR M02/M09 A3013 RMK AO2 SLP214 T10171089,M
ALO,2022-03-27 02:54,28.90,16.00,58.06,320.00,9.00,0.00,30.13,1021.50,10.00,M,CLR,M,M,M,M,M,M,M,M,M,M,M,M,M,M,19.66,KALO 270254Z AUTO 32009KT 10SM CLR M02/M09 A3013 RMK AO2 SLP215 T10171089 51014,M
ALO,2022-03-27 03:54,28.00,16.00,60.25,310.00,9.00,0.00,30.15,1021.90,10.00,M,CLR,M,M,M,M,M,M,M,M,M,M,M,M,M,M,18.54,KALO 270354Z AUTO 31009KT 10SM CLR M02/M09 A3015 RMK AO2 SLP219 T10221089,M
ALO,2022-03-27 04:54,28.00,14.00,55.21,320.00,12.00,0.00,30.16,1022.50,10.00,21.00,CLR,M,M,M,M,M,M,M,M,M,M,M,M,M,M,16.91,KALO 270454Z AUTO 32012G21KT 10SM CLR M02/M10 A3016 RMK AO2 SLP225 T10221100,M
ALO,2022-03-27 05:54,27.00,12.90,54.82,320.00,11.00,0.00,30.16,1022.50,10.00,M,CLR,M,M,M,M,M,M,M,M,M,M,M,M,M,M,16.15,KALO 270554Z AUTO 32011KT 10SM CLR M03/M11 A3016 RMK AO2 SLP225 T10281106 10006 21028 400281050 51010,M
ALO,2022-03-27 06:54,25.00,12.90,59.55,320.00,10.00,0.00,30.17,1022.60,10.00,M,CLR,M,M,M,M,M,M,M,M,M,M,M,M,M,M,14.19,KALO 270654Z AUTO 32010KT 10SM CLR M04/M11 A3017 RMK AO2 SLP226 T10391106,M
ALO,2022-03-27 07:54,24.10,12.90,61.83,320.00,8.00,0.00,30.18,1022.90,10.00,M,CLR,M,M,M,M,M,M,M,M,M,M,M,M,M,M,14.38,KALO 270754Z AUTO 32008KT 10SM CLR M04/M11 A3018 RMK AO2 SLP229 T10441106,M
ALO,2022-03-27 08:54,23.00,12.90,64.75,320.00,8.00,0.00,30.19,1023.40,10.00,M,CLR,M,M,M,M,M,M,M,M,M,M,M,M,M,M,13.03,KALO 270854Z AUTO 32008KT 10SM CLR M05/M11 A3019 RMK AO2 SLP234 T10501106 53009,M
ALO,2022-03-27 09:54,21.00,12.00,67.71,330.00,8.00,0.00,30.21,1024.00,10.00,M,CLR,M,M,M,M,M,M,M,M,M,M,M,M,M,M,10.56,KALO 270954Z AUTO 33008KT 10SM CLR M06/M11 A3021 RMK AO2 SLP240 T10611111,M
ALO,2022-03-27 10:54,19.90,12.00,70.95,330.00,7.00,0.00,30.23,1024.80,10.00,M,CLR,M,M,M,M,M,M,M,M,M,M,M,M,M,M,10.03,KALO 271054Z 33007KT 10SM CLR M07/M11 A3023 RMK AO2 SLP248 T10671111,M
ALO,2022-03-27 11:54,18.00,9.00,67.33,340.00,6.00,0.00,30.25,1025.60,10.00,M,CLR,M,M,M,M,M,M,M,M,M,M,M,M,M,M,8.67,KALO 271154Z 34006KT 10SM CLR M08/M13 A3025 RMK AO2 SLP256 T10781128 11028 21078 53019,M
ALO,2022-03-27 12:54,21.90,7.00,52.10,350.00,11.00,0.00,30.27,1026.10,10.00,M,CLR,M,M,M,M,M,M,M,M,M,M,M,M,M,M,9.70,KALO 271254Z 35011KT 10SM CLR M06/M14 A3027 RMK AO2 SLP261 T10561139,M
ALO,2022-03-27 13:54,24.10,7.00,47.50,360.00,14.00,0.00,30.28,1026.60,10.00,M,CLR,M,M,M,M,M,M,M,M,M,M,M,M,M,M,10.98,KALO 271354Z 36014KT 10SM CLR M04/M14 A3028 RMK AO2 SLP266 T10441139,M
ALO,2022-03-27 14:54,25.00,5.00,41.76,360.00,10.00,0.00,30.28,1026.70,10.00,20.00,CLR,M,M,M,M,M,M,M,M,M,M,M,M,M,M,14.19,KALO 271454Z 36010G20KT 10SM CLR M04/M15 A3028 RMK AO2 SLP267 T10391150 51012,M
ALO,2022-03-27 15:54,27.00,5.00,38.44,20.00,7.00,0.00,30.29,1027.00,10.00,M,CLR,M,M,M,M,M,M,M,M,M,M,M,M,M,M,18.68,KALO 271554Z 02007KT 10SM CLR M03/M15 A3029 RMK AO2 SLP270 T10281150,M
ALO,2022-03-27 16:54,30.00,3.00,31.01,M,M,0.00,30.29,1026.90,10.00,M,CLR,M,M,M,M,M,M,M,M,M,M,M,M,M,M,M,KALO 271654Z 10SM CLR M01/M16 A3029 RMK AO2 SLP269 T10111161,M
ALO,2022-03-27 17:54,32.00,5.00,31.35,M,6.00,0.00,30.29,1026.70,10.00,M,CLR,M,M,M,M,M,M,M,M,M,M,M,M,M,M,25.53,KALO 271754Z VRB06KT 10SM CLR 00/M15 A3029 RMK AO2 SLP267 T00001150 10000 21078 50001,M
ALO,2022-03-27 18:54,33.10,3.00,27.36,310.00,11.00,0.00,30.28,1026.40,10.00,M,CLR,M,M,M,M,M,M,M,M,M,M,M,M,M,M,23.86,KALO 271854Z 31011KT 10SM CLR 01/M16 A3028 RMK AO2 SLP264 T00061161,M
ALO,2022-03-27 19:54,36.00,5.00,26.72,330.00,13.00,0.00,30.26,1025.60,10.00,17.00,CLR,M,M,M,M,M,M,M,M,M,M,M,M,M,M,26.69,KALO 271954Z 33013G17KT 10SM CLR 02/M15 A3026 RMK AO2 SLP256 T00221150,M
ALO,2022-03-27 20:54,36.00,6.10,28.10,350.00,7.00,0.00,30.23,1024.80,10.00,16.00,CLR,M,M,M,M,M,M,M,M,M,M,M,M,M,M,29.65,KALO 272054Z 35007G16KT 10SM CLR 02/M14 A3023 RMK AO2 SLP248 T00221144 58018,M
ALO,2022-03-27 21:54,36.00,5.00,26.72,340.00,10.00,0.00,30.23,1024.80,10.00,M,CLR,M,M,M,M,M,M,M,M,M,M,M,M,M,M,27.98,KALO 272154Z 34010KT 10SM CLR 02/M15 A3023 RMK AO2 SLP248 T00221150,M
ALO,2022-03-27 22:54,35.10,7.00,30.33,340.00,12.00,0.00,30.22,1024.30,10.00,M,CLR,M,M,M,M,M,M,M,M,M,M,M,M,M,M,25.95,KALO 272254Z 34012KT 10SM CLR 02/M14 A3022 RMK AO2 SLP243 T00171139,M
ALO,2022-03-27 23:54,33.10,9.00,35.96,320.00,9.00,0.00,30.21,1024.20,10.00,M,CLR,M,M,M,M,M,M,M,M,M,M,M,M,M,M,24.88,KALO 272354Z 32009KT 10SM CLR 01/M13 A3021 RMK AO2 SLP242 T00061128 10028 21006 58007,M
ALO,2022-03-28 00:54,27.00,10.90,50.17,350.00,6.00,0.00,30.21,1024.30,10.00,M,CLR,M,M,M,M,M,M,M,M,M,M,M,M,M,M,19.51,KALO 280054Z 35006KT 10SM CLR M03/M12 A3021 RMK AO2 SLP243 T10281117,M
ALO,2022-03-28 01:54,26.10,12.00,54.68,330.00,4.00,0.00,30.22,1024.70,10.00,M,CLR,M,M,M,M,M,M,M,M,M,M,M,M,M,M,20.53,KALO 280154Z AUTO 33004KT 10SM CLR M03/M11 A3022 RMK AO2 SLP247 T10331111,M
ALO,2022-03-28 02:54,24.10,12.90,61.83,340.00,4.00,0.00,30.24,1025.10,10.00,M,CLR,M,M,M,M,M,M,M,M,M,M,M,M,M,M,18.19,KALO 280254Z AUTO 34004KT 10SM CLR M04/M11 A3024 RMK AO2 SLP251 T10441106 53008,M
ALO,2022-03-28 03:54,23.00,12.90,64.75,320.00,3.00,0.00,30.24,1025.30,10.00,M,CLR,M,M,M,M,M,M,M,M,M,M,M,M,M,M,18.40,KALO 280354Z AUTO 32003KT 10SM CLR M05/M11 A3024 RMK AO2 SLP253 T10501106,M
ALO,2022-03-28 04:54,23.00,14.00,67.96,0.00,0.00,0.00,30.25,1025.50,10.00,M,CLR,M,M,M,M,M,M,M,M,M,M,M,M,M,M,23.00,KALO 280454Z AUTO 00000KT 10SM CLR M05/M10 A3025 RMK AO2 SLP255 T10501100,M
ALO,2022-03-28 05:54,23.00,15.10,71.30,0.00,0.00,0.00,30.26,1025.80,10.00,M,CLR,M,M,M,M,M,M,M,M,M,M,M,M,M,M,23.00,KALO 280554Z AUTO 00000KT 10SM CLR M05/M09 A3026 RMK AO2 SLP258 T10501094 10006 21056 400281078 53007,M
ALO,2022-03-28 06:54,19.90,12.90,73.83,0.00,0.00,0.00,30.26,1025.90,10.00,M,CLR,M,M,M,M,M,M,M,M,M,M,M,M,M,M,19.90,KALO 280654Z AUTO 00000KT 10SM CLR M07/M11 A3026 RMK AO2 SLP259 T10671106,M
ALO,2022-03-28 07:54,21.00,14.00,73.94,0.00,0.00,0.00,30.25,1025.50,10.00,M,CLR,M,M,M,M,M,M,M,M,M,M,M,M,M,M,21.00,KALO 280754Z AUTO 00000KT 10SM CLR M06/M10 A3025 RMK AO2 SLP255 T10611100,M
ALO,2022-03-28 08:54,21.00,14.00,73.94,0.00,0.00,0.00,30.25,1025.50,10.00,M,CLR,M,M,M,M,M,M,M,M,M,M,M,M,M,M,21.00,KALO 280854Z AUTO 00000KT 10SM CLR M06/M10 A3025 RMK AO2 SLP255 T10611100 58003,M
ALO,2022-03-28 09:54,19.00,12.90,76.72,30.00,3.00,0.00,30.26,1025.70,10.00,M,CLR,M,M,M,M,M,M,M,M,M,M,M,M,M,M,13.83,KALO 280954Z AUTO 03003KT 10SM CLR M07/M11 A3026 RMK AO2 SLP257 T10721106,M
ALO,2022-03-28 10:54,19.90,12.90,73.83,0.00,0.00,0.00,30.27,1026.30,10.00,M,CLR,M,M,M,M,M,M,M,M,M,M,M,M,M,M,19.90,KALO 281054Z 00000KT 10SM CLR M07/M11 A3027 RMK AO2 SLP263 T10671106,M
ALO,2022-03-28 11:54,19.90,12.90,73.83,0.00,0.00,0.00,30.28,1026.60,10.00,M,CLR,M,M,M,M,M,M,M,M,M,M,M,M,M,M,19.90,KALO 281154Z 00000KT 10SM CLR M07/M11 A3028 RMK AO2 SLP266 T10671106 11050 21072 51010,M
ALO,2022-03-28 12:54,21.00,15.10,77.59,0.00,0.00,0.00,30.29,1027.20,10.00,M,CLR,M,M,M,M,M,M,M,M,M,M,M,M,M,M,21.00,KALO 281254Z 00000KT 10SM CLR M06/M09 A3029 RMK AO2 SLP272 T10611094,M
ALO,2022-03-28 13:54,27.00,15.10,60.37,100.00,7.00,0.00,30.30,1027.30,10.00,M,CLR,M,M,M,M,M,M,M,M,M,M,M,M,M,M,18.68,KALO 281354Z 10007KT 10SM CLR M03/M09 A3030 RMK AO2 SLP273 T10281094,M
ALO,2022-03-28 14:54,30.00,9.00,40.75,110.00,10.00,0.00,30.30,1027.40,10.00,M,BKN,M,M,M,11000.00,M,M,M,M,M,M,M,M,M,M,20.46,KALO 281454Z 11010KT 10SM BKN110 M01/M13 A3030 RMK AO2 SLP274 T10111128 51008,M
ALO,2022-03-28 15:54,33.10,7.00,32.85,110.00,11.00,0.00,30.30,1027.20,10.00,M,FEW,M,M,M,11000.00,M,M,M,M,M,M,M,M,M,M,23.86,KALO 281554Z 11011KT 10SM FEW110 01/M14 A3030 RMK AO2 SLP272 T00061139,M
ALO,2022-03-28 16:54,36.00,7.00,29.27,100.00,9.00,0.00,30.29,1026.90,10.00,14.00,FEW,M,M,M,11000.00,M,M,M,M,M,M,M,M,M,M,28.49,KALO 281654Z 10009G14KT 10SM FEW110 02/M14 A3029 RMK AO2 SLP269 T00221139,M
ALO,2022-03-28 17:54,37.90,6.10,26.07,M,M,0.00,30.27,1026.20,10.00,M,BKN,M,M,M,12000.00,M,M,M,M,M,M,M,M,M,M,M,KALO 281754Z 10SM BKN120 03/M14 A3027 RMK AO2 SLP262 T00331144 10033 21072 58009,M
ALO,2022-03-28 18:54,39.90,8.10,26.40,M,M,0.00,30.24,1025.00,10.00,M,OVC,M,M,M,12000.00,M,M,M,M,M,M,M,M,M,M,M,KALO 281854Z 10SM OVC120 04/M13 A3024 RMK AO2 SLP250 T00441133,M
ALO,2022-03-28 19:54,42.10,9.00,25.24,150.00,11.00,0.00,30.22,1024.30,10.00,M,SCT,M,M,M,11000.00,M,M,M,M,M,M,M,M,M,M,35.23,KALO 281954Z 15011KT 10SM SCT110 06/M13 A3022 RMK AO2 SLP243 T00561128,M
ALO,2022-03-28 20:54,42.10,10.00,26.40,100.00,14.00,0.00,30.19,1023.30,10.00,M,CLR,M,M,M,M,M,M,M,M,M,M,M,M,M,M,34.18,KALO 282054Z 10014KT 10SM CLR 06/M12 A3019 RMK AO2 SLP233 T00561122 56028,M
ALO,2022-03-28 21:54,43.00,12.00,27.87,120.00,14.00,0.00,30.16,1022.50,10.00,21.00,CLR,M,M,M,M,M,M,M,M,M,M,M,M,M,M,35.34,KALO 282154Z 12014G21KT 10SM CLR 06/M11 A3016 RMK AO2 SLP225 T00611111,M
ALO,2022-03-28 22:54,43.00,12.90,29.00,120.00,14.00,0.00,30.16,1022.20,10.00,M,CLR,M,M,M,M,M,M,M,M,M,M,M,M,M,M,35.34,KALO 282254Z 12014KT 10SM CLR 06/M11 A3016 RMK AO2 SLP222 T00611106,M
ALO,2022-03-28 23:54,39.90,12.00,31.42,120.00,14.00,0.00,30.16,1022.20,10.00,M,FEW,M,M,M,10000.00,M,M,M,M,M,M,M,M,M,M,31.35,KALO 282354Z 12014KT 10SM FEW100 04/M11 A3016 RMK AO2 SLP222 T00441111 10067 20028 56011,M
ALO,2022-03-29 00:54,39.00,12.90,33.86,120.00,11.00,0.00,30.14,1021.70,10.00,M,OVC,M,M,M,9000.00,M,M,M,M,M,M,M,M,M,M,31.31,KALO 290054Z 12011KT 10SM OVC090 04/M11 A3014 RMK AO2 SLP217 T00391106,M
ALO,2022-03-29 01:54,37.90,14.00,37.10,120.00,15.00,0.00,30.14,1021.40,10.00,M,OVC,M,M,M,8500.00,M,M,M,M,M,M,M,M,M,M,28.43,KALO 290154Z AUTO 12015KT 10SM OVC085 03/M10 A3014 RMK AO2 SLP214 T00331100,M
ALO,2022-03-29 02:54,37.00,12.90,36.63,120.00,13.00,0.00,30.14,1021.40,10.00,M,OVC,M,M,M,8500.00,M,M,M,M,M,M,M,M,M,M,27.97,KALO 290254Z AUTO 12013KT 10SM OVC085 03/M11 A3014 RMK AO2 SLP214 T00281106 56007,M
ALO,2022-03-29 03:54,36.00,15.10,41.96,120.00,11.00,0.00,30.13,1021.30,10.00,M,OVC,M,M,M,8500.00,M,M,M,M,M,M,M,M,M,M,27.52,KALO 290354Z AUTO 12011KT 10SM OVC085 02/M09 A3013 RMK AO2 SLP213 T00221094,M
ALO,2022-03-29 04:54,36.00,16.00,43.64,120.00,14.00,0.00,30.13,1021.20,10.00,20.00,OVC,M,M,M,8000.00,M,M,M,M,M,M,M,M,M,M,26.32,KALO 290454Z AUTO 12014G20KT 10SM OVC080 02/M09 A3013 RMK AO2 SLP212 T00221089,M
ALO,2022-03-29 05:54,36.00,17.10,45.77,120.00,13.00,0.00,30.12,1020.90,10.00,M,OVC,M,M,M,8000.00,M,M,M,M,M,M,M,M,M,M,26.69,KALO 290554Z AUTO 12013KT 10SM OVC080 02/M08 A3012 RMK AO2 SLP209 T00221083 10044 20022 400671072 58004,M
ALO,2022-03-29 06:54,35.10,17.10,47.43,120.00,15.00,0.00,30.10,1020.00,10.00,M,OVC,M,M,M,8000.00,M,M,M,M,M,M,M,M,M,M,24.80,KALO 290654Z AUTO 12015KT 10SM OVC080 02/M08 A3010 RMK AO2 SLP200 T00171083,M
ALO,2022-03-29 07:54,35.10,18.00,49.31,120.00,13.00,0.00,30.08,1019.20,10.00,M,OVC,M,M,M,8500.00,M,M,M,M,M,M,M,M,M,M,25.54,KALO 290754Z AUTO 12013KT 10SM OVC085 02/M08 A3008 RMK AO2 SLP192 T00171078,M
ALO,2022-03-29 08:54,35.10,18.00,49.31,120.00,16.00,0.00,30.05,1018.20,10.00,22.00,OVC,M,M,M,6000.00,M,M,M,M,M,M,M,M,M,M,24.46,KALO 290854Z AUTO 12016G22KT 10SM OVC060 02/M08 A3005 RMK AO2 SLP182 T00171078 58025,M
ALO,2022-03-29 09:54,36.00,18.00,47.58,120.00,15.00,0.00,30.02,1017.20,10.00,25.00,OVC,M,M,M,6000.00,M,M,M,M,M,M,M,26.00,130.00,2022-03-29 09:41,25.97,KALO 290954Z AUTO 12015G25KT 10SM OVC060 02/M08 A3002 RMK AO2 PK WND 13026/0941 SLP172 T00221078,M
ALO,2022-03-29 10:54,35.10,19.90,53.49,120.00,17.00,0.00,30.01,1017.00,10.00,27.00,OVC,M,M,M,6000.00,M,M,M,M,M,M,M,27.00,130.00,2022-03-29 10:45,24.14,KALO 291054Z 12017G27KT 10SM OVC060 02/M07 A3001 RMK AO2 PK WND 13027/1045 SLP170 T00171067,M
ALO,2022-03-29 11:54,34.00,19.00,53.77,120.00,16.00,0.00,30.00,1016.80,10.00,25.00,BKN,OVC,M,M,6000.00,7500.00,M,M,M,M,M,M,28.00,110.00,2022-03-29 11:36,23.03,KALO 291154Z 12016G25KT 10SM BKN060 OVC075 01/M07 A3000 RMK AO2 PK WND 11028/1136 SLP168 T00111072 10022 20011 56015,M
ALO,2022-03-29 12:54,34.00,17.10,49.55,130.00,21.00,0.00,29.99,1016.40,10.00,31.00,SCT,M,M,M,7000.00,M,M,M,M,M,M,M,31.00,120.00,2022-03-29 12:46,21.52,KALO 291254Z 13021G31KT 10SM SCT070 01/M08 A2999 RMK AO2 PK WND 12031/1246 SLP164 T00111083,M
ALO,2022-03-29 13:54,35.10,16.00,45.22,120.00,19.00,0.00,29.97,1015.60,10.00,32.00,OVC,M,M,M,8000.00,M,M,M,M,M,M,M,32.00,120.00,2022-03-29 13:48,23.54,KALO 291354Z 12019G32KT 10SM OVC080 02/M09 A2997 RMK AO2 PK WND 12032/1348 SLP156 T00171089,M
ALO,2022-03-29 14:54,37.00,16.00,41.95,120.00,19.00,0.00,29.94,1014.50,10.00,32.00,OVC,M,M,M,6500.00,M,M,M,M,M,M,M,32.00,140.00,2022-03-29 14:48,26.05,KALO 291454Z 12019G32KT 10SM OVC065 03/M09 A2994 RMK AO2 PK WND 14032/1448 SLP145 T00281089 58022,M
ALO,2022-03-29 15:54,37.90,17.10,42.46,120.00,18.00,0.00,29.92,1013.90,10.00,36.00,OVC,M,M,M,5500.00,M,M,M,M,M,M,M,36.00,130.00,2022-03-29 15:50,27.52,KALO 291554Z 12018G36KT 10SM OVC055 03/M08 A2992 RMK AO2 PK WND 13036/1550 SLP139 T00331083,M
ALO,2022-03-29 16:54,37.90,16.00,40.49,120.00,24.00,0.00,29.88,1012.70,10.00,35.00,OVC,M,M,M,4600.00,M,M,M,M,M,M,M,37.00,120.00,2022-03-29 16:02,26.02,KALO 291654Z 12024G35KT 10SM OVC046 03/M09 A2988 RMK AO2 PK WND 12037/1602 SLP127 T00331089,M
ALO,2022-03-29 17:54,37.90,17.10,42.46,120.00,24.00,0.00,29.84,1011.20,10.00,34.00,OVC,M,M,M,4200.00,M,M,M,M,M,M,M,38.00,120.00,2022-03-29 17:20,26.02,KALO 291754Z 12024G34KT 10SM OVC042 03/M08 A2984 RMK AO2 PK WND 12038/1720 SLP112 T00331083 10039 20011 58033,M
ALO,2022-03-29 18:54,37.90,17.10,42.46,130.00,22.00,0.00,29.80,1009.90,10.00,34.00,OVC,M,M,M,3800.00,M,M,M,M,M,M,M,38.00,120.00,2022-03-29 18:10,26.48,KALO 291854Z 13022G34KT 10SM OVC038 03/M08 A2980 RMK AO2 PK WND 12038/1810 SLP099 T00331083,M
ALO,2022-03-29 19:54,39.90,19.00,42.62,120.00,25.00,0.00,29.75,1007.90,10.00,35.00,OVC,M,M,M,3400.00,M,M,M,M,M,M,M,36.00,120.00,2022-03-29 19:20,28.51,KALO 291954Z 12025G35KT 10SM OVC034 04/M07 A2975 RMK AO2 PK WND 12036/1920 SLP079 T00441072,M
ALO,2022-03-29 20:54,39.90,21.00,46.41,120.00,20.00,0.00,29.71,1006.70,10.00,37.00,OVC,M,M,M,3300.00,M,M,M,M,M,M,M,37.00,110.00,2022-03-29 20:52,29.63,KALO 292054Z 12020G37KT 10SM OVC033 04/M06 A2971 RMK AO2 PK WND 11037/2052 SLP067 T00441061 56042,M
ALO,2022-03-29 21:52,39.20,21.20,48.10,110.00,21.00,0.00,29.66,M,10.00,34.00,OVC,M,M,M,2900.00,M,M,M,M,M,M,M,34.00,130.00,2022-03-29 21:50,28.46,KALO 292152Z 11021G34KT 10SM OVC029 04/M06 A2966 RMK AO2 PK WND 13034/2150,M
ALO,2022-03-29 21:54,39.90,23.00,50.50,120.00,22.00,0.00,29.65,1004.80,10.00,35.00,OVC,M,M,M,2900.00,M,M,M,M,M,M,M,35.00,120.00,2022-03-29 21:54,29.16,KALO 292154Z 12022G35KT 10SM OVC029 04/M05 A2965 RMK AO2 PK WND 12035/2154 SLP048 T00441050,M
ALO,2022-03-29 22:27,39.90,23.00,50.50,120.00,23.00,0.00,29.67,M,10.00,33.00,OVC,M,M,M,3100.00,M,M,M,M,M,M,M,36.00,120.00,2022-03-29 22:03,28.93,KALO 292227Z 12023G33KT 10SM OVC031 04/M05 A2967 RMK AO2 PK WND 12036/2203 T00441050,M
ALO,2022-03-29 22:54,39.90,23.00,50.50,120.00,21.00,0.00,29.67,1005.30,10.00,35.00,OVC,M,M,M,3300.00,M,M,M,M,M,M,M,36.00,120.00,2022-03-29 22:03,29.39,KALO 292254Z 12021G35KT 10SM OVC033 04/M05 A2967 RMK AO2 PK WND 12036/2203 SLP053 T00441050,M
ALO,2022-03-29 23:54,41.00,24.10,50.67,120.00,25.00,0.00,29.61,1003.40,10.00,36.00,OVC,M,M,M,3200.00,M,M,M,M,M,M,M,36.00,120.00,2022-03-29 23:50,30.00,KALO 292354Z 12025G36KT 10SM OVC032 05/M04 A2961 RMK AO2 PK WND 12036/2350 SLP034 T00501044 10050 20033 58015,M
ALO,2022-03-30 00:54,41.00,25.00,52.61,110.00,19.00,0.00,29.61,1003.20,10.00,28.00,BKN,M,M,M,3900.00,M,M,M,M,M,M,M,34.00,110.00,2022-03-30 00:42,31.34,KALO 300054Z 11019G28KT 10SM BKN039 05/M04 A2961 RMK AO2 PK WND 11034/0042 SLP032 T00501039,M
ALO,2022-03-30 01:54,41.00,25.00,52.61,120.00,23.00,0.00,29.59,1002.50,10.00,36.00,BKN,BKN,M,M,3900.00,4700.00,M,M,M,M,M,M,36.00,120.00,2022-03-30 01:51,30.41,KALO 300154Z AUTO 12023G36KT 10SM BKN039 BKN047 05/M04 A2959 RMK AO2 PK WND 12036/0151 SLP025 T00501039,M
ALO,2022-03-30 02:54,41.00,26.10,55.07,120.00,18.00,0.00,29.58,1002.20,10.00,29.00,BKN,M,M,M,4400.00,M,M,M,M,M,M,M,36.00,120.00,2022-03-30 01:55,31.60,KALO 300254Z AUTO 12018G29KT 10SM BKN044 05/M03 A2958 RMK AO2 PK WND 12036/0155 SLP022 T00501033 58012,M
ALO,2022-03-30 03:54,41.00,26.10,55.07,120.00,11.00,0.00,29.57,1001.80,10.00,33.00,OVC,M,M,M,4900.00,M,M,M,TS,M,M,M,33.00,130.00,2022-03-30 03:47,33.84,KALO 300354Z AUTO 12011G33KT 10SM TS OVC049 05/M03 A2957 RMK AO2 PK WND 13033/0347 LTG DSNT SW TSB54 SLP018 T00501033,M
ALO,2022-03-30 04:54,37.90,30.00,72.93,130.00,10.00,0.12,29.56,1001.40,4.00,20.00,SCT,BKN,OVC,M,3800.00,5500.00,9000.00,M,-TSRA,M,M,M,27.00,140.00,2022-03-30 03:55,30.37,KALO 300454Z AUTO 13010G20KT 4SM -TSRA SCT038 BKN055 OVC090 03/M01 A2956 RMK AO2 PK WND 14027/0355 LTG DSNT N AND E RAB0357 TSE23B25E44B46 SLP014 P0012 T00331011,M
ALO,2022-03-30 05:09,37.90,30.00,72.93,100.00,9.00,0.02,29.55,M,10.00,M,BKN,BKN,OVC,M,3200.00,4400.00,8000.00,M,VCTS -RA,M,M,M,M,M,M,30.85,KALO 300509Z AUTO 10009KT 10SM VCTS -RA BKN032 BKN044 OVC080 03/M01 A2955 RMK AO2 LTG DSNT N-E TSE03 P0002 T00331011,M
ALO,2022-03-30 05:19,37.90,30.90,75.64,110.00,14.00,0.02,29.52,M,10.00,M,BKN,BKN,M,M,3000.00,3900.00,M,M,M,M,M,M,M,M,M,28.77,KALO 300519Z AUTO 11014KT 10SM BKN030 BKN039 03/M01 A2952 RMK AO2 LTG DSNT NE RAE15 TSE03 PRESFR P0002 T00331006,M
ALO,2022-03-30 05:54,37.90,30.90,75.64,100.00,13.00,0.02,29.51,999.80,10.00,M,BKN,M,M,M,3200.00,M,M,M,M,M,M,M,M,M,M,29.13,KALO 300554Z AUTO 10013KT 10SM BKN032 03/M01 A2951 RMK AO2 RAE15 TSE03 SLP998 P0002 60014 T00331006 10050 20028 400500011 58023,M
ALO,2022-03-30 06:15,37.90,30.90,75.64,120.00,14.00,0.00,29.50,M,10.00,M,OVC,M,M,M,2800.00,M,M,M,M,M,M,M,26.00,110.00,2022-03-30 06:02,28.77,KALO 300615Z AUTO 12014KT 10SM OVC028 03/M01 A2950 RMK AO2 PK WND 11026/0602 T00331006,M
ALO,2022-03-30 06:54,37.00,30.90,78.37,120.00,22.00,0.00,29.41,996.50,10.00,28.00,OVC,M,M,M,2200.00,M,M,M,M,M,M,M,28.00,130.00,2022-03-30 06:51,25.27,KALO 300654Z AUTO 12022G28KT 10SM OVC022 03/M01 A2941 RMK AO2 PK WND 13028/0651 PRESFR SLP965 T00281006,M
ALO,2022-03-30 07:17,37.90,32.00,79.08,110.00,18.00,0.00,29.38,M,10.00,32.00,SCT,SCT,OVC,M,1800.00,5000.00,9000.00,M,M,M,M,M,36.00,120.00,2022-03-30 07:00,27.52,KALO 300717Z AUTO 11018G32KT 10SM SCT018 SCT050 OVC090 03/00 A2938 RMK AO2 PK WND 12036/0700 T00330000,M
ALO,2022-03-30 07:54,37.90,34.00,85.69,110.00,10.00,T,29.33,993.60,10.00,30.00,SCT,M,M,M,1000.00,M,M,M,M,M,M,M,36.00,120.00,2022-03-30 07:00,30.37,KALO 300754Z AUTO 11010G30KT 10SM SCT010 03/01 A2933 RMK AO2 PK WND 12036/0700 RAB21E33 SLP936 P0000 T00330011,M
ALO,2022-03-30 08:02,39.00,35.10,85.76,130.00,12.00,0.00,29.35,M,10.00,M,BKN,M,M,M,1000.00,M,M,M,M,M,M,M,M,M,M,30.91,KALO 300802Z AUTO 13012KT 10SM BKN010 04/02 A2935 RMK AO2 PRESRR T00390017,M
ALO,2022-03-30 08:45,39.90,36.00,85.81,160.00,8.00,0.00,29.34,M,10.00,M,OVC,M,M,M,900.00,M,M,M,M,M,M,M,M,M,M,33.84,KALO 300845Z AUTO 16008KT 10SM OVC009 04/02 A2934 RMK AO2 T00440022,M
ALO,2022-03-30 08:54,39.90,36.00,85.81,160.00,7.00,0.00,29.34,994.00,10.00,M,OVC,M,M,M,900.00,M,M,M,M,M,M,M,M,M,M,34.41,KALO 300854Z AUTO 16007KT 10SM OVC009 04/02 A2934 RMK AO2 SLP940 60000 T00440022 55056,M
ALO,2022-03-30 09:14,41.00,37.00,85.54,180.00,15.00,0.00,29.37,M,10.00,24.00,OVC,M,M,M,1000.00,M,M,M,M,M,M,M,M,M,M,32.45,KALO 300914Z AUTO 18015G24KT 10SM OVC010 05/03 A2937 RMK AO2 CIG 008V013 T00500028,M
ALO,2022-03-30 09:54,39.90,36.00,85.81,120.00,8.00,0.00,29.34,993.90,9.00,M,BKN,M,M,M,1100.00,M,M,M,M,M,M,M,M,M,M,33.84,KALO 300954Z AUTO 12008KT 9SM BKN011 04/02 A2934 RMK AO2 SLP939 T00440022,M
ALO,2022-03-30 10:26,39.00,35.10,85.76,130.00,6.00,0.00,29.35,M,7.00,M,BKN,M,M,M,900.00,M,M,M,M,M,M,M,M,M,M,33.96,KALO 301026Z AUTO 13006KT 7SM BKN009 04/02 A2935 RMK AO2 PRESRR T00390017,M
ALO,2022-03-30 10:43,39.00,36.00,88.87,110.00,6.00,0.00,29.35,M,8.00,M,SCT,BKN,BKN,M,900.00,3800.00,6000.00,M,M,M,M,M,M,M,M,33.96,KALO 301043Z AUTO 11006KT 8SM SCT009 BKN038 BKN060 04/02 A2935 RMK AO2 T00390022,M
ALO,2022-03-30 10:54,39.00,36.00,88.87,110.00,7.00,0.00,29.34,994.00,8.00,M,FEW,BKN,OVC,M,900.00,3500.00,6000.00,M,M,M,M,M,M,M,M,33.31,KALO 301054Z 11007KT 8SM FEW009 BKN035 OVC060 04/02 A2934 RMK AO2 SLP940 T00390022,M
ALO,2022-03-30 11:43,39.90,36.00,85.81,120.00,5.00,0.00,29.32,M,8.00,M,BKN,BKN,OVC,M,2100.00,2900.00,3700.00,M,M,M,M,M,M,M,M,35.78,KALO 301143Z 12005KT 8SM BKN021 BKN029 OVC037 04/02 A2932 RMK AO2 T00440022,M
ALO,2022-03-30 11:54,39.90,36.00,85.81,M,M,0.00,29.31,992.90,9.00,M,BKN,OVC,M,M,2000.00,2600.00,M,M,M,M,M,M,M,M,M,M,KALO 301154Z 9SM BKN020 OVC026 04/02 A2931 RMK AO2 SLP929 60000 70014 T00440022 10050 20028 58010,M
ALO,2022-03-30 12:26,41.00,37.00,85.54,140.00,9.00,0.00,29.33,M,8.00,M,OVC,M,M,M,1400.00,M,M,M,M,M,M,M,M,M,M,34.70,KALO 301226Z 14009KT 8SM OVC014 05/03 A2933 RMK AO2 T00500028,M
ALO,2022-03-30 12:51,41.00,37.40,86.89,150.00,5.00,0.00,29.34,M,2.50,M,OVC,M,M,M,900.00,M,M,M,BR,M,M,M,M,M,M,37.08,KALO 301251Z 15005KT 2 1/2SM BR OVC009 05/03 A2934 RMK AO2 CIG 007V012,M
ALO,2022-03-30 12:54,41.00,37.90,88.62,140.00,6.00,T,29.34,993.90,2.00,M,OVC,M,M,M,900.00,M,M,M,-RA BR,M,M,M,M,M,M,36.37,KALO 301254Z 14006KT 2SM -RA BR OVC009 05/03 A2934 RMK AO2 RAB54 CIG 007V014 SLP939 P0000 T00500033,M
ALO,2022-03-30 13:16,42.10,39.00,88.67,140.00,8.00,0.01,29.33,M,1.75,M,OVC,M,M,M,600.00,M,M,M,BR,M,M,M,M,M,M,36.55,KALO 301316Z 14008KT 1 3/4SM BR OVC006 06/04 A2933 RMK AO2 RAE05 CIG 006V009 P0001 T00560039,M
ALO,2022-03-30 13:29,43.00,39.90,88.71,140.00,6.00,0.01,29.32,M,2.50,M,OVC,M,M,M,600.00,M,M,M,BR,M,M,M,M,M,M,38.78,KALO 301329Z 14006KT 2 1/2SM BR OVC006 06/04 A2932 RMK AO2 RAE05 P0001 T00610044,M
ALO,2022-03-30 13:36,43.00,39.90,88.71,130.00,7.00,0.01,29.30,M,3.00,M,OVC,M,M,M,600.00,M,M,M,BR,M,M,M,M,M,M,38.19,KALO 301336Z 13007KT 3SM BR OVC006 06/04 A2930 RMK AO2 RAE05 PRESFR P0001 T00610044,M
ALO,2022-03-30 13:54,44.10,41.00,88.77,150.00,7.00,0.01,29.30,992.40,3.00,M,OVC,M,M,M,600.00,M,M,M,BR,M,M,M,M,M,M,39.53,KALO 301354Z 15007KT 3SM BR OVC006 07/05 A2930 RMK AO2 RAE05 SLP924 P0001 T00670050,M
ALO,2022-03-30 14:54,45.00,41.00,85.77,230.00,13.00,0.00,29.32,993.30,6.00,M,BKN,OVC,M,M,800.00,1100.00,M,M,BR,M,M,M,M,M,M,38.22,KALO 301454Z 23013KT 6SM BR BKN008 OVC011 07/05 A2932 RMK AO2 CIG 006V011 SLP933 60001 T00720050 51005,M
ALO,2022-03-30 15:54,43.00,39.00,85.66,230.00,14.00,0.00,29.33,993.70,5.00,M,OVC,M,M,M,700.00,M,M,M,BR,M,M,M,M,M,M,35.34,KALO 301554Z 23014KT 5SM BR OVC007 06/04 A2933 RMK AO2 SLP937 T00610039,M
ALO,2022-03-30 16:21,42.10,39.00,88.67,230.00,13.00,0.00,29.32,M,2.50,22.00,OVC,M,M,M,600.00,M,M,M,BR,M,M,M,M,M,M,34.51,KALO 301621Z 23013G22KT 2 1/2SM BR OVC006 06/04 A2932 RMK AO2 T00560039,M
ALO,2022-03-30 16:30,42.10,39.00,88.67,230.00,16.00,0.00,29.33,M,3.00,M,OVC,M,M,M,600.00,M,M,M,BR,M,M,M,M,M,M,33.58,KALO 301630Z 23016KT 3SM BR OVC006 06/04 A2933 RMK AO2 T00560039,M
ALO,2022-03-30 16:54,43.00,39.00,85.66,230.00,14.00,0.00,29.34,993.90,5.00,M,OVC,M,M,M,500.00,M,M,M,BR,M,M,M,M,M,M,35.34,KALO 301654Z 23014KT 5SM BR OVC005 06/04 A2934 RMK AO2 SLP939 T00610039,M
ALO,2022-03-30 17:54,43.00,39.00,85.66,240.00,12.00,0.00,29.33,993.60,5.00,M,OVC,M,M,M,700.00,M,M,M,BR,M,M,M,M,M,M,36.00,KALO 301754Z 24012KT 5SM BR OVC007 06/04 A2933 RMK AO2 SLP936 60001 T00610039 10083 20044 50002,M
ALO,2022-03-30 18:07,43.00,39.90,88.71,260.00,16.00,0.00,29.34,M,2.50,M,OVC,M,M,M,500.00,M,M,M,BR,M,M,M,M,M,M,34.76,KALO 301807Z 26016KT 2 1/2SM BR OVC005 06/04 A2934 RMK AO2 CIG 004V007 T00610044,M
ALO,2022-03-30 18:30,41.00,37.90,88.62,290.00,15.00,0.00,29.35,M,3.00,22.00,OVC,M,M,M,500.00,M,M,M,BR,M,M,M,M,M,M,32.45,KALO 301830Z 29015G22KT 3SM BR OVC005 05/03 A2935 RMK AO2 T00500033,M
ALO,2022-03-30 18:54,41.00,37.00,85.54,300.00,13.00,0.00,29.34,994.10,8.00,21.00,OVC,M,M,M,600.00,M,M,M,M,M,M,M,M,M,M,33.10,KALO 301854Z 30013G21KT 8SM OVC006 05/03 A2934 RMK AO2 SLP941 T00500028,M
ALO,2022-03-30 19:54,39.00,35.10,85.76,300.00,15.00,0.00,29.36,994.90,10.00,M,OVC,M,M,M,600.00,M,M,M,M,M,M,M,M,M,M,29.85,KALO 301954Z 30015KT 10SM OVC006 04/02 A2936 RMK AO2 SLP949 T00390017,M
ALO,2022-03-30 20:54,37.90,34.00,85.69,310.00,15.00,0.00,29.36,994.70,10.00,22.00,OVC,M,M,M,800.00,M,M,M,M,M,M,M,M,M,M,28.43,KALO 302054Z 31015G22KT 10SM OVC008 03/01 A2936 RMK AO2 SLP947 T00330011 50010,M
ALO,2022-03-30 21:54,37.90,33.10,82.66,320.00,15.00,0.00,29.34,994.00,10.00,24.00,OVC,M,M,M,900.00,M,M,M,M,M,M,M,M,M,M,28.43,KALO 302154Z 32015G24KT 10SM OVC009 03/01 A2934 RMK AO2 CIG 009V013 SLP940 T00330006,M
ALO,2022-03-30 22:09,37.90,33.10,82.66,330.00,15.00,0.00,29.34,M,10.00,25.00,OVC,M,M,M,1000.00,M,M,M,M,M,M,M,M,M,M,28.43,KALO 302209Z 33015G25KT 10SM OVC010 03/01 A2934 RMK AO2 T00330006,M
ALO,2022-03-30 22:54,37.90,32.00,79.08,330.00,16.00,0.00,29.36,994.80,10.00,23.00,OVC,M,M,M,1300.00,M,M,M,M,M,M,M,M,M,M,28.11,KALO 302254Z 33016G23KT 10SM OVC013 03/00 A2936 RMK AO2 SLP948 T00330000,M
ALO,2022-03-30 23:54,37.00,32.00,81.93,330.00,16.00,0.00,29.35,994.50,10.00,M,OVC,M,M,M,1300.00,M,M,M,M,M,M,M,27.00,340.00,2022-03-30 23:16,26.94,KALO 302354Z 33016KT 10SM OVC013 03/00 A2935 RMK AO2 PK WND 34027/2316 PRESFR SLP945 T00280000 10061 20028 56002,M
ALO,2022-03-31 00:54,37.00,30.90,78.37,340.00,13.00,0.00,29.39,995.70,10.00,M,OVC,M,M,M,1200.00,M,M,M,M,M,M,M,M,M,M,27.97,KALO 310054Z 34013KT 10SM OVC012 03/M01 A2939 RMK AO2 SLP957 T00281006,M
ALO,2022-03-31 01:54,35.10,32.00,88.33,320.00,13.00,0.00,29.39,995.80,5.00,M,OVC,M,M,M,1000.00,M,M,M,BR,M,M,M,M,M,M,25.54,KALO 310154Z AUTO 32013KT 5SM BR OVC010 02/00 A2939 RMK AO2 CIG 007V013 SLP958 T00170000,M
ALO,2022-03-31 02:54,35.10,32.00,88.33,330.00,14.00,0.00,29.38,995.60,7.00,M,OVC,M,M,M,1200.00,M,M,M,M,M,M,M,M,M,M,25.16,KALO 310254Z AUTO 33014KT 7SM OVC012 02/00 A2938 RMK AO2 PRESFR SLP956 T00170000 50010,M
ALO,2022-03-31 03:31,35.10,30.90,84.49,340.00,15.00,0.00,29.37,M,5.00,20.00,BKN,OVC,M,M,800.00,1200.00,M,M,BR,M,M,M,M,M,M,24.80,KALO 310331Z AUTO 34015G20KT 5SM BR BKN008 OVC012 02/M01 A2937 RMK AO2 CIG 006V011 T00171006,M
ALO,2022-03-31 03:54,35.10,30.90,84.49,330.00,14.00,0.00,29.36,994.90,5.00,22.00,BKN,OVC,M,M,800.00,1300.00,M,M,BR,M,M,M,M,M,M,25.16,KALO 310354Z AUTO 33014G22KT 5SM BR BKN008 OVC013 02/M01 A2936 RMK AO2 SLP949 T00171006,M
ALO,2022-03-31 04:13,35.10,30.90,84.49,330.00,18.00,0.00,29.36,M,8.00,25.00,OVC,M,M,M,1100.00,M,M,M,M,M,M,M,M,M,M,23.83,KALO 310413Z AUTO 33018G25KT 8SM OVC011 02/M01 A2936 RMK AO2 T00171006,M
ALO,2022-03-31 04:54,35.10,30.00,81.46,340.00,13.00,0.00,29.38,995.50,10.00,24.00,OVC,M,M,M,1400.00,M,M,M,M,M,M,M,28.00,340.00,2022-03-31 04:37,25.54,KALO 310454Z AUTO 34013G24KT 10SM OVC014 02/M01 A2938 RMK AO2 PK WND 34028/0437 SLP955 T00171011,M
ALO,2022-03-31 05:07,35.10,30.00,81.46,340.00,16.00,0.00,29.38,M,10.00,24.00,OVC,M,M,M,1500.00,M,M,M,M,M,M,M,M,M,M,24.46,KALO 310507Z AUTO 34016G24KT 10SM OVC015 02/M01 A2938 RMK AO2 T00171011,M
ALO,2022-03-31 05:54,35.10,30.00,81.46,340.00,15.00,0.00,29.38,995.30,10.00,20.00,OVC,M,M,M,1800.00,M,M,M,M,M,M,M,M,M,M,24.80,KALO 310554Z AUTO 34015G20KT 10SM OVC018 02/M01 A2938 RMK AO2 SLP953 T00171011 10028 20017 400830017 56002,M
ALO,2022-03-31 06:54,35.10,28.90,77.88,330.00,16.00,T,29.37,995.20,9.00,22.00,OVC,M,M,M,2000.00,M,M,M,-SN,M,M,M,M,M,M,24.46,KALO 310654Z AUTO 33016G22KT 9SM -SN OVC020 02/M02 A2937 RMK AO2 UPB50E53SNB53 SLP952 P0000 T00171017,M
ALO,2022-03-31 07:17,34.00,30.00,85.11,330.00,16.00,0.01,29.37,M,2.00,M,BKN,OVC,M,M,1500.00,2300.00,M,M,-SN BR,M,M,M,M,M,M,23.03,KALO 310717Z AUTO 33016KT 2SM -SN BR BKN015 OVC023 01/M01 A2937 RMK AO2 P0001 T00111011,M
ALO,2022-03-31 07:27,34.00,30.00,85.11,330.00,16.00,0.01,29.37,M,1.75,24.00,FEW,BKN,OVC,M,700.00,1500.00,2200.00,M,-SN BR,M,M,M,M,M,M,23.03,KALO 310727Z AUTO 33016G24KT 1 3/4SM -SN BR FEW007 BKN015 OVC022 01/M01 A2937 RMK AO2 P0001 T00111011,M
ALO,2022-03-31 07:54,33.10,30.00,88.23,330.00,14.00,0.02,29.38,995.60,1.25,M,BKN,OVC,M,M,800.00,1300.00,M,M,-SN BR,M,M,M,M,M,M,22.58,KALO 310754Z AUTO 33014KT 1 1/4SM -SN BR BKN008 OVC013 01/M01 A2938 RMK AO2 SLP956 P0002 T00061011,M
ALO,2022-03-31 08:17,33.10,30.00,88.23,320.00,14.00,0.01,29.39,M,2.50,M,BKN,OVC,M,M,800.00,1500.00,M,M,-SN BR,M,M,M,M,M,M,22.58,KALO 310817Z AUTO 32014KT 2 1/2SM -SN BR BKN008 OVC015 01/M01 A2939 RMK AO2 P0001 T00061011,M
ALO,2022-03-31 08:26,33.10,30.00,88.23,320.00,15.00,0.01,29.39,M,3.00,M,SCT,BKN,OVC,M,900.00,1200.00,1700.00,M,-SN BR,M,M,M,M,M,M,22.21,KALO 310826Z AUTO 32015KT 3SM -SN BR SCT009 BKN012 OVC017 01/M01 A2939 RMK AO2 P0001 T00061011,M
ALO,2022-03-31 08:43,33.10,30.00,88.23,320.00,18.00,0.01,29.39,M,3.00,26.00,BKN,OVC,M,M,900.00,1500.00,M,M,-SN BR,M,M,M,26.00,320.00,2022-03-31 08:41,21.20,KALO 310843Z AUTO 32018G26KT 3SM -SN BR BKN009 OVC015 01/M01 A2939 RMK AO2 PK WND 32026/0841 CIG 006V013 P0001 T00061011,M
ALO,2022-03-31 08:47,33.10,30.00,88.23,330.00,15.00,0.01,29.39,M,2.50,26.00,BKN,OVC,M,M,1100.00,1900.00,M,M,-SN BR,M,M,M,26.00,320.00,2022-03-31 08:41,22.21,KALO 310847Z AUTO 33015G26KT 2 1/2SM -SN BR BKN011 OVC019 01/M01 A2939 RMK AO2 PK WND 32026/0841 P0001 T00061011,M
ALO,2022-03-31 08:54,33.10,30.00,88.23,330.00,17.00,0.01,29.39,996.00,2.00,23.00,BKN,OVC,M,M,1100.00,1900.00,M,M,-SN BR,M,M,M,26.00,320.00,2022-03-31 08:41,21.52,KALO 310854Z AUTO 33017G23KT 2SM -SN BR BKN011 OVC019 01/M01 A2939 RMK AO2 PK WND 32026/0841 SLP960 P0001 60003 T00061011 53007,M
ALO,2022-03-31 09:03,33.10,30.00,88.23,330.00,15.00,T,29.40,M,1.50,M,BKN,OVC,M,M,900.00,1700.00,M,M,-SN BR,M,M,M,M,M,M,22.21,KALO 310903Z AUTO 33015KT 1 1/2SM -SN BR BKN009 OVC017 01/M01 A2940 RMK AO2 P0000 T00061011,M
ALO,2022-03-31 09:25,33.10,30.00,88.23,320.00,16.00,0.01,29.41,M,2.50,M,BKN,BKN,OVC,M,900.00,1400.00,2100.00,M,-SN BR,M,M,M,M,M,M,21.85,KALO 310925Z AUTO 32016KT 2 1/2SM -SN BR BKN009 BKN014 OVC021 01/M01 A2941 RMK AO2 P0001 T00061011,M
ALO,2022-03-31 09:32,33.10,30.00,88.23,320.00,17.00,0.01,29.41,M,3.00,M,SCT,OVC,M,M,900.00,1400.00,M,M,-SN BR,M,M,M,M,M,M,21.52,KALO 310932Z AUTO 32017KT 3SM -SN BR SCT009 OVC014 01/M01 A2941 RMK AO2 P0001 T00061011,M
ALO,2022-03-31 09:48,33.80,28.40,80.36,330.00,15.00,0.01,29.42,M,2.50,M,SCT,BKN,OVC,M,1100.00,2300.00,2900.00,M,-SN BR,M,M,M,M,M,M,23.11,KALO 310948Z AUTO 33015KT 2 1/2SM -SN BR SCT011 BKN023 OVC029 01/M02 A2942 RMK AO2 P0001,M
ALO,2022-03-31 09:54,33.10,28.90,84.36,320.00,13.00,0.02,29.42,997.00,4.00,M,FEW,BKN,OVC,M,800.00,2500.00,3100.00,M,-SN BR,M,M,M,M,M,M,22.98,KALO 310954Z AUTO 32013KT 4SM -SN BR FEW008 BKN025 OVC031 01/M02 A2942 RMK AO2 SLP970 P0002 T00061017,M
ALO,2022-03-31 10:54,34.00,28.00,78.43,330.00,16.00,T,29.45,998.10,10.00,23.00,OVC,M,M,M,2000.00,M,M,M,M,M,M,M,26.00,340.00,2022-03-31 10:19,23.03,KALO 311054Z 33016G23KT 10SM OVC020 01/M02 A2945 RMK AO2 PK WND 34026/1019 SNE0957 SLP981 P0000 T00111022,M
ALO,2022-03-31 11:54,34.00,28.00,78.43,340.00,18.00,0.00,29.47,998.80,10.00,28.00,OVC,M,M,M,2000.00,M,M,M,M,M,M,M,28.00,340.00,2022-03-31 11:51,22.38,KALO 311154Z 34018G28KT 10SM OVC020 01/M02 A2947 RMK AO2 PK WND 34028/1151 SLP988 60005 70006 T00111022 10017 20006 51027,M
ALO,2022-03-31 12:54,34.00,28.00,78.43,310.00,14.00,0.00,29.51,1000.00,10.00,M,SCT,OVC,M,M,2300.00,3900.00,M,M,M,M,M,M,26.00,340.00,2022-03-31 12:06,23.74,KALO 311254Z 31014KT 10SM SCT023 OVC039 01/M02 A2951 RMK AO2 PK WND 34026/1206 SLP000 T00111022,M
ALO,2022-03-31 13:06,34.00,28.90,81.37,320.00,15.00,0.00,29.52,M,10.00,M,FEW,BKN,OVC,M,1600.00,2200.00,3900.00,M,M,M,M,M,M,M,M,23.37,KALO 311306Z 32015KT 10SM FEW016 BKN022 OVC039 01/M02 A2952 RMK AO2 T00111017,M
ALO,2022-03-31 13:54,34.00,28.90,81.37,320.00,18.00,0.00,29.54,1001.00,10.00,25.00,BKN,BKN,OVC,M,1500.00,2900.00,3400.00,M,M,M,M,M,26.00,330.00,2022-03-31 13:40,22.38,KALO 311354Z 32018G25KT 10SM BKN015 BKN029 OVC034 01/M02 A2954 RMK AO2 PK WND 33026/1340 SLP010 T00111017,M
ALO,2022-03-31 14:54,34.00,28.90,81.37,330.00,19.00,0.00,29.57,1001.90,10.00,25.00,SCT,OVC,M,M,1500.00,2400.00,M,M,M,M,M,M,26.00,310.00,2022-03-31 14:17,22.08,KALO 311454Z 33019G25KT 10SM SCT015 OVC024 01/M02 A2957 RMK AO2 PK WND 31026/1417 SLP019 T00111017 51030,M
ALO,2022-03-31 15:54,35.10,28.00,75.06,330.00,19.00,0.00,29.59,1002.80,10.00,27.00,BKN,OVC,M,M,2300.00,2900.00,M,M,M,M,M,M,31.00,330.00,2022-03-31 15:42,23.54,KALO 311554Z 33019G27KT 10SM BKN023 OVC029 02/M02 A2959 RMK AO2 PK WND 33031/1542 SLP028 T00171022,M
ALO,2022-03-31 16:54,35.10,28.00,75.06,330.00,16.00,0.00,29.62,1003.60,10.00,M,BKN,BKN,OVC,M,2300.00,3000.00,4200.00,M,M,M,M,M,29.00,320.00,2022-03-31 16:11,24.46,KALO 311654Z 33016KT 10SM BKN023 BKN030 OVC042 02/M02 A2962 RMK AO2 PK WND 32029/1611 SLP036 T00171022,M
ALO,2022-03-31 17:54,35.10,28.00,75.06,320.00,18.00,0.00,29.63,1004.10,10.00,26.00,BKN,OVC,M,M,2500.00,3000.00,M,M,M,M,M,M,27.00,320.00,2022-03-31 17:32,23.83,KALO 311754Z 32018G26KT 10SM BKN025 OVC030 02/M02 A2963 RMK AO2 PK WND 32027/1732 SLP041 T00171022 10017 20011 51022,M
ALO,2022-03-31 18:54,34.00,25.00,69.28,310.00,17.00,0.00,29.65,1004.60,10.00,24.00,OVC,M,M,M,2600.00,M,M,M,M,M,M,M,M,M,M,22.70,KALO 311854Z 31017G24KT 10SM OVC026 01/M04 A2965 RMK AO2 SLP046 T00111039,M
ALO,2022-03-31 19:54,35.10,26.10,69.41,320.00,12.00,0.00,29.66,1005.10,10.00,M,BKN,OVC,M,M,2600.00,3200.00,M,M,M,M,M,M,M,M,M,25.95,KALO 311954Z 32012KT 10SM BKN026 OVC032 02/M03 A2966 RMK AO2 SLP051 T00171033,M
ALO,2022-03-31 20:54,35.10,24.10,63.86,310.00,15.00,0.00,29.67,1005.40,10.00,M,FEW,OVC,M,M,2400.00,3100.00,M,M,M,M,M,M,M,M,M,24.80,KALO 312054Z 31015KT 10SM FEW024 OVC031 02/M04 A2967 RMK AO2 SLP054 T00171044 51011,M
ALO,2022-03-31 21:41,34.00,25.00,69.28,300.00,12.00,0.00,29.68,M,10.00,M,BKN,OVC,M,M,2500.00,3300.00,M,M,M,M,M,M,M,M,M,24.55,KALO 312141Z 30012KT 10SM BKN025 OVC033 01/M04 A2968 RMK AO2 T00111039,M
ALO,2022-03-31 21:54,34.00,25.00,69.28,300.00,11.00,0.00,29.68,1006.00,10.00,M,OVC,M,M,M,2900.00,M,M,M,M,M,M,M,M,M,M,24.99,KALO 312154Z 30011KT 10SM OVC029 01/M04 A2968 RMK AO2 SLP060 T00111039,M
ALO,2022-03-31 22:36,35.10,25.00,66.31,330.00,12.00,0.00,29.70,M,10.00,M,OVC,M,M,M,3000.00,M,M,M,M,M,M,M,M,M,M,25.95,KALO 312236Z 33012KT 10SM OVC030 02/M04 A2970 RMK AO2 T00171039,M
